,Unnamed: 0,IMPAQ_ID,REI,DBA Name,Address Line 1,Address Line 2,City,State,Zip,Latitude,Longitude,Full Address,matchsource,est_id,found_pic,Manual Result,name_update,addr_update,lat_update,lon_update,biz_status,DBA Name_update,Full Address_update,Latitude_update,Longitude_update,Coordinates,On Tribe Land,Miles to Nearest Tribe,Assoc Tribe,Assoc Res,Nearest Tribe,Nearest Res,ori_flg,Owner Name,Owner City,Owner State,Non-Corporate Owned,Niel_id,Address Line 1_update,City_update,State_update,Zip_update,County,County_update,SoS_record,entity,agent_name,agent_address,agent_city,agent_state,agent_zip
0,1058,1058,NY604020,PETRO SHOPPING CENTER #371 FUE,1255 ROUTE 414,,WATERLOO,NY,13165,42.96811295,-76.84720290000001,"1255 ROUTE 414  WATERLOO, NY 13165",Original,1058.0,,,Can't Validate,Can't Validate,Can't Validate,Can't Validate,Can't Validate,PETRO SHOPPING CENTER #371 FUE,"1255 ROUTE 414 WATERLOO, NY 13165",42.96811295,-76.84720290000001,POINT (-76.84720290000001 42.96811295),No,43.32418868,,,Onondaga Nation,Onondaga Nation Reservation,From Original List,,,,,,No changes,No changes,No changes,No changes,SENECA,SENECA,,,,,,,
1,1059,1059,NY687511,49 EXPRESS,411 BLOOMINGDALE RD,,AKRON,NY,14001,43.045889,-78.45609,"411 BLOOMINGDALE RD  AKRON, NY 14001",Original,1059.0,1.0,yes,49 EXPRESS PIT STOP,"409 Bloomingdale Rd, Akron, NY 14001, USA",43.0520029,-78.4500742,Active,49 EXPRESS PIT STOP,"409 Bloomingdale Rd, Akron, NY 14001, USA",43.0520029,-78.4500742,POINT (-78.4500742 43.0520029),Yes,0.0,Tonawanda,Tonawanda Reservation,,,From Original List,,,,,,409 BLOOMINGDALE RD,AKRON,NY,14001,,GENESEE,,,,,,,
2,1060,1060,NY687966,A J CIGAR,12587 ROUTE 438,,IRVING,NY,14081,42.51102,-78.96547,"12587 ROUTE 438  IRVING, NY 14081",Original,1060.0,,,Correct,"11318 US-20, Irving, NY 14081, USA",42.5261319,-78.9749942,Active,A J CIGAR,"11318 US-20, Irving, NY 14081, USA",42.526131899999996,-78.9749942,POINT (-78.9749942 42.5261319),Yes,0.0,Cattaraugus,Cattaraugus Reservation,,,From Original List,,,,,,11318 US-20,IRVING,NY,14081,,ERIE,,,,,,,
3,1061,1061,NY687979,AK GAS/CITGO,1569 STATE ROUTE 37,,HOGANSBURG,NY,13655,44.967494,-74.57593,"1569 STATE ROUTE 37  HOGANSBURG, NY 13655",Original,1061.0,1.0,yes,Correct,"1569 NY-37, Hogansburg, NY 13655, USA",44.9676369,-74.5770192,Active,AK GAS/CITGO,"1569 NY-37, Hogansburg, NY 13655, USA",44.9676369,-74.57701920000001,POINT (-74.57701920000002 44.9676369),Yes,0.0,St. Regis Mohawk,St. Regis Mohawk Reservation,,,From Original List,,,,,,1569 -37,HOGANSBURG,NY,13655,,FRANKLIN,,,,,,,
4,1062,1062,NY688226,AKWESASNE MINI MART,155 STATE HIGHWAY 37,,HOGANSBURG,NY,13655,44.977939,-74.70853000000002,"155 STATE HIGHWAY 37  HOGANSBURG, NY 13655",Original,1062.0,,,Correct,"397 NY-37, Hogansburg, NY 13655, USA",44.9782629,-74.7095985,Active,AKWESASNE MINI MART,"397 NY-37, Hogansburg, NY 13655, USA",44.9782629,-74.7095985,POINT (-74.7095985 44.9782629),Yes,0.0,St. Regis Mohawk,St. Regis Mohawk Reservation,,,From Original List,,,,,,397 -37,HOGANSBURG,NY,13655,,FRANKLIN,265974.0,"AKWESASNE CULTURAL CENTER, INC.",,,,,
5,1063,1063,NY688611,ANOTHER DAMN CIGARETTE STORE,76 BEAVER MEADOW RD,,HOGANSBURG,NY,13655,44.956391,-74.57500999999998,"76 BEAVER MEADOW RD  HOGANSBURG, NY 13655",Original,1063.0,,,Correct,"86 Beaver Meadow Rd, Hogansburg, NY 13655, USA",44.952681,-74.5750052,Active,ANOTHER DAMN CIGARETTE STORE,"86 Beaver Meadow Rd, Hogansburg, NY 13655, USA",44.952681,-74.5750052,POINT (-74.57500519999998 44.95268100000001),Yes,0.0,St. Regis Mohawk,St. Regis Mohawk Reservation,,,From Original List,,,,,,86 BEAVER MEADOW RD,HOGANSBURG,NY,13655,,FRANKLIN,,,,,,,
6,1064,1064,NY688626,ANTONE'S,101 CENTRAL AVE,,SALAMANCA,NY,14779,42.1614963,-78.69628,"101 CENTRAL AVE  SALAMANCA, NY 14779",Original,1064.0,,,Correct,Correct,Correct,Correct,Active,ANTONE'S,"101 CENTRAL AVE SALAMANCA, NY 14779",42.161496299999996,-78.69628,POINT (-78.69628 42.1614963),Yes,0.0,Allegany,Allegany Reservation,,,From Original List,,,,,,No changes,No changes,No changes,No changes,,CATTARAUGUS,,,,,,,
7,1065,1065,NY689476,BELLE BELLE SMOKE SHOP,174 POOSPATUCK LN,,MASTIC,NY,11950,40.789246,-72.83246,"174 POOSPATUCK LN  MASTIC, NY 11950",Original,1065.0,,,Correct,Correct,Correct,Correct,Active,BELLE BELLE SMOKE SHOP,"174 POOSPATUCK LN MASTIC, NY 11950",40.789246,-72.83246,POINT (-72.83246 40.789246),No,64.71443583,,,Mohegan,Mohegan Off-Reservation Trust Land,From Original List,,,,,,No changes,No changes,No changes,No changes,,SUFFOLK,,,,,,,
8,1066,1066,NY689627,BIG BOYS,20 RAQUETTE POINT ROAD,,HOGANSBURG,NY,13655,44.980234,-74.71945,"20 RAQUETTE POINT ROAD  HOGANSBURG, NY 13655",Original,1066.0,0.0,,BIG BOY,Correct,Correct,Correct,Active,BIG BOY,"20 RAQUETTE POINT ROAD HOGANSBURG, NY 13655",44.980234,-74.71945,POINT (-74.71944999999999 44.980234),Yes,0.0,St. Regis Mohawk,St. Regis Mohawk Reservation,,,From Original List,,,,,,No changes,No changes,No changes,No changes,,FRANKLIN,,,,,,,
9,1067,1067,NY689797,BLOOMING FLOWER SMOKE SHOP,149 SQUAW LN,,MASTIC,NY,11950,40.791032,-72.82999000000002,"149 SQUAW LN  MASTIC, NY 11950",Original,1067.0,,,Correct,Correct,Correct,Correct,Active,BLOOMING FLOWER SMOKE SHOP,"149 SQUAW LN MASTIC, NY 11950",40.791032,-72.82999000000001,POINT (-72.82999000000002 40.791032),No,64.51705469,,,Mohegan,Mohegan Off-Reservation Trust Land,From Original List,,,,,,No changes,No changes,No changes,No changes,,SUFFOLK,,,,,,,
10,1068,1068,NY690160,BROAD STREET SMOKE SHOP,693 BROAD ST,,SALAMANCA,NY,14779,42.158906,-78.74041,"693 BROAD ST  SALAMANCA, NY 14779",Original,1068.0,1.0,yes,BROAD STREET SMOKE SHOP SALE,"316 Center St, Salamanca, NY 14779, USA",42.1646863,-78.7445304,Active,BROAD STREET SMOKE SHOP SALE,"316 Center St, Salamanca, NY 14779, USA",42.16468629999999,-78.7445304,POINT (-78.7445304 42.16468630000001),Yes,0.0,Allegany,Allegany Reservation,,,From Original List,,,,,,316 CENTER ST,SALAMANCA,NY,14779,,CATTARAUGUS,,,,,,,
11,1069,1069,NY690850,CHARISE SMOKES,13 SQUAW LANE,,MASTIC,NY,11950,40.7903032,-72.83068,"13 SQUAW LANE  MASTIC, NY 11950",Original,1069.0,,,Correct,Correct,Correct,Correct,Active,CHARISE SMOKES,"13 SQUAW LANE MASTIC, NY 11950",40.790303200000004,-72.83068,POINT (-72.83068 40.7903032),No,64.58251779,,,Mohegan,Mohegan Off-Reservation Trust Land,From Original List,,,,,,No changes,No changes,No changes,No changes,,SUFFOLK,,,,,,,
12,1070,1070,NY691619,CRAZY HORSE WHOLESALE,14195 ROUTE 438,,GOWANDA,NY,14070,42.489928000000006,-78.95281,"14195 ROUTE 438  GOWANDA, NY 14070",Original,1070.0,,,Correct,"14195 NY-438, Gowanda, NY 14070, USA",42.4798135,-78.9400099,Active,CRAZY HORSE WHOLESALE,"14195 NY-438, Gowanda, NY 14070, USA",42.4798135,-78.9400099,POINT (-78.94000989999998 42.4798135),No,0.257375509,,,Cattaraugus,Cattaraugus Reservation,From Original List,,,,,,14195 -438,GOWANDA,NY,14070,,ERIE,,,,,,,
13,1071,1071,NY691669,24 HOUR GAS & TOBACCO,14411 ROUTE 438,,GOWANDA,NY,14070,42.483336,-78.94759,"14411 ROUTE 438  GOWANDA, NY 14070",Original,1071.0,1.0,yes,Correct,Correct,Correct,Correct,Active,24 HOUR GAS & TOBACCO,"14411 ROUTE 438 GOWANDA, NY 14070",42.483336,-78.94759,POINT (-78.94759000000001 42.483336),Yes,0.0,Cattaraugus,Cattaraugus Reservation,,,From Original List,,,,,,No changes,No changes,No changes,No changes,,ERIE,,,,,,,
14,1072,1072,NY691820,CURTYS SMOKE SHOP,148 POOSPATUCK LN,,MASTIC,NY,11950,40.788937,-72.83466999999997,"148 POOSPATUCK LN  MASTIC, NY 11950",Original,1072.0,,,Correct,Correct,Correct,Correct,Closed,CURTYS SMOKE SHOP,"148 POOSPATUCK LN MASTIC, NY 11950",40.788937,-72.83466999999999,POINT (-72.83466999999997 40.788937),No,64.83322533,,,Mohegan,Mohegan Off-Reservation Trust Land,From Original List,,,,,,No changes,No changes,No changes,No changes,,SUFFOLK,,,,,,,
15,1073,1073,NY692767,EAGLE FEATHER SMOKE SHOP,52 MONTAUK HIGHWAY,,SOUTHAMPTON,NY,11968,40.884887,-72.42873,"52 MONTAUK HIGHWAY  SOUTHAMPTON, NY 11968",Original,1073.0,,,Correct,Correct,Correct,Correct,Active,EAGLE FEATHER SMOKE SHOP,"52 MONTAUK HIGHWAY SOUTHAMPTON, NY 11968",40.884887,-72.42873,POINT (-72.42873 40.884887),No,43.44396237,,,Mohegan,Mohegan Off-Reservation Trust Land,From Original List,,,,,,No changes,No changes,No changes,No changes,,SUFFOLK,,,,,,,
16,1074,1074,NY692788,EAST END,1995 LENOX ROAD,,COLLINS,NY,14034,42.520116,-78.94304,"1995 LENOX ROAD  COLLINS, NY 14034",Original,1074.0,,,Correct,Correct,Correct,Correct,Active,EAST END,"1995 LENOX ROAD COLLINS, NY 14034",42.520115999999994,-78.94304,POINT (-78.94304 42.52011599999999),No,0.058230542,,,Cattaraugus,Cattaraugus Reservation,From Original List,,,,,,No changes,No changes,No changes,No changes,,ERIE,,,,,,,
17,1075,1075,NY694124,GERONIMO SMOKE SHOP,10 SQUAW LN,,MASTIC,NY,11950,40.79028,-72.83091999999998,"10 SQUAW LN  MASTIC, NY 11950",Original,1075.0,,,Correct,Correct,Correct,Correct,Active,GERONIMO SMOKE SHOP,"10 SQUAW LN MASTIC, NY 11950",40.790279999999996,-72.83091999999999,POINT (-72.83091999999998 40.79028),No,64.59494329,,,Mohegan,Mohegan Off-Reservation Trust Land,From Original List,,,,,,No changes,No changes,No changes,No changes,,SUFFOLK,,,,,,,
18,1076,1076,NY694720,HANK'S SMOKE SHOP,5861 GARLOW ROAD,,LEWISTON,NY,14092,43.139634,-78.96785,"5861 GARLOW ROAD  LEWISTON, NY 14092",Original,1076.0,,,Correct,Correct,Correct,Correct,Active,HANK'S SMOKE SHOP,"5861 GARLOW ROAD LEWISTON, NY 14092",43.139634,-78.96785,POINT (-78.96785 43.139634),No,0.249920695,,,Tuscarora Nation,Tuscarora Nation Reservation,From Original List,,,,,,No changes,No changes,No changes,No changes,,NIAGARA,,,,,,,
19,1077,1077,NY694936,HERON'S LANDING,11156 ROUTE 20,,IRVING,NY,14081,42.579115,-79.07732,"11156 ROUTE 20  IRVING, NY 14081",Original,1077.0,,,Correct,"11186 Southwestern Blvd, Irving, NY 14081, USA",42.5791355,-79.0781467,Active,HERON'S LANDING,"11186 Southwestern Blvd, Irving, NY 14081, USA",42.5791355,-79.0781467,POINT (-79.07814669999998 42.57913549999999),Yes,0.0,Cattaraugus,Cattaraugus Reservation,,,From Original List,,,,,,11186 SOUTHWESTERN BLVD,IRVING,NY,14081,,ERIE,,,,,,,
20,1078,1078,NY695703,JAN'S SMOKE & CRAFT SHOP,383 BLOOMINGDALE RD,,AKRON,NY,14001,43.045889,-78.45609,"383 BLOOMINGDALE RD  AKRON, NY 14001",Original,1078.0,,,Correct,Correct,Correct,Correct,Active,JAN'S SMOKE & CRAFT SHOP,"383 BLOOMINGDALE RD AKRON, NY 14001",43.045889,-78.45609,POINT (-78.45609 43.045889),No,0.414655581,,,Tonawanda,Tonawanda Reservation,From Original List,,,,,,No changes,No changes,No changes,No changes,,GENESEE,,,,,,,
21,1079,1079,NY695723,JAY'S PLACE,5446 WALMORE ROAD,,LEWISTON,NY,14092,43.152348,-78.93438,"5446 WALMORE ROAD  LEWISTON, NY 14092",Original,1079.0,,,Correct,Correct,Correct,Correct,Active,JAY'S PLACE,"5446 WALMORE ROAD LEWISTON, NY 14092",43.152347999999996,-78.93438,POINT (-78.93438 43.152348),Yes,0.0,Tuscarora Nation,Tuscarora Nation Reservation,,,From Original List,,,,,,No changes,No changes,No changes,No changes,,NIAGARA,,,,,,,
22,1080,1080,NY696168,KEN'S SMOKE SHOP,2073 ROUTE 219,,LIMESTONE,NY,14753,42.089942,-78.62985,"2073 ROUTE 219  LIMESTONE, NY 14753",Original,1080.0,,,Correct,Correct,Correct,Correct,Active,KEN'S SMOKE SHOP,"2073 ROUTE 219 LIMESTONE, NY 14753",42.089942,-78.62985,POINT (-78.62985 42.089942),Yes,0.0,Allegany,Allegany Reservation,,,From Original List,,,,,,No changes,No changes,No changes,No changes,,CATTARAUGUS,,,,,,,
23,1081,1081,NY696266,KEYE SUPERCENTER,551 MILESTRIP ROAD,,IRVING,NY,14081,42.5732742,-79.08896999999997,"551 MILESTRIP ROAD  IRVING, NY 14081",Original,1081.0,0.0,,KEYES SUPER CENTER,Correct,Correct,Correct,Active,KEYES SUPER CENTER,"551 MILESTRIP ROAD IRVING, NY 14081",42.5732742,-79.08896999999999,POINT (-79.08896999999997 42.5732742),Yes,0.0,Cattaraugus,Cattaraugus Reservation,,,From Original List,,,,,,No changes,No changes,No changes,No changes,,ERIE,,,,,,,
24,1082,1082,NY696492,Papa's Place Smoke Shop,10924 LAKE SHORE RD,,IRVING,NY,14081,42.60588900000001,-79.10249,"10924 LAKE SHORE RD  IRVING, NY 14081",Original,1082.0,,,Correct,Correct,Correct,Correct,Active,Papa's Place Smoke Shop,"10924 LAKE SHORE RD IRVING, NY 14081",42.605889000000005,-79.10249,POINT (-79.10249 42.60588900000001),No,1.329266848,,,Cattaraugus,Cattaraugus Reservation,From Original List,,,,,,No changes,No changes,No changes,No changes,,ERIE,,,,,,,
25,1083,1083,NY697334,M & M ALLEGHANY JUNCTION,2165 ROUTE 219,,LIMESTONE,NY,14753,42.094619,-78.62791999999997,"2165 ROUTE 219  LIMESTONE, NY 14753",Original,1083.0,,,Correct,Correct,Correct,Correct,Active,M & M ALLEGHANY JUNCTION,"2165 ROUTE 219 LIMESTONE, NY 14753",42.094619,-78.62791999999999,POINT (-78.62791999999997 42.094619),Yes,0.0,Allegany,Allegany Reservation,,,From Original List,,,,,,No changes,No changes,No changes,No changes,,CATTARAUGUS,,,,,,,
26,1084,1084,NY697367,M J ENTERPRISES,5001 ROUTE 417,,ALLEGANY,NY,14706,42.095906,-78.58006,"5001 ROUTE 417  ALLEGANY, NY 14706",Original,1084.0,,,Correct,"5001 NY-417, Allegany, NY 14706, USA",42.0962415,-78.5801115,Active,M J ENTERPRISES,"5001 NY-417, Allegany, NY 14706, USA",42.0962415,-78.5801115,POINT (-78.5801115 42.0962415),Yes,0.0,Allegany,Allegany Reservation,,,From Original List,,,,,,5001 -417,ALLEGANY,NY,14706,,CATTARAUGUS,,,,,,,
27,1085,1085,NY698387,MONTAUK NATIVE GASOLINE STA,182 POOSPATUCK LN,,MASTIC,NY,11950,40.789318,-72.83178000000002,"182 POOSPATUCK LN  MASTIC, NY 11950",Original,1085.0,,,Correct,"182C, Poospatuck Ln, Mastic, NY 11950, USA",40.7892892,-72.8313806,Active,MONTAUK NATIVE GASOLINE STA,"182C, Poospatuck Ln, Mastic, NY 11950, USA",40.789289200000006,-72.8313806,POINT (-72.83138060000002 40.78928920000001),No,64.66129723,,,Mohegan,Mohegan Off-Reservation Trust Land,From Original List,,,,,,182C POOSPATUCK LN,MASTIC,NY,11950,,SUFFOLK,1691536.0,MONTAUK NATIVE GAS II INC,,,,,
28,1086,1086,NY698621,NAFCO QUICK STOP,881 BROAD ST,,SALAMANCA,NY,14779,42.157107,-78.7481,"881 BROAD ST  SALAMANCA, NY 14779",Original,1086.0,,,Correct,Correct,Correct,Correct,Active,NAFCO QUICK STOP,"881 BROAD ST SALAMANCA, NY 14779",42.157107,-78.7481,POINT (-78.74809999999999 42.157107),Yes,0.0,Allegany,Allegany Reservation,,,From Original List,,,,,,No changes,No changes,No changes,No changes,,CATTARAUGUS,,,,,,,
29,1087,1087,NY698696,NATIVE LAND SMOKE SHOP,136 POOSPATUCK LANE,,MASTIC,NY,11950,40.788737,-72.83545,"136 POOSPATUCK LANE  MASTIC, NY 11950",Original,1087.0,,,Correct,Correct,Correct,Correct,Active,NATIVE LAND SMOKE SHOP,"136 POOSPATUCK LANE MASTIC, NY 11950",40.788737,-72.83545,POINT (-72.83544999999999 40.788737),No,64.87925298,,,Mohegan,Mohegan Off-Reservation Trust Land,From Original List,,,,,,No changes,No changes,No changes,No changes,,SUFFOLK,,,,,,,
30,1088,1088,NY698697,NATIVE SISTERS SMOKE SHOP,189 POOSPATUCK LN,,MASTIC,NY,11950,40.789551,-72.8313,"189 POOSPATUCK LN  MASTIC, NY 11950",Original,1088.0,,,Correct,Correct,Correct,Correct,Active,NATIVE SISTERS SMOKE SHOP,"189 POOSPATUCK LN MASTIC, NY 11950",40.789551,-72.8313,POINT (-72.8313 40.789551),No,64.64571268,,,Mohegan,Mohegan Off-Reservation Trust Land,From Original List,,,,,,No changes,No changes,No changes,No changes,,SUFFOLK,,,,,,,
31,1089,1089,NY698698,NATIVE SONS TOBACCO,50A MONTAUK HIGHWAY,,SOUTHAMPTON,NY,11968,40.8848622,-72.4285,"50A MONTAUK HIGHWAY  SOUTHAMPTON, NY 11968",Original,1089.0,,,Correct,"50 Montauk Hwy A, Southampton, NY 11968, USA",40.8849528,-72.4302982,Active,NATIVE SONS TOBACCO,"50 Montauk Hwy A, Southampton, NY 11968, USA",40.8849528,-72.43029820000001,POINT (-72.43029820000002 40.8849528),No,43.48892811,,,Mohegan,Mohegan Off-Reservation Trust Land,From Original List,,,,,,50 MONTAUK HWY A,SOUTHAMPTON,NY,11968,,SUFFOLK,1741490.0,NATIVE SONS TOBACCO INC.,,,,,
32,1090,1090,NY699659,PAPA'S PLACE II,1712 ROUTE 219,,LIMESTONE,NY,14753,42.076627,-78.63627,"1712 ROUTE 219  LIMESTONE, NY 14753",Original,1090.0,,,Correct,Correct,Correct,Correct,Active,PAPA'S PLACE II,"1712 ROUTE 219 LIMESTONE, NY 14753",42.076627,-78.63627,POINT (-78.63627 42.076627),Yes,0.0,Allegany,Allegany Reservation,,,From Original List,,,,,,No changes,No changes,No changes,No changes,,CATTARAUGUS,,,,,,,
33,1091,1091,NY699743,PARKVIEW SUPERMARKET,545 BROAD ST,,SALAMANCA,NY,14779,42.156918,-78.7359,"545 BROAD ST  SALAMANCA, NY 14779",Original,1091.0,,,Correct,Correct,Correct,Correct,Active,PARKVIEW SUPERMARKET,"545 BROAD ST SALAMANCA, NY 14779",42.156918,-78.7359,POINT (-78.7359 42.156918),Yes,0.0,Allegany,Allegany Reservation,,,From Original List,,,,,,No changes,No changes,No changes,No changes,,CATTARAUGUS,,,,,,,
34,1092,1092,NY700665,RAINDROPS QUICK STOP,40 MONTAUK HWY,,SOUTHAMPTON,NY,11968,40.8847354,-72.42733,"40 MONTAUK HWY  SOUTHAMPTON, NY 11968",Original,1092.0,,,Correct,Correct,Correct,Correct,Active,RAINDROPS QUICK STOP,"40 MONTAUK HWY SOUTHAMPTON, NY 11968",40.8847354,-72.42733,POINT (-72.42733 40.8847354),No,43.40932847,,,Mohegan,Mohegan Off-Reservation Trust Land,From Original List,,,,,,No changes,No changes,No changes,No changes,,SUFFOLK,,,,,,,
35,1093,1093,NY700701,RANDY'S SMOKE SHOP,1325 UPPER MOUNTAIN ROAD,,LEWISTON,NY,14092,43.172741,-78.98971,"1325 UPPER MOUNTAIN ROAD  LEWISTON, NY 14092",Original,1093.0,,,Correct,Correct,Correct,Correct,Active,RANDY'S SMOKE SHOP,"1325 UPPER MOUNTAIN ROAD LEWISTON, NY 14092",43.172740999999995,-78.98971,POINT (-78.98971 43.17274099999999),Yes,0.0,Tuscarora Nation,Tuscarora Nation Reservation,,,From Original List,,,,,,No changes,No changes,No changes,No changes,,NIAGARA,,,,,,,
36,1094,1094,NY701380,SACAJAWEA INDIAN MARKET,888 BLOOMINGDALE RD,,BASOM,NY,14013,43.060547,-78.41891,"888 BLOOMINGDALE RD  BASOM, NY 14013",Original,1094.0,,,SACAJAWEA SMOKE SHOP,Correct,Correct,Correct,Active,SACAJAWEA SMOKE SHOP,"888 BLOOMINGDALE RD BASOM, NY 14013",43.060547,-78.41891,POINT (-78.41891 43.060547),Yes,0.0,Tonawanda,Tonawanda Reservation,,,From Original List,,,,,,No changes,No changes,No changes,No changes,,GENESEE,,,,,,,
37,1095,1095,NY701768,SENECA ERIE GAMING CORP,1 FULTON ST,,BUFFALO,NY,14204,42.873902,-78.87149000000002,"1 FULTON ST  BUFFALO, NY 14204",Original,1095.0,1.0,yes,SENECA BUFFALO CREEK CASINO,Correct,Correct,Correct,Active,SENECA BUFFALO CREEK CASINO,"1 FULTON ST BUFFALO, NY 14204",42.873902,-78.87149000000001,POINT (-78.87149000000002 42.873902),No,17.82784914,,,Tuscarora Nation,Tuscarora Nation Reservation,From Original List,,,,,,No changes,No changes,No changes,No changes,,ERIE,,,,,,,
38,1096,1096,NY701770,SENECA HICKORY STICK GOLF,4560 CREEK RD,,LEWISTON,NY,14092,43.192871,-79.01785,"4560 CREEK RD  LEWISTON, NY 14092",Original,1096.0,,,Correct,Correct,Correct,Correct,Active,SENECA HICKORY STICK GOLF,"4560 CREEK RD LEWISTON, NY 14092",43.192871000000004,-79.01785,POINT (-79.01785 43.192871),No,1.692566122,,,Tuscarora Nation,Tuscarora Nation Reservation,From Original List,,,,,,No changes,No changes,No changes,No changes,,NIAGARA,,,,,,,
39,1097,1097,NY701774,SENECA NATION OF INDIANS,11482 ROUTE 20,,IRVING,NY,14081,42.571761,-79.0967,"11482 ROUTE 20  IRVING, NY 14081",Original,1097.0,,,NATIVE PRIDE TRAVEL PLAZA,Correct,Correct,Correct,Active,NATIVE PRIDE TRAVEL PLAZA,"11482 ROUTE 20 IRVING, NY 14081",42.571760999999995,-79.0967,POINT (-79.0967 42.571761),Yes,0.0,Cattaraugus,Cattaraugus Reservation,,,From Original List,,,,,,No changes,No changes,No changes,No changes,,ERIE,,,,,,,
40,1098,1098,NY701775,SENECA NATION OF INDIANS,1720 BUSH RD,,GOWANDA,NY,14070,42.51423,-78.97188,"1720 BUSH RD  GOWANDA, NY 14070",Original,1098.0,,,Correct,"12837 NY-438, Irving, NY 14081, USA",42.5387008,-78.9972287,Active,SENECA NATION OF INDIANS,"12837 NY-438, Irving, NY 14081, USA",42.538700799999994,-78.99722870000001,POINT (-78.99722870000002 42.5387008),Yes,0.0,Cattaraugus,Cattaraugus Reservation,,,From Original List,,,,,,12837 -438,IRVING,NY,14081,,ERIE,,,,,,,
41,1099,1099,NY701776,SENECA NIAGARA CASINO & HOTEL,310 4TH ST,,NIAGARA FALLS,NY,14303,43.085747,-79.05788000000003,"310 4TH ST  NIAGARA FALLS, NY 14303",Original,1099.0,,,Correct,Correct,Correct,Correct,Active,SENECA NIAGARA CASINO & HOTEL,"310 4TH ST NIAGARA FALLS, NY 14303",43.085747,-79.05788000000001,POINT (-79.05788000000003 43.085747),No,6.3821411370000005,,,Tuscarora Nation,Tuscarora Nation Reservation,From Original List,,,,,,No changes,No changes,No changes,No changes,,NIAGARA,,,,,,,
42,1100,1100,NY701777,SENECA ONE STOP - IRVING,11150 ROUTE 20,,IRVING,NY,14081,42.579258,-79.07694000000002,"11150 ROUTE 20  IRVING, NY 14081",Original,1100.0,,,Correct,"11150 Rte 5 & 20, Irving, NY 14081, USA",42.5827805,-79.0693523,Active,SENECA ONE STOP - IRVING,"11150 Rte 5 & 20, Irving, NY 14081, USA",42.5827805,-79.06935229999999,POINT (-79.06935229999998 42.5827805),No,0.013341938000000001,,,Cattaraugus,Cattaraugus Reservation,From Original List,,,,,,11150 RTE 5 & 20,IRVING,NY,14081,,ERIE,,,,,,,
43,1101,1101,NY701778,SENECA ONE STOP,5376 COUNTY ROAD 7D,,CUBA,NY,14727,42.243783,-78.30814000000002,"5376 COUNTY ROAD 7D  CUBA, NY 14727",Original,1101.0,,,Correct,"5376 W Shore Rd, Cuba, NY 14727, USA",42.2359828,-78.3100344,Active,SENECA ONE STOP,"5376 W Shore Rd, Cuba, NY 14727, USA",42.235982799999995,-78.3100344,POINT (-78.31003439999998 42.2359828),Yes,0.0,Oil Springs,Oil Springs Reservation,,,From Original List,,,,,,5376 W SHORE RD,CUBA,NY,14727,,CATTARAUGUS,,,,,,,
44,1102,1102,NY701779,SENECA ONE STOP,745 BROAD ST,,SALAMANCA,NY,14779,42.15851,-78.7442,"745 BROAD ST  SALAMANCA, NY 14779",Original,1102.0,,,Correct,Correct,Correct,Correct,Active,SENECA ONE STOP,"745 BROAD ST SALAMANCA, NY 14779",42.15851,-78.7442,POINT (-78.74420000000001 42.15851),Yes,0.0,Allegany,Allegany Reservation,,,From Original List,,,,,,No changes,No changes,No changes,No changes,,CATTARAUGUS,,,,,,,
45,1103,1103,NY701784,MORNING STAR,13113 ROUTE 438,,GOWANDA,NY,14070,42.524735,-78.97363,"13113 ROUTE 438  GOWANDA, NY 14070",Original,1103.0,1.0,no,Correct,"6111 W Hoffman Rd, Springville, NY 14141, USA",42.497897,-78.760813,Active,MORNING STAR,"6111 W Hoffman Rd, Springville, NY 14141, USA",42.497896999999995,-78.760813,POINT (-78.760813 42.49789699999999),No,11.9532325,,,Cattaraugus,Cattaraugus Reservation,From Original List,,,,,,6111 W HOFFMAN RD,SPRINGVILLE,NY,14141,,ERIE,,,,,,,
46,1104,1104,NY701785,SENEKA SMOKE SHOP,702 BROAD ST,,SALAMANCA,NY,14779,42.159301,-78.74072,"702 BROAD ST  SALAMANCA, NY 14779",Original,1104.0,,,Correct,"1343, 702 Broad St, Salamanca, NY 14779, USA",42.1593545,-78.7408045,Closed,SENEKA SMOKE SHOP,"1343, 702 Broad St, Salamanca, NY 14779, USA",42.1593545,-78.74080450000001,POINT (-78.74080450000002 42.1593545),Yes,0.0,Allegany,Allegany Reservation,,,From Original List,,,,,,"1343, 702 BROAD ST",SALAMANCA,NY,14779,,CATTARAUGUS,,,,,,,
47,1105,1105,NY702040,SIGNALS,11024 ROUTE 20,,IRVING,NY,14081,42.582737,-79.0689,"11024 ROUTE 20  IRVING, NY 14081",Original,1105.0,,,Correct,"11024 Southwestern Blvd, Irving, NY 14081, USA",42.5825268,-79.0690339,Active,SIGNALS,"11024 Southwestern Blvd, Irving, NY 14081, USA",42.5825268,-79.06903390000001,POINT (-79.06903390000002 42.5825268),Yes,0.0,Cattaraugus,Cattaraugus Reservation,,,From Original List,,,,,,11024 SOUTHWESTERN BLVD,IRVING,NY,14081,,ERIE,,,,,,,
48,1106,1106,NY702203,SMOKIN JOES,4900 INDIAN HILL ROAD,,LEWISTON,NY,14092,43.177324,-78.98343,"4900 INDIAN HILL ROAD  LEWISTON, NY 14092",Original,1106.0,,,Correct,Correct,Correct,Correct,Active,SMOKIN JOES,"4900 INDIAN HILL ROAD LEWISTON, NY 14092",43.177324,-78.98343,POINT (-78.98343 43.177324),Yes,0.0,Tuscarora Nation,Tuscarora Nation Reservation,,,From Original List,,,,,,No changes,No changes,No changes,No changes,,NIAGARA,,,,,,,
49,1107,1107,NY702373,SOVERIGN SENECA TOBACCO,1356 CAYUGA RD,,IRVING,NY,14081,42.562302,-79.00361,"1356 CAYUGA RD  IRVING, NY 14081",Original,1107.0,1.0,yes,Correct,Correct,Correct,Correct,Active,SOVERIGN SENECA TOBACCO,"1356 CAYUGA RD IRVING, NY 14081",42.562302,-79.00361,POINT (-79.00360999999999 42.562302),Yes,0.0,Cattaraugus,Cattaraugus Reservation,,,From Original List,,,,,,No changes,No changes,No changes,No changes,,ERIE,,,,,,,
50,1108,1108,NY703731,SMOKIN JOES,2293 SAUNDERS SETTLEMENT RD,,SANBORN,NY,14132,43.143328,-78.92258000000002,"2293 SAUNDERS SETTLEMENT RD  SANBORN, NY 14132",Original,1108.0,,,SMOKIN JOES TRADING POST,Correct,Correct,Correct,Active,SMOKIN JOES TRADING POST,"2293 SAUNDERS SETTLEMENT RD SANBORN, NY 14132",43.143328000000004,-78.92258000000001,POINT (-78.92258000000002 43.143328),Yes,0.0,Tuscarora Nation,Tuscarora Nation Reservation,,,From Original List,,,,,,No changes,No changes,No changes,No changes,,NIAGARA,,,,,,,
51,1109,1109,NY704865,WOLVES DEN,7060 POODRY RD,,BASOM,NY,14013,43.072004,-78.43045,"7060 POODRY RD  BASOM, NY 14013",Original,1109.0,1.0,yes,Correct,Correct,Correct,Correct,Active,WOLVES DEN,"7060 POODRY RD BASOM, NY 14013",43.072004,-78.43045,POINT (-78.43044999999999 43.072004),Yes,0.0,Tonawanda,Tonawanda Reservation,,,From Original List,,,,,,No changes,No changes,No changes,No changes,,GENESEE,,,,,,,
52,1110,1110,NY704928,WW VANDALIA GASMART,5017 ROUTE 417,,ALLEGANY,NY,14706,42.095747,-78.58128,"5017 ROUTE 417  ALLEGANY, NY 14706",Original,1110.0,,,Correct,"5017 NY-417, Allegany, NY 14706, USA",42.0956067,-78.5815574,Active,WW VANDALIA GASMART,"5017 NY-417, Allegany, NY 14706, USA",42.095606700000005,-78.58155740000001,POINT (-78.58155740000002 42.09560670000001),Yes,0.0,Allegany,Allegany Reservation,,,From Original List,,,,,,5017 -417,ALLEGANY,NY,14706,,CATTARAUGUS,,,,,,,
53,1111,1111,NY712355,GAIL'S TOBACCO & GAS OUTLET,2273 SAUNDERS SETTLEMENT ROAD,,SANBORN,NY,14132,43.143298,-78.92399,"2273 SAUNDERS SETTLEMENT ROAD  SANBORN, NY 14132",Original,1111.0,,,Correct,Correct,Correct,Correct,Active,GAIL'S TOBACCO & GAS OUTLET,"2273 SAUNDERS SETTLEMENT ROAD SANBORN, NY 14132",43.143298,-78.92399,POINT (-78.92399 43.143298),Yes,0.0,Tuscarora Nation,Tuscarora Nation Reservation,,,From Original List,,,,,,No changes,No changes,No changes,No changes,,NIAGARA,,,,,,,
54,1112,1112,NY740018,TURTLE PIT CONVENIENCE STORE,1972 W PERIMETER RD,,STEAMBURG,NY,14783,42.086376,-78.89369,"1972 W PERIMETER RD  STEAMBURG, NY 14783",Census,1112.0,1.0,yes,Correct,Correct,Correct,Correct,Active,TURTLE PIT CONVENIENCE STORE,"1972 W PERIMETER RD STEAMBURG, NY 14783",42.086376,-78.89369,POINT (-78.89369000000001 42.086376),Yes,0.0,Allegany,Allegany Reservation,,,From Original List,,,,,,No changes,No changes,No changes,No changes,,CATTARAUGUS,,,,,,,
55,1113,1113,NY745946,LAKESIDE ENTERTAINMENT - UNION SPRINGS,271 CAYUGA ST.,,UNION SPRINGS,NY,13160,42.85367700000001,-76.690911,"271 CAYUGA ST.  UNION SPRINGS, NY 13160",Original,1113.0,,,Correct,"271 Cayuga St, Seneca Falls, NY 13148, USA",42.853682,-76.691439,Active,LAKESIDE ENTERTAINMENT - UNION SPRINGS,"271 Cayuga St, Seneca Falls, NY 13148, USA",42.853682,-76.691439,POINT (-76.691439 42.85368199999999),No,33.65318808,,,Onondaga Nation,Onondaga Nation Reservation,From Original List,,,,,,271 CAYUGA ST,SENECA FALLS,NY,13148,,CAYUGA,,,,,,,
56,1114,1114,NY745947,LAKESIDE TRADING,299 CAYUGA ST.,,UNION SPRINGS,NY,13160,42.85694,-76.691726,"299 CAYUGA ST.  UNION SPRINGS, NY 13160",Original,1114.0,1.0,yes,LAKESIDE TRADING - UNION,Correct,Correct,Correct,Active,LAKESIDE TRADING - UNION,"299 CAYUGA ST. UNION SPRINGS, NY 13160",42.85694,-76.691726,POINT (-76.691726 42.85694),No,33.64876647,,,Onondaga Nation,Onondaga Nation Reservation,From Original List,,,,,,No changes,No changes,No changes,No changes,,CAYUGA,,,,,,,
57,1115,1115,NY746206,AK GAS & TOBACCO,1569 NY 37,,HOGANSBURG,NY,13655,44.967467,-74.576963,"1569 NY 37  HOGANSBURG, NY 13655",Original,1115.0,,,Correct,"1569 NY-37, Hogansburg, NY 13655, USA",44.9676369,-74.5770192,Active,AK GAS & TOBACCO,"1569 NY-37, Hogansburg, NY 13655, USA",44.9676369,-74.57701920000001,POINT (-74.57701920000002 44.9676369),Yes,0.0,St. Regis Mohawk,St. Regis Mohawk Reservation,,,From Original List,,,,,,1569 -37,HOGANSBURG,NY,13655,,FRANKLIN,,,,,,,
58,1116,1116,NY746207,AKWAKS SMOKE SHOP,640 NY 37,,HOGANSBURG,NY,13655,44.97296,-74.66494499999997,"640 NY 37  HOGANSBURG, NY 13655",Original,1116.0,,,Correct,"640 NY-37, Hogansburg, NY 13655, USA",44.9727242,-74.6648534,Active,AKWAKS SMOKE SHOP,"640 NY-37, Hogansburg, NY 13655, USA",44.9727242,-74.66485340000001,POINT (-74.66485340000001 44.97272419999999),No,0.305610946,,,St. Regis Mohawk,St. Regis Mohawk Reservation,From Original List,,,,,,640 -37,HOGANSBURG,NY,13655,,FRANKLIN,,,,,,,
59,1117,1117,NY746208,AKWASANE TOBACCO SHOP,48 HERNE RD.,,HOGANSBURG,NY,13655,44.978342,-74.72204599999998,"48 HERNE RD.  HOGANSBURG, NY 13655",Original,1117.0,,,Correct,Correct,Correct,Correct,Closed,AKWASANE TOBACCO SHOP,"48 HERNE RD. HOGANSBURG, NY 13655",44.978342,-74.72204599999999,POINT (-74.72204599999998 44.978342),Yes,0.0,St. Regis Mohawk,St. Regis Mohawk Reservation,,,From Original List,,,,,,No changes,No changes,No changes,No changes,,FRANKLIN,,,,,,,
60,1118,1118,NY746209,AKWESASNE MOHAWK CASINO AND RESORT,873 NY 37,,HOGANSBURG,NY,13655,44.967515,-74.645474,"873 NY 37  HOGANSBURG, NY 13655",Original,1118.0,,,Correct,"873 NY-37, Hogansburg, NY 13655, USA",44.9707983,-74.6417511,Active,AKWESASNE MOHAWK CASINO AND RESORT,"873 NY-37, Hogansburg, NY 13655, USA",44.9707983,-74.6417511,POINT (-74.64175109999999 44.9707983),Yes,0.0,St. Regis Mohawk,St. Regis Mohawk Reservation,,,From Original List,,,,,,873 -37,HOGANSBURG,NY,13655,,FRANKLIN,265974.0,"AKWESASNE CULTURAL CENTER, INC.",,,,,
61,1119,1119,NY746210,BEAR'S DEN CONVENIENCE STORE,148 S.R. 37,,HOGANSBURG,NY,13655,44.9778018,-74.71031359999998,"148 S.R. 37  HOGANSBURG, NY 13655",Google,1119.0,,,Correct,"425 NY-37, Hogansburg, NY 13566, USA",44.9788669,-74.68316,Active,BEAR'S DEN CONVENIENCE STORE,"425 NY-37, Hogansburg, NY 13566, USA",44.9788669,-74.68316,POINT (-74.68316 44.9788669),Yes,0.0,St. Regis Mohawk,St. Regis Mohawk Reservation,,,From Original List,,,,,,425 -37,HOGANSBURG,NY,13566,,FRANKLIN,,,,,,,
62,1120,1120,NY746211,BEAR'S DEN CONVENIENCE STORE,425 NY 37,,HOGANSBURG,NY,13655,44.978666,-74.683487,"425 NY 37  HOGANSBURG, NY 13655",Original,1120.0,,,Correct,"425 NY-37, Hogansburg, NY 13566, USA",44.9788669,-74.68316,Active,BEAR'S DEN CONVENIENCE STORE,"425 NY-37, Hogansburg, NY 13566, USA",44.9788669,-74.68316,POINT (-74.68316 44.9788669),Yes,0.0,St. Regis Mohawk,St. Regis Mohawk Reservation,,,From Original List,,,,,,425 -37,HOGANSBURG,NY,13566,,FRANKLIN,,,,,,,
63,1121,1121,NY746212,BEAR'S DEN/EASTERN DOOR CONVENIENCE STORE,1285 S.R. 37,,HOGANSBURG,NY,13655,44.968304,-74.604345,"1285 S.R. 37  HOGANSBURG, NY 13655",Google,1121.0,1.0,yes,Correct,"1285 NY-37, Hogansburg, NY 13655, USA",44.9677874,-74.6169934,Active,BEAR'S DEN/EASTERN DOOR CONVENIENCE STORE,"1285 NY-37, Hogansburg, NY 13655, USA",44.9677874,-74.6169934,POINT (-74.6169934 44.9677874),Yes,0.0,St. Regis Mohawk,St. Regis Mohawk Reservation,,,From Original List,,,,,,1285 -37,HOGANSBURG,NY,13655,,FRANKLIN,,,,,,,
64,1122,1122,NY746213,CHIEFS TOBACCO OUTLET & GAS,397 NY 37,,HOGANSBURG,NY,13655,44.978574,-74.68723100000003,"397 NY 37  HOGANSBURG, NY 13655",Original,1122.0,,,Correct,"397 NY-37, Hogansburg, NY 13655, USA",44.9790235,-74.6862075,Active,CHIEFS TOBACCO OUTLET & GAS,"397 NY-37, Hogansburg, NY 13655, USA",44.9790235,-74.6862075,POINT (-74.68620749999999 44.9790235),Yes,0.0,St. Regis Mohawk,St. Regis Mohawk Reservation,,,From Original List,,,,,,397 -37,HOGANSBURG,NY,13655,,FRANKLIN,,,,,,,
65,1123,1123,NY746214,CTS MARKET,311 ST. REGIS RD.,,HOGANSBURG,NY,13655,44.993458,-74.655603,"311 ST. REGIS RD.  HOGANSBURG, NY 13655",Original,1123.0,,,Correct,Correct,Correct,Correct,Active,CTS MARKET,"311 ST. REGIS RD. HOGANSBURG, NY 13655",44.993458000000004,-74.655603,POINT (-74.655603 44.993458),Yes,0.0,St. Regis Mohawk,St. Regis Mohawk Reservation,,,From Original List,,,,,,No changes,No changes,No changes,No changes,,FRANKLIN,,,,,,,
66,1124,1124,NY746215,KEEGANS TOBACCO SHOP,103 ROOSEVELT HWY.,,AKWESASNE,NY,13655,44.9765656,-74.7181536,"103 ROOSEVELT HWY.  AKWESASNE, NY 13655",Google,1124.0,,,Correct,Correct,Correct,Correct,Active,KEEGANS TOBACCO SHOP,"103 ROOSEVELT HWY. AKWESASNE, NY 13655",44.9765656,-74.7181536,POINT (-74.71815359999999 44.9765656),Yes,0.0,St. Regis Mohawk,St. Regis Mohawk Reservation,,,From Original List,,,,,,No changes,No changes,No changes,No changes,,FRANKLIN,,,,,,,
67,1125,1125,NY746216,LUV'S TOBACCO,77 ROOSEVELT HWY.,,HOGANSBURG,NY,13655,44.9775211,-74.71484090000001,"77 ROOSEVELT HWY.  HOGANSBURG, NY 13655",Google,1125.0,,,Correct,Correct,Correct,Correct,Active,LUV'S TOBACCO,"77 ROOSEVELT HWY. HOGANSBURG, NY 13655",44.977521100000004,-74.71484090000001,POINT (-74.71484090000001 44.9775211),Yes,0.0,St. Regis Mohawk,St. Regis Mohawk Reservation,,,From Original List,,,,,,No changes,No changes,No changes,No changes,,FRANKLIN,,,,,,,
68,1126,1126,NY746217,MARKET 9,759 NY 37,,HOGANSBURG,NY,13655,44.969822,-74.65381500000002,"759 NY 37  HOGANSBURG, NY 13655",Original,1126.0,1.0,yes,TRUCK STOP #9,"759 NY-37, Hogansburg, NY 13655, USA",44.970127,-74.6540298,Active,TRUCK STOP #9,"759 NY-37, Hogansburg, NY 13655, USA",44.970127000000005,-74.65402979999999,POINT (-74.65402980000002 44.97012700000001),No,0.36121840299999997,,,St. Regis Mohawk,St. Regis Mohawk Reservation,From Original List,,,,,,759 -37,HOGANSBURG,NY,13655,,FRANKLIN,,,,,,,
69,1127,1127,NY746218,SMOKE STACKS,639 NY 37,,HOGANSBURG,NY,13655,44.972957,-74.66475,"639 NY 37  HOGANSBURG, NY 13655",Original,1127.0,,,Correct,"639 NY-37, Hogansburg, NY 13655, USA",44.9731519,-74.6644285,Active,SMOKE STACKS,"639 NY-37, Hogansburg, NY 13655, USA",44.9731519,-74.6644285,POINT (-74.6644285 44.9731519),No,0.285021664,,,St. Regis Mohawk,St. Regis Mohawk Reservation,From Original List,,,,,,639 -37,HOGANSBURG,NY,13655,,FRANKLIN,,,,,,,
70,1128,1128,NY746219,SMOKEY'S TOBACCO SHOP,908 NY 37,,BOMBAY,NY,12914,44.96636,-74.641136,"908 NY 37  BOMBAY, NY 12914",Census,1128.0,,,Correct,"908 NY-37, Hogansburg, NY 13655, USA",44.9659998,-74.6409333,Active,SMOKEY'S TOBACCO SHOP,"908 NY-37, Hogansburg, NY 13655, USA",44.9659998,-74.6409333,POINT (-74.6409333 44.9659998),No,0.167852728,,,St. Regis Mohawk,St. Regis Mohawk Reservation,From Original List,,,,,,908 -37,HOGANSBURG,NY,13655,,FRANKLIN,,,,,,,
71,1129,1129,NY746220,TWINLEAF,18 NY 37,,HOGANSBURG,NY,13655,44.979617,-74.72239300000003,"18 NY 37  HOGANSBURG, NY 13655",Original,1129.0,1.0,yes,TWINLEAF DINER AKWESASNE,"18 NY-37, Hogansburg, NY 13655, USA",44.9791394,-74.7227028,Active,TWINLEAF DINER AKWESASNE,"18 NY-37, Hogansburg, NY 13655, USA",44.979139399999994,-74.7227028,POINT (-74.72270279999999 44.9791394),Yes,0.0,St. Regis Mohawk,St. Regis Mohawk Reservation,,,From Original List,,,,,,18 -37,HOGANSBURG,NY,13655,,FRANKLIN,265974.0,"AKWESASNE CULTURAL CENTER, INC.",,,,,
72,1130,1130,NY746221,WILD BILL'S ONE STOP,564 NY 37,,HOGANSBURGH,NY,13655,44.975619,-74.673194,"564 NY 37  HOGANSBURGH, NY 13655",Original,1130.0,,,Correct,"564 NY-37, Hogansburg, NY 13655, USA",44.9748652,-74.6715068,Active,WILD BILL'S ONE STOP,"564 NY-37, Hogansburg, NY 13655, USA",44.9748652,-74.6715068,POINT (-74.6715068 44.97486519999999),Yes,0.0,St. Regis Mohawk,St. Regis Mohawk Reservation,,,From Original List,,,,,,564 -37,HOGANSBURG,NY,13655,,FRANKLIN,,,,,,,
73,1131,1131,NY746247,ANTONE'S,101 CENTRAL AVE.,,SALAMANCA,NY,14779,42.161329,-78.696058,"101 CENTRAL AVE.  SALAMANCA, NY 14779",Original,1131.0,,,Correct,Correct,Correct,Correct,Active,ANTONE'S,"101 CENTRAL AVE. SALAMANCA, NY 14779",42.161328999999995,-78.696058,POINT (-78.69605799999999 42.16132899999999),Yes,0.0,Allegany,Allegany Reservation,,,From Original List,,,,,,No changes,No changes,No changes,No changes,,CATTARAUGUS,,,,,,,
74,1132,1132,NY746248,BIG INDIAN SMOKE SHOP,597 MILESTRIP ROAD,,IRVING,NY,14081,42.573874,-79.082893,"597 MILESTRIP ROAD  IRVING, NY 14081",Original,1132.0,,,Correct,Correct,Correct,Correct,Active,BIG INDIAN SMOKE SHOP,"597 MILESTRIP ROAD IRVING, NY 14081",42.573873999999996,-79.082893,POINT (-79.082893 42.573874),Yes,0.0,Cattaraugus,Cattaraugus Reservation,,,From Original List,,,,,,No changes,No changes,No changes,No changes,,ERIE,,,,,,,
75,1133,1133,NY746249,BROAD STREET SMOKE SHOP ,316 CENTER ST.,,SALAMANCA,NY,14779,42.164521,-78.744557,"316 CENTER ST.  SALAMANCA, NY 14779",Original,1133.0,1.0,yes,Correct,Correct,Correct,Correct,Active,BROAD STREET SMOKE SHOP ,"316 CENTER ST. SALAMANCA, NY 14779",42.164521,-78.744557,POINT (-78.744557 42.164521),Yes,0.0,Allegany,Allegany Reservation,,,From Original List,,,,,,No changes,No changes,No changes,No changes,,CATTARAUGUS,,,,,,,
76,1134,1134,NY746250,BUFFALO CREEK TOBACCO CO.,PO BOX 71,,VERSAILLES,NY,14168,42.519871,-78.9903285,"PO BOX 71  VERSAILLES, NY 14168",Google,1134.0,,,Correct,Correct,Correct,Correct,Active,BUFFALO CREEK TOBACCO CO.,"PO BOX 71 VERSAILLES, NY 14168",42.519871,-78.9903285,POINT (-78.9903285 42.519871),No,0.119985846,,,Cattaraugus,Cattaraugus Reservation,From Original List,,,,,,No changes,No changes,No changes,No changes,,CATTARAUGUS,,,,,,,
77,1135,1135,NY746251,CATT-REZ,10910 ERIE ROAD,,IRVING,NY,14081,42.585526,-79.10322,"10910 ERIE ROAD  IRVING, NY 14081",Original,1135.0,,,Correct,Correct,Correct,Correct,Active,CATT-REZ,"10910 ERIE ROAD IRVING, NY 14081",42.585526,-79.10322,POINT (-79.10321999999999 42.585526),Yes,0.0,Cattaraugus,Cattaraugus Reservation,,,From Original List,,,,,,No changes,No changes,No changes,No changes,,ERIE,,,,,,,
78,1136,1136,NY746252,GRAND CENTER STATION,191 CENTER ST.,,SALAMANCA,NY,14779,42.161158,-78.743153,"191 CENTER ST.  SALAMANCA, NY 14779",Original,1136.0,,,Correct,Correct,Correct,Correct,Active,GRAND CENTER STATION,"191 CENTER ST. SALAMANCA, NY 14779",42.161158,-78.743153,POINT (-78.74315300000001 42.161158),Yes,0.0,Allegany,Allegany Reservation,,,From Original List,,,,,,No changes,No changes,No changes,No changes,,CATTARAUGUS,,,,,,,
79,1137,1137,NY746253,IROQUOIS SMOKE SHOP,14411 ROUTE 438,,GOWANDA,NY,14070,42.480337,-78.940933,"14411 ROUTE 438  GOWANDA, NY 14070",Original,1137.0,,,Correct,"14411 NY-438, Gowanda, NY 14070, USA",42.4823384,-78.9449053,Active,IROQUOIS SMOKE SHOP,"14411 NY-438, Gowanda, NY 14070, USA",42.482338399999996,-78.9449053,POINT (-78.9449053 42.4823384),Yes,0.0,Cattaraugus,Cattaraugus Reservation,,,From Original List,,,,,,14411 -438,GOWANDA,NY,14070,,ERIE,,,,,,,
80,1138,1138,NY746254,IROQUOIS TOBACCO DIRECT ,R.R. 17,,KILL BUCK,NY,14748,42.15833,-78.68111,"R.R. 17  KILL BUCK, NY 14748",Google,1138.0,1.0,maybe,Correct,Correct,Correct,Correct,Active,IROQUOIS TOBACCO DIRECT ,"R.R. 17 KILL BUCK, NY 14748",42.15833,-78.68111,POINT (-78.68111 42.15833),Yes,0.0,Allegany,Allegany Reservation,,,From Original List,,,,,,No changes,No changes,No changes,No changes,,CATTARAUGUS,,,,,,,
81,1139,1139,NY746255,KILL BUCK OUTLET ,6650 NY 417,,KILL BUCK,NY,14748,42.15521500000001,-78.671219,"6650 NY 417  KILL BUCK, NY 14748",Original,1139.0,,,Correct,"6650 NY-417, Kill Buck, NY 14748, USA",42.1555744,-78.6713205,Active,KILL BUCK OUTLET ,"6650 NY-417, Kill Buck, NY 14748, USA",42.1555744,-78.6713205,POINT (-78.67132049999999 42.1555744),Yes,0.0,Allegany,Allegany Reservation,,,From Original List,,,,,,6650 -417,KILL BUCK,NY,14748,,CATTARAUGUS,,,,,,,
82,1140,1140,NY746256,NAFCO QUICK STOP AND BURGER KING,881 BROAD ST.,,SALAMANCA,NY,14779,42.157655,-78.74861800000002,"881 BROAD ST.  SALAMANCA, NY 14779",Original,1140.0,,,Correct,Correct,Correct,Correct,Active,NAFCO QUICK STOP AND BURGER KING,"881 BROAD ST. SALAMANCA, NY 14779",42.157655,-78.74861800000001,POINT (-78.74861800000002 42.157655),Yes,0.0,Allegany,Allegany Reservation,,,From Original List,,,,,,No changes,No changes,No changes,No changes,,CATTARAUGUS,,,,,,,
83,1141,1141,NY746257,NATIVE WHOLESALE SUPPLY,10955 LOGAN DR.,,GOWANDA,NY,14070,42.4781765,-78.973697,"10955 LOGAN DR.  GOWANDA, NY 14070",Google,1141.0,,,Correct,Correct,Correct,Correct,Active,NATIVE WHOLESALE SUPPLY,"10955 LOGAN DR. GOWANDA, NY 14070",42.478176500000004,-78.973697,POINT (-78.973697 42.4781765),Yes,0.0,Cattaraugus,Cattaraugus Reservation,,,From Original List,,,,,,No changes,No changes,No changes,No changes,,CATTARAUGUS,,,,,,,
84,1142,1142,NY746258,PARKVIEW SUPERMARKET,545 BROAD ST.,,SALAMANCA,NY,14779,42.158202,-78.735708,"545 BROAD ST.  SALAMANCA, NY 14779",Original,1142.0,,,Correct,Correct,Correct,Correct,Active,PARKVIEW SUPERMARKET,"545 BROAD ST. SALAMANCA, NY 14779",42.158202,-78.735708,POINT (-78.735708 42.158202),Yes,0.0,Allegany,Allegany Reservation,,,From Original List,,,,,,No changes,No changes,No changes,No changes,,CATTARAUGUS,,,,,,,
85,1143,1143,NY746259,POST SMOKES ,560 BROAD ST.,,SALAMANCA,NY,14779,42.158299,-78.73595300000002,"560 BROAD ST.  SALAMANCA, NY 14779",Original,1143.0,,,Correct,"58 Main St, Salamanca, NY 14779, USA",42.157464,-78.7149799,Closed,POST SMOKES ,"58 Main St, Salamanca, NY 14779, USA",42.157464000000004,-78.71497990000002,POINT (-78.71497990000002 42.157464),Yes,0.0,Allegany,Allegany Reservation,,,From Original List,,,,,,58 MAIN ST,SALAMANCA,NY,14779,,CATTARAUGUS,1955935.0,"POST SMOKES, INC.",,,,,
86,1144,1144,NY746260,S T SMOKE SHOP,14195 NY 438,,GOWANDA,NY,14070,42.481382,-78.94331899999997,"14195 NY 438  GOWANDA, NY 14070",Original,1144.0,,,Correct,"14199 NY-438, Gowanda, NY 14070, USA",42.4877874,-78.9516843,Active,S T SMOKE SHOP,"14199 NY-438, Gowanda, NY 14070, USA",42.4877874,-78.9516843,POINT (-78.9516843 42.48778739999999),Yes,0.0,Cattaraugus,Cattaraugus Reservation,,,From Original List,,,,,,14199 -438,GOWANDA,NY,14070,,ERIE,,,,,,,
87,1145,1145,NY746261,SENECA GAMING AND ENTERTAINMENT,11099 ERIE ROAD,,IRVING,NY,14081,42.581364,-79.105724,"11099 ERIE ROAD  IRVING, NY 14081",Original,1145.0,1.0,yes,Correct,Correct,Correct,Correct,Active,SENECA GAMING AND ENTERTAINMENT,"11099 ERIE ROAD IRVING, NY 14081",42.581364,-79.105724,POINT (-79.105724 42.581364),Yes,0.0,Cattaraugus,Cattaraugus Reservation,,,From Original List,,,,,,No changes,No changes,No changes,No changes,,ERIE,,,,,,,
88,1146,1146,NY746262,SENECA GAMING & ENTERTAINMENT - SALAMANCA,768 BROAD ST.,,SALAMANCA,NY,14779,42.159266,-78.744982,"768 BROAD ST.  SALAMANCA, NY 14779",Original,1146.0,,,Correct,Correct,Correct,Correct,Active,SENECA GAMING & ENTERTAINMENT - SALAMANCA,"768 BROAD ST. SALAMANCA, NY 14779",42.159265999999995,-78.744982,POINT (-78.74498199999999 42.159266),Yes,0.0,Allegany,Allegany Reservation,,,From Original List,,,,,,No changes,No changes,No changes,No changes,,CATTARAUGUS,,,,,,,
89,1147,1147,NY746263,SENECA ONE STOP - BROAD STREET,745 BROAD ST.,,IRVING,NY,14081,42.158839,-78.7450082,"745 BROAD ST.  IRVING, NY 14081",Google,1147.0,,,Correct,"745 Broad St, Salamanca, NY 14779, USA",42.158839,-78.7450082,Active,SENECA ONE STOP - BROAD STREET,"745 Broad St, Salamanca, NY 14779, USA",42.158839,-78.7450082,POINT (-78.7450082 42.158839),Yes,0.0,Allegany,Allegany Reservation,,,From Original List,,,,,,745 BROAD ST,SALAMANCA,NY,14779,,CATTARAUGUS,,,,,,,
90,1148,1148,NY746264,SENEKA SMOKE SHOP ,702 BROAD ST.,,SALAMANCA,NY,14779,42.159098,-78.740817,"702 BROAD ST.  SALAMANCA, NY 14779",Original,1148.0,,,Correct,"1343, 702 Broad St, Salamanca, NY 14779, USA",42.1593545,-78.7408045,Closed,SENEKA SMOKE SHOP ,"1343, 702 Broad St, Salamanca, NY 14779, USA",42.1593545,-78.74080450000001,POINT (-78.74080450000002 42.1593545),Yes,0.0,Allegany,Allegany Reservation,,,From Original List,,,,,,"1343, 702 BROAD ST",SALAMANCA,NY,14779,,CATTARAUGUS,,,,,,,
91,1149,1149,NY746265,SHOP 'N SAVE,10 BUFFALO ST.,,GOWANDA,NY,14070,42.464602,-78.93413699999998,"10 BUFFALO ST.  GOWANDA, NY 14070",Original,1149.0,,,Correct,Correct,Correct,Correct,Active,SHOP 'N SAVE,"10 BUFFALO ST. GOWANDA, NY 14070",42.464602,-78.93413699999999,POINT (-78.93413699999998 42.464602),No,0.685670145,,,Cattaraugus,Cattaraugus Reservation,From Original List,,,,,,No changes,No changes,No changes,No changes,,ERIE,,,,,,,
92,1150,1150,NY746271,EAGLE FEATHER SMOKE SHOP,52 MONTAUK HWY.,,SOUTHAMPTON,NY,11969,40.884711,-72.392949,"52 MONTAUK HWY.  SOUTHAMPTON, NY 11969",Original,1150.0,,,Correct,"52 Montauk Hwy, Southampton, NY 11968, USA",40.8852215,-72.4325176,Active,EAGLE FEATHER SMOKE SHOP,"52 Montauk Hwy, Southampton, NY 11968, USA",40.8852215,-72.4325176,POINT (-72.4325176 40.88522150000001),No,43.5428341,,,Mohegan,Mohegan Off-Reservation Trust Land,From Original List,,,,,,52 MONTAUK HWY,SOUTHAMPTON,NY,11968,,SUFFOLK,,,,,,,
93,1151,1151,NY746272,SHINNECOCK SMOKE SHOP,50 MONTAUK HIGHWAY,,SOUTHAMPTON,NY,11968,40.884679,-72.392953,"50 MONTAUK HIGHWAY  SOUTHAMPTON, NY 11968",Original,1151.0,,,Correct,Correct,Correct,Correct,Active,SHINNECOCK SMOKE SHOP,"50 MONTAUK HIGHWAY SOUTHAMPTON, NY 11968",40.884679,-72.392953,POINT (-72.39295300000001 40.884679),No,42.39623166,,,Mohegan,Mohegan Off-Reservation Trust Land,From Original List,,,,,,No changes,No changes,No changes,No changes,,SUFFOLK,,,,,,,
94,1152,1152,NY746273,TRUE NATIVE SMOKE SHOP,61 MONTAUK HWY.,,SOUTHAMPTON,NY,11968,40.885311,-72.392944,"61 MONTAUK HWY.  SOUTHAMPTON, NY 11968",Original,1152.0,1.0,yes,Correct,"50 Montauk Hwy, Southampton, NY 11968, USA",40.8852202,-72.4328413,Active,TRUE NATIVE SMOKE SHOP,"50 Montauk Hwy, Southampton, NY 11968, USA",40.885220200000006,-72.43284129999999,POINT (-72.43284129999998 40.88522020000001),No,43.55305214,,,Mohegan,Mohegan Off-Reservation Trust Land,From Original List,,,,,,50 MONTAUK HWY,SOUTHAMPTON,NY,11968,,SUFFOLK,,,,,,,
95,1153,1153,NY746638,BEACHMART SAVON CONVENIENCE,6789 RT.13,,VERONA BEACH,NY,13157,43.190004,-75.726934,"6789 RT.13  VERONA BEACH, NY 13157",Original,1153.0,,,Correct,"6765 NY-13, Verona Beach, NY 13162, USA",43.1891553,-75.7271774,Closed,BEACHMART SAVON CONVENIENCE,"6765 NY-13, Verona Beach, NY 13162, USA",43.189155299999996,-75.7271774,POINT (-75.7271774 43.1891553),No,11.82515355,,,Oneida Nation,Oneida Nation Reservation,From Original List,,,,,,6765 -13,VERONA BEACH,NY,13162,,ONEIDA,,,,,,,
96,1154,1154,NY746639,LENOX AVE SAVON CONVENIENCE,645 LENOX AVE.,,ONEIDA,NY,13421,43.085677,-75.670746,"645 LENOX AVE.  ONEIDA, NY 13421",Original,1154.0,,,Correct,Correct,Correct,Correct,Active,LENOX AVE SAVON CONVENIENCE,"645 LENOX AVE. ONEIDA, NY 13421",43.085677000000004,-75.670746,POINT (-75.67074599999999 43.085677),No,4.261049826,,,Oneida Nation,Oneida Nation Reservation,From Original List,,,,,,No changes,No changes,No changes,No changes,,MADISON,,,,,,,
97,1155,1155,NY746640,MAIN ST SAVON CONVENIENCE,112 GENESSEE ST.,,ONEIDA,NY,13421,43.078939,-75.64184499999998,"112 GENESSEE ST.  ONEIDA, NY 13421",Original,1155.0,,,Correct,"579 Main St, Oneida, NY 13421, USA",43.080936,-75.6422149,Active,MAIN ST SAVON CONVENIENCE,"579 Main St, Oneida, NY 13421, USA",43.080936,-75.64221490000001,POINT (-75.64221490000001 43.080936),No,2.892731608,,,Oneida Nation,Oneida Nation Reservation,From Original List,,,,,,579 MAIN ST,ONEIDA,NY,13421,,MADISON,,,,,,,
98,1156,1156,NY746641,ONEIDA LAKE SAVON CONVENIENCE,3802 S.R. 31,,CANASTOTA,NY,13032,43.1555523,-75.7449623,"3802 S.R. 31  CANASTOTA, NY 13032",Google,1156.0,,,Correct,"8907 NY-13, Canastota, NY 13032, USA",43.1551212,-75.744929,Active,ONEIDA LAKE SAVON CONVENIENCE,"8907 NY-13, Canastota, NY 13032, USA",43.1551212,-75.744929,POINT (-75.744929 43.1551212),No,10.89893436,,,Oneida Nation,Oneida Nation Reservation,From Original List,,,,,,8907 -13,CANASTOTA,NY,13032,,MADISON,,,,,,,
99,1157,1157,NY746642,ONEIDA MART SAVON CONVENIENCE,1 LENOX AVE.,,ONEIDA,NY,13421,43.0929,-75.643199,"1 LENOX AVE.  ONEIDA, NY 13421",Original,1157.0,,,Correct,"1 Upper Lenox Ave, Oneida, NY 13421, USA",43.092654,-75.6432888,Active,ONEIDA MART SAVON CONVENIENCE,"1 Upper Lenox Ave, Oneida, NY 13421, USA",43.092653999999996,-75.6432888,POINT (-75.64328879999999 43.092654),No,3.6245721730000002,,,Oneida Nation,Oneida Nation Reservation,From Original List,,,,,,1 UPPER LENOX AVE,ONEIDA,NY,13421,,MADISON,1106342.0,"GREATER ONEIDA LITTLE LEAGUE, INC.",,,,,
100,1158,1158,NY746643,PATRICK RD SAVON CONVENIENCE,5233 PATRICK RD.,,VERONA,NY,13478,43.113522,-75.595162,"5233 PATRICK RD.  VERONA, NY 13478",Original,1158.0,,,Correct,Correct,Correct,Correct,Active,PATRICK RD SAVON CONVENIENCE,"5233 PATRICK RD. VERONA, NY 13478",43.113521999999996,-75.595162,POINT (-75.595162 43.113522),No,4.770937285,,,Oneida Nation,Oneida Nation Reservation,From Original List,,,,,,No changes,No changes,No changes,No changes,,ONEIDA,,,,,,,
101,1159,1159,NY746644,PETERBORO ST SAVON CONVENIENCE,356 S. PETERBORO ST.,,CANASTOTA,NY,13032,43.073761,-75.752187,"356 S. PETERBORO ST.  CANASTOTA, NY 13032",Original,1159.0,,,Correct,Correct,Correct,Correct,Closed,PETERBORO ST SAVON CONVENIENCE,"356 S. PETERBORO ST. CANASTOTA, NY 13032",43.073761,-75.752187,POINT (-75.75218700000001 43.073761),No,8.687162554,,,Oneida Nation,Oneida Nation Reservation,From Original List,,,,,,No changes,No changes,No changes,No changes,,MADISON,,,,,,,
102,1160,1160,NY746645,PLAZA MART SAVON CONVENIENCE,219 GENESEE ST.,,ONEIDA,NY,13421,43.078768,-75.646201,"219 GENESEE ST.  ONEIDA, NY 13421",Original,1160.0,,,Correct,Correct,Correct,Correct,Active,PLAZA MART SAVON CONVENIENCE,"219 GENESEE ST. ONEIDA, NY 13421",43.078768,-75.646201,POINT (-75.646201 43.078768),No,2.890864393,,,Oneida Nation,Oneida Nation Reservation,From Original List,,,,,,No changes,No changes,No changes,No changes,,MADISON,,,,,,,
103,1161,1161,NY746646,ROUTE 5 SAVON CONVENIENCE,RT. 5 AND SHERRILL RD.,,SHERRILL,NY,13461,43.07589820000001,-75.59818390000002,"RT. 5 AND SHERRILL RD.  SHERRILL, NY 13461",Google,1161.0,,,Correct,"219 Genesee St, Oneida, NY 13421, USA",43.0785542,-75.6463418,Active,ROUTE 5 SAVON CONVENIENCE,"219 Genesee St, Oneida, NY 13421, USA",43.0785542,-75.64634179999999,POINT (-75.64634179999999 43.07855420000001),No,2.883700769,,,Oneida Nation,Oneida Nation Reservation,From Original List,,,,,,219 GENESEE ST,ONEIDA,NY,13421,,MADISON,,,,,,,
104,1162,1162,NY746647,SAVON CIGARETTES/SAVON ROUTE 365 & 31,5528 ST. HWY. 31,,ONEIDA,NY,13421,42.987843,-75.63803,"5528 ST. HWY. 31  ONEIDA, NY 13421",Census,1162.0,,,Can't Validate,Can't Validate,Can't Validate,Can't Validate,Can't Validate,SAVON CIGARETTES/SAVON ROUTE 365 & 31,"5528 ST. HWY. 31 ONEIDA, NY 13421",42.987843,-75.63803,POINT (-75.63803 42.987843),No,3.45343097,,,Oneida Nation,Oneida Nation Reservation,From Original List,,,,,,No changes,No changes,No changes,No changes,,MADISON,,,,,,,
105,1163,1163,NY746648,SAVON DIESEL /ROUTE 31 SAVON,5528 S.R. 31,,VERONA,NY,13478,43.12996679999999,-75.5770572,"5528 S.R. 31  VERONA, NY 13478",Google,1163.0,,,Correct,"5233 Patrick Rd, Verona, NY 13478, USA",43.1142748,-75.5970961,Active,SAVON DIESEL /ROUTE 31 SAVON,"5233 Patrick Rd, Verona, NY 13478, USA",43.1142748,-75.59709609999999,POINT (-75.59709609999999 43.11427479999999),No,4.784378342,,,Oneida Nation,Oneida Nation Reservation,From Original List,,,,,,5233 PATRICK RD,VERONA,NY,13478,,ONEIDA,,,,,,,
106,1164,1164,NY746649,SAVON SMOKE SHOP,1 TERRITORY RD.,,ONEIDA,NY,13421,43.040778,-75.622507,"1 TERRITORY RD.  ONEIDA, NY 13421",Original,1164.0,,,Correct,"1 Upper Lenox Ave, Oneida, NY 13421, USA",43.092654,-75.6432888,Active,SAVON SMOKE SHOP,"1 Upper Lenox Ave, Oneida, NY 13421, USA",43.092653999999996,-75.6432888,POINT (-75.64328879999999 43.092654),No,3.6245721730000002,,,Oneida Nation,Oneida Nation Reservation,From Original List,,,,,,1 UPPER LENOX AVE,ONEIDA,NY,13421,,MADISON,,,,,,,
107,1165,1165,NY746650,SMOKE SHOP,1008 TERRITORY RD.,,ONEIDA,NY,13142,43.040772,-75.622523,"1008 TERRITORY RD.  ONEIDA, NY 13142",Original,1165.0,1.0,yes,Correct,Correct,Correct,Correct,Active,SMOKE SHOP,"1008 TERRITORY RD. ONEIDA, NY 13142",43.040772,-75.622523,POINT (-75.622523 43.040772),Yes,0.0,Oneida Nation,Oneida Nation Reservation,,,From Original List,,,,,,No changes,No changes,No changes,No changes,,MADISON,,,,,,,
108,1166,1166,NY746651,TURNING STONE RESORT AND CASINO,5218 PATRICK RD.,,VERONA,NY,13478,43.116711,-75.58667,"5218 PATRICK RD.  VERONA, NY 13478",Original,1166.0,,,Correct,Correct,Correct,Correct,Active,TURNING STONE RESORT AND CASINO,"5218 PATRICK RD. VERONA, NY 13478",43.116710999999995,-75.58667,POINT (-75.58667 43.116711),No,5.149107969,,,Oneida Nation,Oneida Nation Reservation,From Original List,,,,,,No changes,No changes,No changes,No changes,,ONEIDA,,,,,,,
109,1167,1167,NY746652,VERONA MART SAVON CONVENIENCE,5527 S.R. 31,,VERONA,NY,13478,43.1286862,-75.578338,"5527 S.R. 31  VERONA, NY 13478",Google,1167.0,,,Correct,"5233 Patrick Rd, Verona, NY 13478, USA",43.1142748,-75.5970961,Active,VERONA MART SAVON CONVENIENCE,"5233 Patrick Rd, Verona, NY 13478, USA",43.1142748,-75.59709609999999,POINT (-75.59709609999999 43.11427479999999),No,4.784378342,,,Oneida Nation,Oneida Nation Reservation,From Original List,,,,,,5233 PATRICK RD,VERONA,NY,13478,,ONEIDA,,,,,,,
110,1168,1168,NY746665,ONONDAGA SMOKE SHOP,326 U.S. 11,,NEDROW,NY,13120,42.967143,-76.1402324,"326 U.S. 11  NEDROW, NY 13120",Google,1168.0,,,ONONDAGA NATION SMOKE SHOP,"3951 US-11, Nedrow, NY 13120, USA",42.9648927,-76.1404433,Active,ONONDAGA NATION SMOKE SHOP,"3951 US-11, Nedrow, NY 13120, USA",42.9648927,-76.1404433,POINT (-76.1404433 42.9648927),Yes,0.0,Onondaga Nation,Onondaga Nation Reservation,,,From Original List,,,,,,3951 US-11,NEDROW,NY,13120,,ONONDAGA,1849790.0,ONONDAGA CONSTRUCTION CORPORATION,,,,,
111,1169,1169,NY746735,ARROWHAWK GAS MART,852 BLOOMINGDALE RD.,,BASOM,NY,14013,43.060516,-78.419009,"852 BLOOMINGDALE RD.  BASOM, NY 14013",Original,1169.0,1.0,yes,TWO EAGLES SMOKE SHOP AND GAS MART,Correct,Correct,Correct,Active,TWO EAGLES SMOKE SHOP AND GAS MART,"852 BLOOMINGDALE RD. BASOM, NY 14013",43.060516,-78.419009,POINT (-78.419009 43.060516),Yes,0.0,Tonawanda,Tonawanda Reservation,,,From Original List,,,,,,No changes,No changes,No changes,No changes,,GENESEE,,,,,,,
112,1170,1170,NY746736,JAN'S SMOKE & CRAFT SHOP,383 BLOOMINGDALE RD.,,AKRON,NY,14001,43.050635,-78.450974,"383 BLOOMINGDALE RD.  AKRON, NY 14001",Original,1170.0,,,Correct,Correct,Correct,Correct,Active,JAN'S SMOKE & CRAFT SHOP,"383 BLOOMINGDALE RD. AKRON, NY 14001",43.050635,-78.450974,POINT (-78.450974 43.050635),Yes,0.0,Tonawanda,Tonawanda Reservation,,,From Original List,,,,,,No changes,No changes,No changes,No changes,,GENESEE,,,,,,,
113,1171,1171,NY746737,REZ SMOKE SHOP,986 BLOOMINGDALE RD.,,BASOM,NY,14013,43.067448,-78.41651800000002,"986 BLOOMINGDALE RD.  BASOM, NY 14013",Original,1171.0,,,Correct,Correct,Correct,Correct,Active,REZ SMOKE SHOP,"986 BLOOMINGDALE RD. BASOM, NY 14013",43.067448,-78.41651800000001,POINT (-78.41651800000002 43.067448),Yes,0.0,Tonawanda,Tonawanda Reservation,,,From Original List,,,,,,No changes,No changes,No changes,No changes,,GENESEE,,,,,,,
114,1172,1172,NY746738,SACAJAWEA INDIAN MARKET,888 BLOOMINGDALE RD.,,BASOM,NY,14013,43.060685,-78.418995,"888 BLOOMINGDALE RD.  BASOM, NY 14013",Original,1172.0,,,Correct,Correct,Correct,Correct,Active,SACAJAWEA INDIAN MARKET,"888 BLOOMINGDALE RD. BASOM, NY 14013",43.060685,-78.418995,POINT (-78.418995 43.060685),Yes,0.0,Tonawanda,Tonawanda Reservation,,,From Original List,,,,,,No changes,No changes,No changes,No changes,,GENESEE,,,,,,,
115,1173,1173,NY746739,SMOKE RINGS,449 SHANKS RD.,,BASOM,NY,14013,43.050657,-78.44539,"449 SHANKS RD.  BASOM, NY 14013",Original,1173.0,,,Correct,Correct,Correct,Correct,Active,SMOKE RINGS,"449 SHANKS RD. BASOM, NY 14013",43.050657,-78.44539,POINT (-78.44539 43.050657),Yes,0.0,Tonawanda,Tonawanda Reservation,,,From Original List,,,,,,No changes,No changes,No changes,No changes,,GENESEE,,,,,,,
116,1174,1174,NY746740,TOTEM POLE SMOKE & GAS,1031 LEDGE RD.,,BASOM,NY,14013,43.045259,-78.414726,"1031 LEDGE RD.  BASOM, NY 14013",Original,1174.0,,,Correct,Correct,Correct,Correct,Active,TOTEM POLE SMOKE & GAS,"1031 LEDGE RD. BASOM, NY 14013",43.045259,-78.414726,POINT (-78.414726 43.045259),Yes,0.0,Tonawanda,Tonawanda Reservation,,,From Original List,,,,,,No changes,No changes,No changes,No changes,,GENESEE,,,,,,,
117,1175,1175,NY746759,GAIL'S 2 TOBACCO & GAS OUTLET,2280 UPPER MOUNTAIN ROAD,,SANBORN,NY,14132,43.170644,-78.920635,"2280 UPPER MOUNTAIN ROAD  SANBORN, NY 14132",Original,1175.0,,,Correct,Correct,Correct,Correct,Active,GAIL'S 2 TOBACCO & GAS OUTLET,"2280 UPPER MOUNTAIN ROAD SANBORN, NY 14132",43.170644,-78.920635,POINT (-78.920635 43.170644),Yes,0.0,Tuscarora Nation,Tuscarora Nation Reservation,,,From Original List,,,,,,No changes,No changes,No changes,No changes,,NIAGARA,,,,,,,
118,1176,1176,NY746760,JAY'S PLACE,5446 WALMORE RD.,,LEWISTON,NY,14092,43.153883,-78.934871,"5446 WALMORE RD.  LEWISTON, NY 14092",Original,1176.0,,,Correct,Correct,Correct,Correct,Active,JAY'S PLACE,"5446 WALMORE RD. LEWISTON, NY 14092",43.153883,-78.934871,POINT (-78.934871 43.153883),Yes,0.0,Tuscarora Nation,Tuscarora Nation Reservation,,,From Original List,,,,,,No changes,No changes,No changes,No changes,,NIAGARA,,,,,,,
119,1177,1177,NY746761,RANDY'S SMOKE SHOP,1325 UPPER MOUNTAIN RD.,,LEWISTON,NY,14092,43.168759,-78.995805,"1325 UPPER MOUNTAIN RD.  LEWISTON, NY 14092",Original,1177.0,,,Correct,Correct,Correct,Correct,Active,RANDY'S SMOKE SHOP,"1325 UPPER MOUNTAIN RD. LEWISTON, NY 14092",43.168759,-78.995805,POINT (-78.995805 43.168759),Yes,0.0,Tuscarora Nation,Tuscarora Nation Reservation,,,From Original List,,,,,,No changes,No changes,No changes,No changes,,NIAGARA,,,,,,,
120,1178,1178,NY746762,SMOKIN JOES TRADING POST,2420 UPPER MOUNTAIN ROAD,,SANBORN,NY,14132,43.169894,-78.915444,"2420 UPPER MOUNTAIN ROAD  SANBORN, NY 14132",Original,1178.0,,,Correct,Correct,Correct,Correct,Active,SMOKIN JOES TRADING POST,"2420 UPPER MOUNTAIN ROAD SANBORN, NY 14132",43.169894,-78.915444,POINT (-78.91544399999999 43.169894),Yes,0.0,Tuscarora Nation,Tuscarora Nation Reservation,,,From Original List,,,,,,No changes,No changes,No changes,No changes,,NIAGARA,,,,,,,
121,1179,1179,NY748319,YELLOW BRICK ROAD CASINO,800 W GENESEE ST.,,CHITTENANGO,NY,13037,43.048343,-75.90029,"800 W GENESEE ST.  CHITTENANGO, NY 13037",Original,1179.0,,,Correct,Correct,Correct,Correct,Active,YELLOW BRICK ROAD CASINO,"800 W GENESEE ST. CHITTENANGO, NY 13037",43.048343,-75.90029,POINT (-75.90029 43.048343),No,16.21240453,,,Onondaga Nation,Onondaga Nation Reservation,From Original List,,,,,,No changes,No changes,No changes,No changes,,MADISON,,,,,,,
122,1180,1180,NY748321,PAINTED PONY POST,12631 VERSAILLES PLANK RD.,,LAWTONS,NY,14091,42.541319,-78.981903,"12631 VERSAILLES PLANK RD.  LAWTONS, NY 14091",Original,1180.0,1.0,yes,CLEAR CREEK EXPRESS,Correct,Correct,Correct,Active,CLEAR CREEK EXPRESS,"12631 VERSAILLES PLANK RD. LAWTONS, NY 14091",42.541319,-78.981903,POINT (-78.981903 42.541319),Yes,0.0,Cattaraugus,Cattaraugus Reservation,,,From Original List,,,,,,No changes,No changes,No changes,No changes,,ERIE,,,,,,,
123,1181,1181,NY748322,SENECA ONE STOP - OIL SPRINGS,5376 W. SHORE RD.,,CUBA,NY,14727,42.223956,-78.311275,"5376 W. SHORE RD.  CUBA, NY 14727",Original,1181.0,,,Correct,Correct,Correct,Correct,Active,SENECA ONE STOP - OIL SPRINGS,"5376 W. SHORE RD. CUBA, NY 14727",42.223956,-78.311275,POINT (-78.31127499999999 42.223956),No,0.042086915999999995,,,Oil Springs,Oil Springs Reservation,From Original List,,,,,,No changes,No changes,No changes,No changes,,CATTARAUGUS,,,,,,,
124,1182,1182,NY748323,NATIVE PRIDE TRAVEL PLAZA,11359 SOUTHWESTERN BLVD.,(EXIT 58 FROM 1-90),IRVING,NY,14081,42.572631,-79.093902,"11359 SOUTHWESTERN BLVD. (EXIT 58 FROM 1-90) IRVING, NY 14081",Original,1182.0,,yes,Correct,"11359 Southwestern Blvd, Irving, NY 14081, USA",42.571897,-79.093495,Active,NATIVE PRIDE TRAVEL PLAZA,"11359 Southwestern Blvd, Irving, NY 14081, USA",42.571897,-79.09349499999999,POINT (-79.09349499999998 42.571897),Yes,0.0,Cattaraugus,Cattaraugus Reservation,,,From Original List,,,,,,11359 SOUTHWESTERN BLVD,IRVING,NY,14081,,ERIE,,,,,,,
125,1183,1183,NY748324,NATIVE PRIDE TOO,11404 ERIE ROAD,,IRVING,NY,14081,42.581045,-79.105994,"11404 ERIE ROAD  IRVING, NY 14081",Original,1183.0,,,Correct,Correct,Correct,Correct,Active,NATIVE PRIDE TOO,"11404 ERIE ROAD IRVING, NY 14081",42.581045,-79.105994,POINT (-79.105994 42.581045),Yes,0.0,Cattaraugus,Cattaraugus Reservation,,,From Original List,,,,,,No changes,No changes,No changes,No changes,,ERIE,,,,,,,
126,1184,1184,NY748325,TADE NINO NEH GAS & CIGARETTES,11326 SOUTHWESTERN BOULEVARD,,IRVING,NY,14081,42.570159,-79.100902,"11326 SOUTHWESTERN BOULEVARD  IRVING, NY 14081",Original,1184.0,0.0,,Correct,"11326 Hwy 20, Irving, NY 14081, USA",42.5740192,-79.088963,Active,TADE NINO NEH GAS & CIGARETTES,"11326 Hwy 20, Irving, NY 14081, USA",42.5740192,-79.088963,POINT (-79.08896300000001 42.5740192),Yes,0.0,Cattaraugus,Cattaraugus Reservation,,,From Original List,,,,,,11326 HWY 20,IRVING,NY,14081,,ERIE,,,,,,,
127,1185,1185,NY748326,SENECA HAWK,11979 SOUTHWESTERN BOULEVARD,,IRVING,NY,14081,42.5693495,-79.1017984,"11979 SOUTHWESTERN BOULEVARD  IRVING, NY 14081",Google,1185.0,,yes,Correct,Correct,Correct,Correct,Active,SENECA HAWK,"11979 SOUTHWESTERN BOULEVARD IRVING, NY 14081",42.5693495,-79.1017984,POINT (-79.10179840000001 42.5693495),Yes,0.0,Cattaraugus,Cattaraugus Reservation,,,From Original List,,,,,,No changes,No changes,No changes,No changes,,ERIE,,,,,,,
128,1186,1186,NY748327,FIRST AMERICAN TOBACCO,11403 ERIE RD.,,IRVING,NY,14081,42.580399,-79.10629,"11403 ERIE RD.  IRVING, NY 14081",Original,1186.0,,,Correct,Correct,Correct,Correct,Active,FIRST AMERICAN TOBACCO,"11403 ERIE RD. IRVING, NY 14081",42.580399,-79.10629,POINT (-79.10629 42.580399),Yes,0.0,Cattaraugus,Cattaraugus Reservation,,,From Original List,,,,,,No changes,No changes,No changes,No changes,,ERIE,,,,,,,
129,1187,1187,NY748328,IRIQUOIS GAS & GO,730 BROAD ST.,,SALAMANCA,NY,14779,42.159366,-78.74261700000002,"730 BROAD ST.  SALAMANCA, NY 14779",Original,1187.0,0.0,,Correct,Correct,Correct,Correct,Active,IRIQUOIS GAS & GO,"730 BROAD ST. SALAMANCA, NY 14779",42.159366,-78.74261700000001,POINT (-78.74261700000002 42.159366),Yes,0.0,Allegany,Allegany Reservation,,,From Original List,,,,,,No changes,No changes,No changes,No changes,,CATTARAUGUS,,,,,,,
130,1188,1188,NY748329,UNI-MART,215 BROAD ST.,,SALAMANCA,NY,14779,42.156235,-78.723679,"215 BROAD ST.  SALAMANCA, NY 14779",Original,1188.0,,,Correct,"555 Wildwood Ave, Salamanca, NY 14779, USA",42.1587363,-78.6955783,Closed,UNI-MART,"555 Wildwood Ave, Salamanca, NY 14779, USA",42.158736299999994,-78.6955783,POINT (-78.69557829999999 42.1587363),Yes,0.0,Allegany,Allegany Reservation,,,From Original List,,,,,,555 WILDWOOD AVE,SALAMANCA,NY,14779,,CATTARAUGUS,,,,,,,
131,1189,1189,NY748330,NAFCO II,6665 RTE. 417,,KILL BUCK,NY,14748,42.155819,-78.672366,"6665 RTE. 417  KILL BUCK, NY 14748",Original,1189.0,,,Can't Validate,Can't Validate,Can't Validate,Can't Validate,Can't Validate,NAFCO II,"6665 RTE. 417 KILL BUCK, NY 14748",42.155819,-78.672366,POINT (-78.672366 42.155819),Yes,0.0,Allegany,Allegany Reservation,,,From Original List,,,,,,No changes,No changes,No changes,No changes,,CATTARAUGUS,,,,,,,
132,1190,1190,NY748331,SIGNALS,11024 ROUTE 20,,IRVING,NY,14081,42.58247,-79.069131,"11024 ROUTE 20  IRVING, NY 14081",Original,1190.0,,,Correct,"11024 Southwestern Blvd, Irving, NY 14081, USA",42.5825268,-79.0690339,Active,SIGNALS,"11024 Southwestern Blvd, Irving, NY 14081, USA",42.5825268,-79.06903390000001,POINT (-79.06903390000002 42.5825268),Yes,0.0,Cattaraugus,Cattaraugus Reservation,,,From Original List,,,,,,11024 SOUTHWESTERN BLVD,IRVING,NY,14081,,ERIE,,,,,,,
133,1191,1191,NY748332,SAV-A-LOT FOOD STORE,35 CHURCH ST.,,SALAMANCA,NY,14779,42.1593,-78.71374,"35 CHURCH ST.  SALAMANCA, NY 14779",Original,1191.0,0.0,,Correct,Correct,Correct,Correct,Active,SAV-A-LOT FOOD STORE,"35 CHURCH ST. SALAMANCA, NY 14779",42.1593,-78.71374,POINT (-78.71374 42.1593),Yes,0.0,Allegany,Allegany Reservation,,,From Original List,,,,,,No changes,No changes,No changes,No changes,,CATTARAUGUS,,,,,,,
134,1192,1192,NY748333,BIG BEAR DISCOUNTS,39 BAKER ST.,,SALAMANCA,NY,14779,42.159356,-78.700766,"39 BAKER ST.  SALAMANCA, NY 14779",Original,1192.0,,,Can't Validate,Can't Validate,Can't Validate,Can't Validate,Can't Validate,BIG BEAR DISCOUNTS,"39 BAKER ST. SALAMANCA, NY 14779",42.159356,-78.700766,POINT (-78.700766 42.159356),Yes,0.0,Allegany,Allegany Reservation,,,From Original List,,,,,,No changes,No changes,No changes,No changes,,CATTARAUGUS,,,,,,,
135,1193,1193,NY748334,SENECA NIAGARA RESORT & CASINO,310 FOURTH ST.,,NIAGARA FALLS,NY,14303,43.086286,-79.057753,"310 FOURTH ST.  NIAGARA FALLS, NY 14303",Original,1193.0,,,Correct,"310 4th St, Niagara Falls, NY 14303, USA",43.0862416,-79.0576795,Active,SENECA NIAGARA RESORT & CASINO,"310 4th St, Niagara Falls, NY 14303, USA",43.0862416,-79.0576795,POINT (-79.05767949999998 43.0862416),No,6.348923721,,,Tuscarora Nation,Tuscarora Nation Reservation,From Original List,,,,,,310 4TH ST,NIAGARA FALLS,NY,14303,,NIAGARA,1781286.0,"NIAGARA FALLS ICE FESTIVAL, INC.",,,,,
136,1194,1194,NY748335,SENECA BUFFALO CREEK CASINO,1 FULTON ST.,,BUFFALO,NY,14204,42.8735,-78.868783,"1 FULTON ST.  BUFFALO, NY 14204",Original,1194.0,,,Correct,Correct,Correct,Correct,Active,SENECA BUFFALO CREEK CASINO,"1 FULTON ST. BUFFALO, NY 14204",42.8735,-78.868783,POINT (-78.86878299999999 42.8735),No,17.88260132,,,Tuscarora Nation,Tuscarora Nation Reservation,From Original List,,,,,,No changes,No changes,No changes,No changes,,ERIE,,,,,,,
137,1195,1195,NY748336,SENECA ALLEGANY RESORT & CASINO,777 SENECA ALLEGANY BLVD.,,SALAMANCA,NY,14779,42.153109,-78.746966,"777 SENECA ALLEGANY BLVD.  SALAMANCA, NY 14779",Original,1195.0,,,Correct,Correct,Correct,Correct,Active,SENECA ALLEGANY RESORT & CASINO,"777 SENECA ALLEGANY BLVD. SALAMANCA, NY 14779",42.153109,-78.746966,POINT (-78.746966 42.153109),Yes,0.0,Allegany,Allegany Reservation,,,From Original List,,,,,,No changes,No changes,No changes,No changes,,CATTARAUGUS,,,,,,,
138,1196,1196,NY748337,SENECA HICKORY STICK GOLF,4560 CREEK RD.,,LEWISTON,NY,14092,43.192672,-79.01775699999997,"4560 CREEK RD.  LEWISTON, NY 14092",Original,1196.0,,,Correct,Correct,Correct,Correct,Active,SENECA HICKORY STICK GOLF,"4560 CREEK RD. LEWISTON, NY 14092",43.192671999999995,-79.01775699999999,POINT (-79.01775699999997 43.19267199999999),No,1.679357794,,,Tuscarora Nation,Tuscarora Nation Reservation,From Original List,,,,,,No changes,No changes,No changes,No changes,,FCC API ERROR,,,,,,,
139,1197,1197,NY748338,SENECA GAMING & ENTERTAINMENT-OIL SPRING,5374 WEST SHORE RD.,,CUBA,NY,14727,42.223924,-78.311272,"5374 WEST SHORE RD.  CUBA, NY 14727",Original,1197.0,,,Correct,Correct,Correct,Correct,Active,SENECA GAMING & ENTERTAINMENT-OIL SPRING,"5374 WEST SHORE RD. CUBA, NY 14727",42.223924,-78.311272,POINT (-78.311272 42.223924),No,0.0441733,,,Oil Springs,Oil Springs Reservation,From Original List,,,,,,No changes,No changes,No changes,No changes,,CATTARAUGUS,,,,,,,
140,1198,1198,NY748339,NO BLANKET SMOKE SHOP,2400 UPPER MOUNTAIN RD.,,SANBORN,NY,14132,43.170055,-78.918205,"2400 UPPER MOUNTAIN RD.  SANBORN, NY 14132",Original,1198.0,,,Correct,Correct,Correct,Correct,Active,NO BLANKET SMOKE SHOP,"2400 UPPER MOUNTAIN RD. SANBORN, NY 14132",43.170055,-78.918205,POINT (-78.918205 43.170055),Yes,0.0,Tuscarora Nation,Tuscarora Nation Reservation,,,From Original List,,,,,,No changes,No changes,No changes,No changes,,NIAGARA,,,,,,,
141,1199,1199,NY749759,BIG BOYS GAS & TOBACCO,20 RAQUETTE POINT RD.,,AKWESASNE,NY,13655,44.978829,-74.71956899999998,"20 RAQUETTE POINT RD.  AKWESASNE, NY 13655",Original,1199.0,0.0,,Correct,Correct,Correct,Correct,Active,BIG BOYS GAS & TOBACCO,"20 RAQUETTE POINT RD. AKWESASNE, NY 13655",44.978829,-74.71956899999999,POINT (-74.71956899999998 44.978829),Yes,0.0,St. Regis Mohawk,St. Regis Mohawk Reservation,,,From Original List,,,,,,No changes,No changes,No changes,No changes,,FRANKLIN,,,,,,,
142,1200,1200,NY749760,SMOKERS WAREHOUSE,8 STATE RTE. 37,,AKWESASNE,NY,13655,44.979681,-74.723672,"8 STATE RTE. 37  AKWESASNE, NY 13655",Original,1200.0,,,Correct,"8 NY-37, Hogansburg, NY 13655, USA",44.979097,-74.7228095,Active,SMOKERS WAREHOUSE,"8 NY-37, Hogansburg, NY 13655, USA",44.979096999999996,-74.7228095,POINT (-74.7228095 44.979097),Yes,0.0,St. Regis Mohawk,St. Regis Mohawk Reservation,,,From Original List,,,,,,Aug-37,HOGANSBURG,NY,13655,,FRANKLIN,,,,,,,
143,1201,1201,NY749761,GRACE & ALLAN'S TOBACCO SHOP,1621 STATE RTE. 38,,AKWESASNE,NY,13655,44.978324,-74.68500290000001,"1621 STATE RTE. 38  AKWESASNE, NY 13655",Google,1201.0,,yes,Correct,Correct,Correct,Correct,Active,GRACE & ALLAN'S TOBACCO SHOP,"1621 STATE RTE. 38 AKWESASNE, NY 13655",44.978324,-74.68500290000001,POINT (-74.68500290000001 44.978324),Yes,0.0,St. Regis Mohawk,St. Regis Mohawk Reservation,,,From Original List,,,,,,No changes,No changes,No changes,No changes,,FRANKLIN,,,,,,,
144,1202,1202,NY749762,AHNA:WATE CORNER STORE,134 RAQUETTE POINT RD.,,AKWESASNE,NY,13655,44.988794,-74.720185,"134 RAQUETTE POINT RD.  AKWESASNE, NY 13655",Original,1202.0,,,Can't Validate,Can't Validate,Can't Validate,Can't Validate,Can't Validate,AHNA:WATE CORNER STORE,"134 RAQUETTE POINT RD. AKWESASNE, NY 13655",44.988794,-74.720185,POINT (-74.720185 44.988794),Yes,0.0,St. Regis Mohawk,St. Regis Mohawk Reservation,,,From Original List,,,,,,No changes,No changes,No changes,No changes,,FRANKLIN,,,,,,,
145,1203,1203,NY749763,BORDERLINE GAS & CONVENIENCE,1622 STATE RTE. 37,,AKWESASNE,NY,13655,44.967464,-74.578571,"1622 STATE RTE. 37  AKWESASNE, NY 13655",Original,1203.0,1.0,yes,Correct,"1622 NY-37, Hogansburg, NY 13655, USA",44.9669938,-74.5721615,Active,BORDERLINE GAS & CONVENIENCE,"1622 NY-37, Hogansburg, NY 13655, USA",44.9669938,-74.57216149999999,POINT (-74.57216149999998 44.9669938),Yes,0.0,St. Regis Mohawk,St. Regis Mohawk Reservation,,,From Original List,,,,,,1622 -37,HOGANSBURG,NY,13655,,FRANKLIN,,,,,,,
146,1204,1204,NY749764,J.E.N. TOBACCO,1592 STATE RTE. 37,,AKWESASNE,NY,13655,44.967528,-74.58081700000002,"1592 STATE RTE. 37  AKWESASNE, NY 13655",Original,1204.0,,,Correct,"1592 NY-37, Hogansburg, NY 13655, USA",44.967287,-74.575076,Closed,J.E.N. TOBACCO,"1592 NY-37, Hogansburg, NY 13655, USA",44.967287,-74.575076,POINT (-74.575076 44.96728699999999),Yes,0.0,St. Regis Mohawk,St. Regis Mohawk Reservation,,,From Original List,,,,,,1592 -37,HOGANSBURG,NY,13655,,FRANKLIN,,,,,,,
147,1205,1205,NY749765,KANIEN'KEHAKA CONVENIENCE STORE AND GAS STATION,155 STATE ROUTE 37,,AKWESASNE,NY,13655,44.97788,-74.708691,"155 STATE ROUTE 37  AKWESASNE, NY 13655",Original,1205.0,1.0,no,Can't Validate,Can't Validate,Can't Validate,Can't Validate,Can't Validate,KANIEN'KEHAKA CONVENIENCE STORE AND GAS STATION,"155 STATE ROUTE 37 AKWESASNE, NY 13655",44.97788,-74.708691,POINT (-74.708691 44.97788),Yes,0.0,St. Regis Mohawk,St. Regis Mohawk Reservation,,,From Original List,,,,,,No changes,No changes,No changes,No changes,,FRANKLIN,,,,,,,
148,1206,1206,NY749766,SPEEDWAY PLAZA,935 STATE ROUTE 37,,AKWESASNE,NY,13655,44.966237,-74.63790999999998,"935 STATE ROUTE 37  AKWESASNE, NY 13655",Original,1206.0,,,Correct,"935 NY-37, Hogansburg, NY 13655, USA",44.966665,-74.638903,Active,SPEEDWAY PLAZA,"935 NY-37, Hogansburg, NY 13655, USA",44.966665,-74.638903,POINT (-74.638903 44.96666500000001),No,0.064093081,,,St. Regis Mohawk,St. Regis Mohawk Reservation,From Original List,,,,,,935 -37,HOGANSBURG,NY,13655,,FRANKLIN,2266765.0,SPEEDWAY PLAZA INC.,,,,,
149,1207,1207,NY749776,CAYUGA LAKESIDE TRADING STORE,2552 STATE ROUTE 89,,SENECA FALLS,NY,13148,42.901144,-76.754834,"2552 STATE ROUTE 89  SENECA FALLS, NY 13148",Original,1207.0,,,CAYUGA LAKE TRADING,"2552 NY-89, Seneca Falls, NY 13148, USA",42.9011088,-76.7553699,Active,CAYUGA LAKE TRADING,"2552 NY-89, Seneca Falls, NY 13148, USA",42.901108799999996,-76.7553699,POINT (-76.75536990000001 42.9011088),No,37.54524474,,,Onondaga Nation,Onondaga Nation Reservation,From Original List,,,,,,2552 -89,SENECA FALLS,NY,13148,,SENECA,591019.0,"CAYUGA LAKE TRADING STORE, LLC",,,,,
150,1208,1208,NY755223,BLACK PAW TOBACCO,1375 WOODCHUCK RD,,IRVING,NY,14081,42.55155,-79.061125,"1375 WOODCHUCK RD  IRVING, NY 14081",Original,1208.0,,,Correct,"11403 Erie Rd, Irving, NY 14081, USA",42.5719431,-79.1009288,Active,BLACK PAW TOBACCO,"11403 Erie Rd, Irving, NY 14081, USA",42.571943100000006,-79.10092879999999,POINT (-79.10092879999998 42.57194310000001),Yes,0.0,Cattaraugus,Cattaraugus Reservation,,,From Original List,,,,,,11403 ERIE RD,IRVING,NY,14081,,ERIE,,,,,,,
151,1209,1209,NY755258,BNB TOBACCO PRODUCTS,52 Montauk Hwy,,Southampton,NY,11968,40.883879,-72.393059,"52 Montauk Hwy  Southampton, NY 11968",Original,1209.0,,,Correct,Correct,Correct,Correct,Active,BNB TOBACCO PRODUCTS,"52 Montauk Hwy Southampton, NY 11968",40.883879,-72.393059,POINT (-72.39305899999999 40.883879),No,42.446366,,,Mohegan,Mohegan Off-Reservation Trust Land,From Original List,,,,,,No changes,No changes,No changes,No changes,,SUFFOLK,,,,,,,
152,1210,1210,NY755868,CRAZY WOLF ENTERPRISES,118 BROAD ST,,SALAMANCA,NY,14779,42.155727,-78.72010999999998,"118 BROAD ST  SALAMANCA, NY 14779",Original,1210.0,,,Can't Validate,Can't Validate,Can't Validate,Can't Validate,Can't Validate,CRAZY WOLF ENTERPRISES,"118 BROAD ST SALAMANCA, NY 14779",42.155727,-78.72010999999999,POINT (-78.72010999999998 42.155727),Yes,0.0,Allegany,Allegany Reservation,,,From Original List,,,,,,No changes,No changes,No changes,No changes,,CATTARAUGUS,,,,,,,
153,1211,1211,NY755887,CUBA LAKE GAS & SMOKE,5133 COUNTY ROAD 7D,,CUBA,NY,14727,42.22005,-78.3113,"5133 COUNTY ROAD 7D  CUBA, NY 14727",Original,1211.0,,,Correct,"5133 Cuba Lake Rd, Cuba, NY 14727, USA",42.224718,-78.3118436,Active,CUBA LAKE GAS & SMOKE,"5133 Cuba Lake Rd, Cuba, NY 14727, USA",42.224717999999996,-78.3118436,POINT (-78.3118436 42.224718),Yes,0.0,Oil Springs,Oil Springs Reservation,,,From Original List,,,,,,5133  LAKE RD,CUBA,NY,14727,,CATTARAUGUS,,,,,,,
154,1212,1212,NY755960,DENISE GANSWORTH,5216 CHEW RD,,SANBORN,NY,14132,43.159273,-78.92238,"5216 CHEW RD  SANBORN, NY 14132",Original,1212.0,,,Can't Validate,Can't Validate,Can't Validate,Can't Validate,Can't Validate,DENISE GANSWORTH,"5216 CHEW RD SANBORN, NY 14132",43.159273,-78.92238,POINT (-78.92238 43.159273),Yes,0.0,Tuscarora Nation,Tuscarora Nation Reservation,,,From Original List,,,,,,No changes,No changes,No changes,No changes,,NIAGARA,,,,,,,
155,1213,1213,NY756203,ELI TARBELL,320 STATE ROUTE 37,,HOGANSBURG,NY,13655,44.978272,-74.694128,"320 STATE ROUTE 37  HOGANSBURG, NY 13655",Original,1213.0,,,TARBELL MANAGEMENT GROUP,"26 Eagle Drive suite: A, Akwesasne, NY 13655, USA",44.9731387,-74.7082981,Active,TARBELL MANAGEMENT GROUP,"26 Eagle Drive suite: A, Akwesasne, NY 13655, USA",44.97313870000001,-74.7082981,POINT (-74.70829809999999 44.97313870000001),Yes,0.0,St. Regis Mohawk,St. Regis Mohawk Reservation,,,From Original List,,,,,,26 EAGLE DRIVE SUITE: A,AKWESASNE,NY,13655,,FRANKLIN,,,,,,,
156,1214,1214,NY756219,EMERY WILLIAMS,1358 CAYUGA RD,,IRVING,NY,14081,42.554389,-78.99032,"1358 CAYUGA RD  IRVING, NY 14081",Original,1214.0,,,Can't Validate,Can't Validate,Can't Validate,Can't Validate,Can't Validate,EMERY WILLIAMS,"1358 CAYUGA RD IRVING, NY 14081",42.554389,-78.99032,POINT (-78.99032 42.554389),Yes,0.0,Cattaraugus,Cattaraugus Reservation,,,From Original List,,,,,,No changes,No changes,No changes,No changes,,ERIE,,,,,,,
157,1215,1215,NY756381,MIKEY G'S SMOKIN CAFE,1955 RICHARDSON ROAD,,GOWANDA,NY,14070,42.499988,-78.94802299999998,"1955 RICHARDSON ROAD  GOWANDA, NY 14070",Original,1215.0,,,Correct,"1801-, 2009 Richardson Rd, Gowanda, NY 14070, USA",42.4998158,-78.9476215,Active,MIKEY G'S SMOKIN CAFE,"1801-, 2009 Richardson Rd, Gowanda, NY 14070, USA",42.4998158,-78.9476215,POINT (-78.9476215 42.4998158),Yes,0.0,Cattaraugus,Cattaraugus Reservation,,,From Original List,,,,,,1801- 2009 RICHARDSON RD,GOWANDA,NY,14070,,ERIE,,,,,,,
158,1216,1216,NY756748,INJUN ENTERPRISES LLC,255 ROCHESTER ST STE D4,,SALAMANCA,NY,14779,42.158567,-78.70437199999998,"255 ROCHESTER ST STE D4  SALAMANCA, NY 14779",Original,1216.0,,,Can't Validate,Can't Validate,Can't Validate,Can't Validate,Can't Validate,INJUN ENTERPRISES LLC,"255 ROCHESTER ST STE D4 SALAMANCA, NY 14779",42.158567,-78.70437199999999,POINT (-78.70437199999998 42.158567),Yes,0.0,Allegany,Allegany Reservation,,,From Original List,,,,,,No changes,No changes,No changes,No changes,,CATTARAUGUS,,,,,,,
159,1217,1217,NY757456,NEEPA''S SMOKE SHOP INC.,41 MONTAUK HWY,,SOUTHAMPTON,NY,11968,40.884653,-72.393028,"41 MONTAUK HWY  SOUTHAMPTON, NY 11968",Original,1217.0,,,Correct,"42 Montauk Hwy, Southampton, NY 11968, USA",40.884672,-72.4269216,Active,NEEPA''S SMOKE SHOP INC.,"42 Montauk Hwy, Southampton, NY 11968, USA",40.884671999999995,-72.42692159999999,POINT (-72.42692159999999 40.88467199999999),No,43.40036069,,,Mohegan,Mohegan Off-Reservation Trust Land,From Original List,,,,,,42 MONTAUK HWY,SOUTHAMPTON,NY,11968,,SUFFOLK,,,,,,,
160,1218,1218,NY757906,R J''S TOBACCO EMPORIUM,73 FAWN AVE,,SALAMANCA,NY,14779,42.152542,-78.719574,"73 FAWN AVE  SALAMANCA, NY 14779",Original,1218.0,0.0,,Correct,"11177 Hwy 20, Irving, NY 14081, USA",42.5867062,-79.0620813,Active,R J''S TOBACCO EMPORIUM,"11177 Hwy 20, Irving, NY 14081, USA",42.5867062,-79.0620813,POINT (-79.0620813 42.58670619999999),No,0.282670495,,,Cattaraugus,Cattaraugus Reservation,From Original List,,,,,,11177 HWY 20,IRVING,NY,14081,,ERIE,,,,,,,
161,1219,1219,NY758190,SENECA DIRECT.COM,1525 CAYUGA RD,,IRVING,NY,14081,42.551827,-78.984949,"1525 CAYUGA RD  IRVING, NY 14081",Original,1219.0,,,SENECA DIRECT,Correct,Correct,Correct,Closed,SENECA DIRECT,"1525 CAYUGA RD IRVING, NY 14081",42.551827,-78.984949,POINT (-78.984949 42.551827),Yes,0.0,Cattaraugus,Cattaraugus Reservation,,,From Original List,,,,,,No changes,No changes,No changes,No changes,,ERIE,,,,,,,
162,1220,1220,NY758682,S.T. SMOKE SHOP,14163 ROUTE 438,,GOWANDA,NY,14070,42.481555,-78.943709,"14163 ROUTE 438  GOWANDA, NY 14070",Original,1220.0,1.0,yes,Correct,"14199 NY-438, Gowanda, NY 14070, USA",42.4877874,-78.9516843,Active,S.T. SMOKE SHOP,"14199 NY-438, Gowanda, NY 14070, USA",42.4877874,-78.9516843,POINT (-78.9516843 42.48778739999999),Yes,0.0,Cattaraugus,Cattaraugus Reservation,,,From Original List,,,,,,14199 -438,GOWANDA,NY,14070,,ERIE,,,,,,,
163,1221,1221,NY797758,CROSSROADS,12940 ROUTE 438,,GOWANDA,NY,14070,42.5321,-78.98606,"12940 ROUTE 438  GOWANDA, NY 14070",Original,1221.0,,,Correct,"12940 NY-438, Gowanda, NY 14070, USA",42.5320846,-78.986064,Active,CROSSROADS,"12940 NY-438, Gowanda, NY 14070, USA",42.532084600000005,-78.986064,POINT (-78.98606400000001 42.53208460000001),Yes,0.0,Cattaraugus,Cattaraugus Reservation,,,From Original List,,,,,,12940 -438,GOWANDA,NY,14070,,ERIE,,,,,,,
164,2653,2653,,,698 BROAD ST,,SALAMANCA,NY,14779,,,,,,,,,,,,Active,WEST END WINE & LIQUOR,"698 Broad St, Salamanca, NY, 14779",42.159176,-78.74141,POINT (-78.74141 42.159176),Yes,,Allegany,Allegany Reservation,,,New Retailer,Independent,,,N,1409258.0,698 BROAD ST,SALAMANCA,NY,14779,,CATTARAUGUS,,,,,,,
165,2725,2725,,,636 WILDWOOD AVE,,SALAMANCA,NY,14779,,,,,,,,,,,,Active,CLOUD,"636 Wildwood Ave, Salamanca, NY, 14779",42.158924,-78.69269,POINT (-78.69269 42.158924),Yes,,Allegany,Allegany Reservation,,,New Retailer,Independent,,,N,1529744.0,636 WILDWOOD AVE,SALAMANCA,NY,14779,,CATTARAUGUS,,,,,,,
166,2727,2727,,,1622 STATE ROUTE 37,,HOGANSBURG,NY,13655,,,,,,,,,,,,Active,BORDERLINE TOBACCO,"1622 State Route 37, Hogansburg, NY, 13655",44.967307399999996,-74.57250440000001,POINT (-74.57250440000001 44.9673074),Yes,,St. Regis Mohawk,St. Regis Mohawk Reservation,,,New Retailer,Independent,,,N,1525522.0,1622 STATE ROUTE 37,HOGANSBURG,NY,13655,,FRANKLIN,,,,,,,
167,2728,2728,,,8 STATE ROUTE 37,,HOGANSBURG,NY,13655,,,,,,,,,,,,Active,SMOKERS WAREHOUSE,"8 State Route 37, Hogansburg, NY, 13655",44.979702,-74.72368,POINT (-74.72368 44.979702),Yes,,St. Regis Mohawk,St. Regis Mohawk Reservation,,,New Retailer,Independent,,,N,7370573.0,8 STATE ROUTE 37,HOGANSBURG,NY,13655,,FRANKLIN,,,,,,,
168,2735,2735,,,11263 INDIAN HILL RD,,PERRYSBURG,NY,14129,,,,,,,,,,,,Active,BIGFOOT GAS & SMOKE SHOP,"11263 Indian Hill Rd, Perrysburg, NY, 14129",42.4864359,-78.9823243,POINT (-78.9823243 42.4864359),Yes,,Cattaraugus,Cattaraugus Reservation,,,New Retailer,Independent,,,N,7436518.0,11263 INDIAN HILL RD,PERRYSBURG,NY,14129,,CATTARAUGUS,,,,,,,
169,2739,2739,,,1955 RICHARDSON RD,,GOWANDA,NY,14070,,,,,,,,,,,,Active,MIKEY G SMOKE SHOP,"1955 Richardson Rd, Gowanda, NY, 14070",42.499992,-78.94842,POINT (-78.94842 42.499992),Yes,,Cattaraugus,Cattaraugus Reservation,,,New Retailer,Independent,,,N,1834702.0,1955 RICHARDSON RD,GOWANDA,NY,14070,,ERIE,,,,,,,
170,2742,2742,,,6650 ROUTE 417,,KILL BUCK,NY,14748,,,,,,,,,,,,Active,KILLBUCK OUTLET,"6650 Route 417, Kill Buck, NY, 14748",42.150093,-78.6649,POINT (-78.6649 42.150093),Yes,,Allegany,Allegany Reservation,,,New Retailer,Independent,,,N,3694995.0,6650 ROUTE 417,KILL BUCK,NY,14748,,CATTARAUGUS,,,,,,,
171,2750,2750,,,672 BLOOMINGDALE RD,,BASOM,NY,14013,,,,,,,,,,,,Active,ONE FEATHER EXPRESS,"672 Bloomingdale Rd, Basom, NY, 14013",43.060574,-78.4335,POINT (-78.4335 43.060574),Yes,,Tonawanda,Tonawanda Reservation,,,New Retailer,Independent,,,N,1469457.0,672 BLOOMINGDALE RD,BASOM,NY,14013,,GENESEE,,,,,,,
172,2751,2751,,,5001 ROUTE 417,,ALLEGANY,NY,14706,,,,,,,,,,,,Active,RONS SMOKE SHOP,"5001 Route 417, Allegany, NY, 14706",42.09437,-78.59697,POINT (-78.59697 42.09437),Yes,,Allegany,Allegany Reservation,,,New Retailer,Independent,,,N,1468558.0,5001 ROUTE 417,ALLEGANY,NY,14706,,CATTARAUGUS,,,,,,,
173,2755,2755,,,2323 SAUNDERS SETTLEMENT RD,,SANBORN,NY,14132,,,,,,,,,,,,Active,ANDERSON JOSEPH SMOKE SHOP,"2323 Saunders Settlement Rd, Sanborn, NY, 14132",43.143253,-78.92184,POINT (-78.92184 43.143253),Yes,,Tuscarora Nation,Tuscarora Nation Reservation,,,New Retailer,Independent,,,N,1742691.0,2323 SAUNDERS SETTLEMENT RD,SANBORN,NY,14132,,NIAGARA,,,,,,,
174,2756,2756,,,9 BROAD ST,,SALAMANCA,NY,14779,,,,,,,,,,,,Active,RITE AID,"9 Broad St, Salamanca, NY, 14779",42.155105999999996,-78.71641,POINT (-78.71641 42.155106),Yes,,Allegany,Allegany Reservation,,,New Retailer,Rite Aid Central Region 54,Tonawanda,NY,N,982154.0,9 BROAD ST,SALAMANCA,NY,14779,,CATTARAUGUS,,,,,,,
175,2757,2757,,,6590 ROUTE 417,,KILL BUCK,NY,14748,,,,,,,,,,,,Active,MIKEYS EMPORIUM,"6590 Route 417, Kill Buck, NY, 14748",42.148586,-78.663536,POINT (-78.66353599999999 42.148586),Yes,,Allegany,Allegany Reservation,,,New Retailer,Independent,,,N,7209526.0,6590 ROUTE 417,KILL BUCK,NY,14748,,CATTARAUGUS,,,,,,,
176,2761,2761,,,24 MAIN ST,,SALAMANCA,NY,14779,,,,,,,,,,,,Active,NATIVE OUTLET,"24 Main St, Salamanca, NY, 14779",42.155758,-78.71584,POINT (-78.71584 42.155758),Yes,,Allegany,Allegany Reservation,,,New Retailer,Independent,,,N,1816697.0,24 MAIN ST,SALAMANCA,NY,14779,,CATTARAUGUS,,,,,,,
177,2766,2766,,,2073 ROUTE 219,,LIMESTONE,NY,14753,,,,,,,,,,,,Active,KENS CIGARETTES,"2073 Route 219, Limestone, NY, 14753",42.086464,-78.63214,POINT (-78.63214000000001 42.086464),Yes,,Allegany,Allegany Reservation,,,New Retailer,Independent,,,N,1468069.0,2073 ROUTE 219,LIMESTONE,NY,14753,,CATTARAUGUS,,,,,,,
178,2767,2767,,,48 HERNE RD,,HOGANSBURG,NY,13655,,,,,,,,,,,,Active,AKWESASNE CIGARETTE DEPOT,"48 Herne Rd, Hogansburg, NY, 13655",44.978848,-74.72015,POINT (-74.72015 44.978848),Yes,,St. Regis Mohawk,St. Regis Mohawk Reservation,,,New Retailer,Independent,,,N,1865175.0,48 HERNE RD,HOGANSBURG,NY,13655,,FRANKLIN,265974.0,"AKWESASNE CULTURAL CENTER, INC.",,,,,
179,2839,2839,,,730 BROAD ST,,SALAMANCA,NY,14779,,,,,,,,,,,,Active,IROQUOIS GAS & GO,"730 Broad St, Salamanca, NY, 14779",42.159366999999996,-78.7431,POINT (-78.7431 42.159367),Yes,,Allegany,Allegany Reservation,,,New Retailer,Independent,,,N,1535160.0,730 BROAD ST,SALAMANCA,NY,14779,,CATTARAUGUS,,,,,,,
180,2842,2842,,,721 BROAD & CENTER ST,,SALAMANCA,NY,14779,,,,,,,,,,,,Active,ANTONES II ISS,"721 Broad & Center St, Salamanca, NY, 14779",42.158834999999996,-78.742351,POINT (-78.742351 42.158835),Yes,,Allegany,Allegany Reservation,,,New Retailer,Independent,,,N,1535158.0,721 BROAD & CENTER ST,SALAMANCA,NY,14779,,CATTARAUGUS,,,,,,,
181,2851,2851,,,379 MARTIN RD,,AKRON,NY,14001,,,,,,,,,,,,Active,WESTERN DOOR,"379 Martin Rd, Akron, NY, 14001",43.054234,-78.45129399999999,POINT (-78.45129399999998 43.054234),Yes,,Tonawanda,Tonawanda Reservation,,,New Retailer,Independent,,,N,1816555.0,379 MARTIN RD,AKRON,NY,14001,,GENESEE,,,,,,,
182,2861,2861,,,425 STATE ROUTE 37,,HOGANSBURG,NY,13655,,,,,,,,,,,,Active,BEARS DEN TRADING POST,"425 State Route 37, Hogansburg, NY, 13655",44.979068700000006,-74.6836813,POINT (-74.6836813 44.97906870000001),Yes,,St. Regis Mohawk,St. Regis Mohawk Reservation,,,New Retailer,Independent,,,N,1833658.0,425 STATE ROUTE 37,HOGANSBURG,NY,13655,,FRANKLIN,,,,,,,
183,2864,2864,,,5126 GARLOW RD,,LEWISTON,NY,14092,,,,,,,,,,,,Active,GARLOWS TRADING POST,"5126 Garlow Rd, Lewiston, NY, 14092",43.164436,-78.98357,POINT (-78.98357 43.164436),Yes,,Tuscarora Nation,Tuscarora Nation Reservation,,,New Retailer,Independent,,,N,1469436.0,5126 GARLOW RD,LEWISTON,NY,14092,,NIAGARA,,,,,,,
184,2880,2880,,,2442 W PERIMETER RD,,STEAMBURG,NY,14783,,,,,,,,,,,,Active,WW STEAMBURG,"2442 W Perimeter Rd, Steamburg, NY, 14783",42.100794799999996,-78.8938793,POINT (-78.89387929999999 42.1007948),Yes,,Allegany,Allegany Reservation,,,New Retailer,Independent,,,N,1852695.0,2442 W PERIMETER RD,STEAMBURG,NY,14783,,CATTARAUGUS,,,,,,,
185,2881,2881,,,6731 ROUTE 417,,KILL BUCK,NY,14748,,,,,,,,,,,,Active,HOAGS GAS STATION,"6731 Route 417, Kill Buck, NY, 14748",42.157757000000004,-78.67843,POINT (-78.67843000000001 42.157757),Yes,,Allegany,Allegany Reservation,,,New Retailer,Independent,,,N,1626561.0,6731 ROUTE 417,KILL BUCK,NY,14748,,CATTARAUGUS,,,,,,,
186,2922,2922,,,10910 ERIE RD,,IRVING,NY,14081,,,,,,,,,,,,Active,CATT REZ,"10910 Erie Rd, Irving, NY, 14081",42.5785295,-79.1069149,POINT (-79.10691490000001 42.5785295),Yes,,Cattaraugus,Cattaraugus Reservation,,,New Retailer,Independent,,,N,1522077.0,10910 ERIE RD,IRVING,NY,14081,,ERIE,,,,,,,
187,2924,2924,,,11187 ROUTE 20,,IRVING,NY,14081,,,,,,,,,,,,Active,DOOGIES,"11187 Route 20, Irving, NY, 14081",42.5782076,-79.0793931,POINT (-79.0793931 42.5782076),Yes,,Cattaraugus,Cattaraugus Reservation,,,New Retailer,Independent,,,N,1522072.0,11187 ROUTE 20,IRVING,NY,14081,,ERIE,,,,,,,
188,2928,2928,,,161 MCGEE RD,,HOGANSBURG,NY,13655,,,,,,,,,,,,Active,TWIN LEAF EXPRESS,"161 Mcgee Rd, Hogansburg, NY, 13655",44.985806,-74.6766,POINT (-74.67659999999999 44.985806),Yes,,St. Regis Mohawk,St. Regis Mohawk Reservation,,,New Retailer,Independent,,,N,7289321.0,161 MCGEE RD,HOGANSBURG,NY,13655,,FRANKLIN,,,,,,,
189,2929,2929,,,311 SAINT REGIS RD,,HOGANSBURG,NY,13655,,,,,,,,,,,,Active,CTS CONVENIENCE STORE,"311 Saint Regis Rd, Hogansburg, NY, 13655",44.9940995,-74.65574409999999,POINT (-74.65574409999998 44.9940995),Yes,,St. Regis Mohawk,St. Regis Mohawk Reservation,,,New Retailer,Independent,,,N,2046383.0,311 SAINT REGIS RD,HOGANSBURG,NY,13655,,FRANKLIN,,,,,,,
190,2938,2938,,,51 JOHNNY MAC LN,,HOGANSBURG,NY,13655,,,,,,,,,,,,Active,RED FOX GAS & CONVENIENCE,"51 Johnny Mac Ln, Hogansburg, NY, 13655",44.9988938,-74.6002915,POINT (-74.6002915 44.9988938),Yes,,St. Regis Mohawk,St. Regis Mohawk Reservation,,,New Retailer,Independent,,,N,7302439.0,51 JOHNNY MAC LN,HOGANSBURG,NY,13655,,FRANKLIN,,,,,,,
191,2939,2939,,,1285 STATE ROUTE 37,,HOGANSBURG,NY,13655,,,,,,,,,,,,Active,EASTERN DOOR,"1285 State Route 37, Hogansburg, NY, 13655",44.968303999999996,-74.604345,POINT (-74.604345 44.968304),Yes,,St. Regis Mohawk,St. Regis Mohawk Reservation,,,New Retailer,Independent,,,N,675837.0,1285 STATE ROUTE 37,HOGANSBURG,NY,13655,,FRANKLIN,,,,,,,
192,2942,2942,,,148 STATE ROUTE 37,,HOGANSBURG,NY,13655,,,,,,,,,,,,Active,WESTERN DOOR CONVENIENCE STORE,"148 State Route 37, Hogansburg, NY, 13655",44.9778018,-74.71031359999999,POINT (-74.71031359999998 44.9778018),Yes,,St. Regis Mohawk,St. Regis Mohawk Reservation,,,New Retailer,Independent,,,N,675843.0,148 STATE ROUTE 37,HOGANSBURG,NY,13655,,FRANKLIN,,,,,,,
193,2947,2947,,,850 R C HOAG DR,,SALAMANCA,NY,14779,,,,,,,,,,,,Active,REDEYE BEVERAGE,"850 R C Hoag Dr, Salamanca, NY, 14779",42.1586013,-78.7486986,POINT (-78.7486986 42.1586013),Yes,,Allegany,Allegany Reservation,,,New Retailer,Independent,,,N,7493518.0,850 R C HOAG DR,SALAMANCA,NY,14779,,CATTARAUGUS,,,,,,,
194,2950,2950,,,564 ST RTE 37,,HOGANSBURG,NY,13655,,,,,,,,,,,,Active,WILD BILLS ONE STOP,"564 St Rte 37, Hogansburg, NY, 13655",44.978565,-74.68654000000001,POINT (-74.68654000000002 44.978565),Yes,,St. Regis Mohawk,St. Regis Mohawk Reservation,,,New Retailer,Independent,,,N,1663845.0,564 ST RTE 37,HOGANSBURG,NY,13655,,FRANKLIN,,,,,,,
195,2954,2954,,,11150 ROUTE 20,,IRVING,NY,14081,,,,,,,,,,,,Active,SENECA ONE STOP,"11150 Route 20, Irving, NY, 14081",42.579634999999996,-79.0765625,POINT (-79.07656249999999 42.579635),Yes,,Cattaraugus,Cattaraugus Reservation,,,New Retailer,Seneca One Stop HQ,Irving,NY,N,1546757.0,11150 ROUTE 20,IRVING,NY,14081,,ERIE,,,,,,,
196,2959,2959,,,155 STATE ROUTE 37,,HOGANSBURG,NY,13655,,,,,,,,,,,,Active,AKWESASNE MINI MART,"155 State Route 37, Hogansburg, NY, 13655",44.9782033,-74.7155416,POINT (-74.71554159999999 44.9782033),Yes,,St. Regis Mohawk,St. Regis Mohawk Reservation,,,New Retailer,Independent,,,N,1834307.0,155 STATE ROUTE 37,HOGANSBURG,NY,13655,,FRANKLIN,265974.0,"AKWESASNE CULTURAL CENTER, INC.",,,,,
197,2962,2962,,,2111 W BANK PERIMETE,,STEAMBURG,NY,14783,,,,,,,,,,,,Active,O JS SMOKE SHOP & GAS STATION,"2111 W Bank Perimete, Steamburg, NY, 14783",42.0976818,-78.8927137,POINT (-78.8927137 42.0976818),Yes,,Allegany,Allegany Reservation,,,New Retailer,Independent,,,N,7529769.0,2111 W BANK PERIMETE,STEAMBURG,NY,14783,,CATTARAUGUS,,,,,,,
198,2965,2965,,,2165 ROUTE 219,,LIMESTONE,NY,14753,,,,,,,,,,,,Active,M & M ALLEGHANY JUNCTION,"2165 Route 219, Limestone, NY, 14753",42.087146999999995,-78.63149,POINT (-78.63149 42.087147),Yes,,Allegany,Allegany Reservation,,,New Retailer,Independent,,,N,1615703.0,2165 ROUTE 219,LIMESTONE,NY,14753,,CATTARAUGUS,1678721.0,"M & M JUNCTION, LLC",,,,,
199,2975,2975,,,2088 ROUTE 219,,LIMESTONE,NY,14753,,,,,,,,,,,,Active,SASSYS TRUCK STOP,"2088 Route 219, Limestone, NY, 14753",42.090279100000004,-78.6289278,POINT (-78.6289278 42.0902791),Yes,,Allegany,Allegany Reservation,,,New Retailer,Independent,,,N,7441576.0,2088 ROUTE 219,LIMESTONE,NY,14753,,CATTARAUGUS,,,,,,,
200,2983,2983,,,935 STATE ROUTE 37,,HOGANSBURG,NY,13655,,,,,,,,,,,,Active,SPEEDWAY CONVENIENCE,"935 State Route 37, Hogansburg, NY, 13655",44.966606,-74.63266,POINT (-74.63266 44.966606),Yes,,St. Regis Mohawk,St. Regis Mohawk Reservation,,,New Retailer,Independent,,,N,1793676.0,935 STATE ROUTE 37,HOGANSBURG,NY,13655,,FRANKLIN,,,,,,,
201,2987,2987,,,12623 VERSAILLES PLANK RD,,LAWTONS,NY,14091,,,,,,,,,,,,Active,CLEAR CREEK EXPRESS,"12623 Versailles Plank Rd, Lawtons, NY, 14091",42.544067,-78.97839,POINT (-78.97839 42.544067),Yes,,Cattaraugus,Cattaraugus Reservation,,,New Retailer,Independent,,,N,7392448.0,12623 VERSAILLES PLANK RD,LAWTONS,NY,14091,,ERIE,,,,,,,
202,2988,2988,,,12795 ROUTE 438,,IRVING,NY,14081,,,,,,,,,,,,Active,WOLFS RUN,"12795 Route 438, Irving, NY, 14081",42.538857,-79.00035,POINT (-79.00035 42.538857),Yes,,Cattaraugus,Cattaraugus Reservation,,,New Retailer,Independent,,,N,1615699.0,12795 ROUTE 438,IRVING,NY,14081,,ERIE,,,,,,,
203,2990,2990,,,5017 ROUTE 417,,ALLEGANY,NY,14706,,,,,,,,,,,,Active,WW VANDALIA GAS MART,"5017 Route 417, Allegany, NY, 14706",42.09438,-78.590645,POINT (-78.59064499999999 42.09438),Yes,,Allegany,Allegany Reservation,,,New Retailer,Independent,,,N,1469609.0,5017 ROUTE 417,ALLEGANY,NY,14706,,CATTARAUGUS,,,,,,,
204,2995,2995,,,837 BLOOMINGDALE RD,,BASOM,NY,14013,,,,,,,,,,,,Active,TP DELI,"837 Bloomingdale Rd, Basom, NY, 14013",43.060383,-78.41995,POINT (-78.41995 43.060383),Yes,,Tonawanda,Tonawanda Reservation,,,New Retailer,Independent,,,N,1497564.0,837 BLOOMINGDALE RD,BASOM,NY,14013,,GENESEE,,,,,,,
205,2996,2996,,,555 WILDWOOD AVE,,SALAMANCA,NY,14779,,,,,,,,,,,,Active,FIRST NATIONS CONVENIENCE,"555 Wildwood Ave, Salamanca, NY, 14779",42.158103999999994,-78.69658000000001,POINT (-78.69658000000003 42.158104),Yes,,Allegany,Allegany Reservation,,,New Retailer,Independent,,,N,324493.0,555 WILDWOOD AVE,SALAMANCA,NY,14779,,CATTARAUGUS,,,,,,,
206,2997,2997,,,1712 ROUTE 219,,LIMESTONE,NY,14753,,,,,,,,,,,,Active,PAPAS PLACE II,"1712 Route 219, Limestone, NY, 14753",42.076084,-78.636314,POINT (-78.636314 42.076084),Yes,,Allegany,Allegany Reservation,,,New Retailer,Independent,,,N,1816695.0,1712 ROUTE 219,LIMESTONE,NY,14753,,CATTARAUGUS,,,,,,,
207,3017,3017,,,191 CENTER ST,,SALAMANCA,NY,14779,,,,,,,,,,,,Active,EDNAS GRAB N GO,"191 Center St, Salamanca, NY, 14779",42.1627,-78.743935,POINT (-78.74393499999999 42.1627),Yes,,Allegany,Allegany Reservation,,,New Retailer,Independent,,,N,1468075.0,191 CENTER ST,SALAMANCA,NY,14779,,CATTARAUGUS,,,,,,,
208,3053,3053,,,100 MAIN ST,,SALAMANCA,NY,14779,,,,,,,,,,,,Active,FAMILY DOLLAR,"100 Main St, Salamanca, NY, 14779",42.15917,-78.71472,POINT (-78.71472 42.15917),Yes,,Allegany,Allegany Reservation,,,New Retailer,Family Dollar Stores Inc,Matthews,NC,N,393118.0,100 MAIN ST,SALAMANCA,NY,14779,,CATTARAUGUS,,,,,,,
209,3113,3113,,,53 WILDWOOD AVE,,SALAMANCA,NY,14779,,,,,,,,,,,,Active,WILDWOOD BAR & SALOON,"53 Wildwood Ave, Salamanca, NY, 14779",42.157565999999996,-78.71369,POINT (-78.71369 42.157566),Yes,,Allegany,Allegany Reservation,,,New Retailer,Independent,,,N,3929032.0,53 WILDWOOD AVE,SALAMANCA,NY,14779,,CATTARAUGUS,154688.0,"53 WILDWOOD, LLC",,,,,
210,3140,3140,,,200 CLINTON ST,,SALAMANCA,NY,14779,,,,,,,,,,,,Active,THE CLINTON,"200 Clinton St, Salamanca, NY, 14779",42.153706,-78.7092005,POINT (-78.70920049999999 42.153706),Yes,,Allegany,Allegany Reservation,,,New Retailer,Independent,,,N,5098891.0,200 CLINTON ST,SALAMANCA,NY,14779,,CATTARAUGUS,1711288.0,"MSG, INC.",,,,,
211,3180,3180,,,61 WILDWOOD AVE,,SALAMANCA,NY,14779,,,,,,,,,,,,Active,VETERANS OF FOREIGN WARS,"61 Wildwood Ave, Salamanca, NY, 14779",42.157509999999995,-78.71330999999999,POINT (-78.71330999999998 42.15751),Yes,,Allegany,Allegany Reservation,,,New Retailer,Independent,,,Y,5111656.0,61 WILDWOOD AVE,SALAMANCA,NY,14779,,CATTARAUGUS,,,,,,,
212,3208,3208,,,1479 STATE ROUTE 37,,HOGANSBURG,NY,13655,,,,,,,,,,,,Active,AMERICAN LEGION,"1479 State Route 37, Hogansburg, NY, 13655",44.9684774,-74.6017631,POINT (-74.6017631 44.9684774),Yes,,St. Regis Mohawk,St. Regis Mohawk Reservation,,,New Retailer,Independent,,,Y,1792110.0,1479 STATE ROUTE 37,HOGANSBURG,NY,13655,,FRANKLIN,,,,,,,
213,3214,3214,,,67 WILDWOOD AVE,,SALAMANCA,NY,14779,,,,,,,,,,,,Active,AMERICAN LEGION,"67 Wildwood Ave, Salamanca, NY, 14779",42.157467,-78.71303,POINT (-78.71303 42.157467),Yes,,Allegany,Allegany Reservation,,,New Retailer,Independent,,,Y,5117638.0,67 WILDWOOD AVE,SALAMANCA,NY,14779,,CATTARAUGUS,,,,,,,
214,3223,3223,,,35 CLINTON ST,,SALAMANCA,NY,14779,,,,,,,,,,,,Active,HOLY CROSS ACLUB,"35 Clinton St, Salamanca, NY, 14779",42.154884,-78.71489,POINT (-78.71489 42.154884),Yes,,Allegany,Allegany Reservation,,,New Retailer,Independent,,,N,5154200.0,35 CLINTON ST,SALAMANCA,NY,14779,,CATTARAUGUS,,,,,,,
215,3264,3264,,,313 FROGTOWN RD,,HOGANSBURG,NY,13655,,,,,,,,,,,,Active,MOHAWK INTERNATIONAL RACEWAY,"313 Frogtown Rd, Hogansburg, NY, 13655",44.968876,-74.70481,POINT (-74.70480999999999 44.968876),Yes,,St. Regis Mohawk,St. Regis Mohawk Reservation,,,New Retailer,Independent,,,N,7043065.0,313 FROGTOWN RD,HOGANSBURG,NY,13655,,FRANKLIN,,,,,,,
216,3326,3326,,,35 MILL ST,,SALAMANCA,NY,14779,,,,,,,,,,,,Active,SENECA TERR GAMING,"35 Mill St, Salamanca, NY, 14779",42.1564686,-78.7468465,POINT (-78.7468465 42.1564686),Yes,,Allegany,Allegany Reservation,,,New Retailer,Independent,,,N,1959620.0,35 MILL ST,SALAMANCA,NY,14779,,CATTARAUGUS,,,,,,,
