Unnamed: 0,IMPAQ_ID,REI,DBA Name,Address Line 1,Address Line 2,City,State,Zip,Latitude,Longitude,Full Address,matchsource,est_id,found_pic,Manual Result,name_update,addr_update,lat_update,lon_update,biz_status,DBA Name_update,Full Address_update,Latitude_update,Longitude_update,Coordinates,On Tribe Land,Miles to Nearest Tribe,Assoc Tribe,Assoc Res,Nearest Tribe,Nearest Res,ori_flg,Owner Name,Owner City,Owner State,Non-Corporate Owned,Niel_id,Address Line 1_update,City_update,State_update,Zip_update,County,County_update,SoS_record,entity,agent_name,agent_address,agent_city,agent_state,agent_zip
1222,1222,OK402246,SHIDLER COUNTRY STORE,101 S COSDEN,,SHIDLER,OK,74652,36.78193431,-96.66130676,"101 S COSDEN  SHIDLER, OK 74652",Original,1222.0,,,Correct,"100 Cosden Ave, Shidler, OK 74652, USA",36.7818191,-96.6610089,Active,SHIDLER COUNTRY STORE,"100 Cosden Ave, Shidler, OK 74652, USA",36.7818191,-96.6610089,POINT (-96.6610089 36.7818191),Yes,0.0,Osage,Osage Reservation,,,From Original List,,,,,,100 COSDEN AVE,SHIDLER,OK,74652,OSAGE,OSAGE,1900406334,"SHIDLER COUNTRY STORE, INC.",LOETTA SMITH,,SHIDLER,OK,
1223,1223,OK402263,TWO RIVERS CASINO,101 WHITE EAGLE DR,,PONCA CITY,OK,74601,36.60630778,-97.08297937,"101 WHITE EAGLE DR  PONCA CITY, OK 74601",Original,1223.0,,,Can't Validate,Can't Validate,Can't Validate,Can't Validate,Can't Validate,TWO RIVERS CASINO,"101 WHITE EAGLE DR PONCA CITY, OK 74601",36.60630778,-97.08297937,POINT (-97.08297937 36.60630778),No,1.743348696,,,Osage,Osage Reservation,From Original List,,,,,,No changes,No changes,No changes,No changes,KAY,KAY,,,,,,,
1224,1224,OK402416,SHIDLER COUNTRY STORE,106 S COSDEN,,SHIDLER,OK,74652,36.78187136,-96.66109092,"106 S COSDEN  SHIDLER, OK 74652",Original,1224.0,,,Correct,"100 Cosden Ave, Shidler, OK 74652, USA",36.7818191,-96.6610089,Active,SHIDLER COUNTRY STORE,"100 Cosden Ave, Shidler, OK 74652, USA",36.7818191,-96.6610089,POINT (-96.6610089 36.7818191),Yes,0.0,Osage,Osage Reservation,,,From Original List,,,,,,100 COSDEN AVE,SHIDLER,OK,74652,OSAGE,OSAGE,1900406334,"SHIDLER COUNTRY STORE, INC.",LOETTA SMITH,,SHIDLER,OK,
1225,1225,OK402445,TONKAWA SMOKE SHOP,10750 ALLEN DR,,TONKAWA,OK,74659,36.66768651,-97.26484022,"10750 ALLEN DR  TONKAWA, OK 74659",Original,1225.0,1.0,yes,Correct,Correct,Correct,Correct,Active,TONKAWA SMOKE SHOP,"10750 ALLEN DR TONKAWA, OK 74659",36.66768651,-97.26484022,POINT (-97.26484022 36.66768651),No,1.7773047519999998,,,Kaw/Ponca,Kaw/Ponca joint-use OTSA,From Original List,,,,,,No changes,No changes,No changes,No changes,KAY,KAY,,,,,,,
1226,1226,OK402469,J BAR S SALOON,109 S FIFTH ST,,BARNSDALL,OK,74002,36.56170834,-96.16170654,"109 S FIFTH ST  BARNSDALL, OK 74002",Original,1226.0,,,Correct,"109 5th St, Barnsdall, OK 74002, USA",36.5614606,-96.1616858,Active,J BAR S SALOON,"109 5th St, Barnsdall, OK 74002, USA",36.561460600000004,-96.1616858,POINT (-96.1616858 36.5614606),Yes,0.0,Osage,Osage Reservation,,,From Original List,,,,,,109 5TH ST,BARNSDALL,OK,74002,OSAGE,OSAGE,,,,,,,
1227,1227,OK402473,THE STORE #2,109 W OSAGE ST,,WYNONA,OK,74084,36.54624002,-96.32700188,"109 W OSAGE ST  WYNONA, OK 74084",Original,1227.0,,,Can't Validate,Can't Validate,Can't Validate,Can't Validate,Can't Validate,THE STORE #2,"109 W OSAGE ST WYNONA, OK 74084",36.54624002,-96.32700188,POINT (-96.32700188 36.54624002),Yes,0.0,Osage,Osage Reservation,,,From Original List,,,,,,No changes,No changes,No changes,No changes,OSAGE,OSAGE,,,,,,,
1228,1228,OK402574,KEN'S STORE,11082 NEW PRUE RD,,PRUE,OK,74060,36.26748621,-96.25519106,"11082 NEW PRUE RD  PRUE, OK 74060",Original,1228.0,,,Correct,"23939 Prue Rd, Prue, OK 74060, USA",36.2679729,-96.2604553,Active,KEN'S STORE,"23939 Prue Rd, Prue, OK 74060, USA",36.2679729,-96.26045529999999,POINT (-96.26045529999999 36.2679729),Yes,0.0,Osage,Osage Reservation,,,From Original List,,,,,,23939  RD,PRUE,OK,74060,OSAGE,OSAGE,1900629744,"KEN\'S STORE, INC.",JACK Y GOREE,,TULSA,OK,
1229,1229,OK402889,NATIVE LIGHTS CASINO,12375 N HIGHWAY 77,,NEWKIRK,OK,74647,36.9756233,-97.04355308,"12375 N HIGHWAY 77  NEWKIRK, OK 74647",Original,1229.0,,,Correct,"Native Lights Casino, 12375 US-77, Newkirk, OK 74647, USA",36.9739984,-97.0451871,Active,NATIVE LIGHTS CASINO,"Native Lights Casino, 12375 US-77, Newkirk, OK 74647, USA",36.9739984,-97.04518709999999,POINT (-97.04518709999999 36.97399840000001),No,10.77145615,,,Kaw/Ponca,Kaw/Ponca joint-use OTSA,From Original List,,,,,,NATIVE LIGHTS CASINO 12375 US-77,NEWKIRK,OK,74647,KAY,KAY,,,,,,,
1230,1230,OK402911,OTOE TRAVEL PLAZA,12501 N HWY 177,,NEWKIRK,OK,74647,35.724548,-97.0176291,"12501 N HWY 177  NEWKIRK, OK 74647",Google,1230.0,,,Can't Validate,Can't Validate,Can't Validate,Can't Validate,Can't Validate,OTOE TRAVEL PLAZA,"12501 N HWY 177 NEWKIRK, OK 74647",35.724548,-97.0176291,POINT (-97.01762909999999 35.724548),No,39.00458984,,,Creek/Seminole,Creek/Seminole joint-use OTSA,From Original List,,,,,,No changes,No changes,No changes,No changes,KAY,KAY,,,,,,,
1231,1231,OK403245,KAW SMOKE SHOP,1535 E HUBBARD RD,,PONCA CITY,OK,74604,36.75347281,-97.06407562,"1535 E HUBBARD RD  PONCA CITY, OK 74604",Original,1231.0,,,Correct,Correct,Correct,Correct,Active,KAW SMOKE SHOP,"1535 E HUBBARD RD PONCA CITY, OK 74604",36.75347281,-97.06407562,POINT (-97.06407562 36.75347281),Yes,0.0,Kaw/Ponca,Kaw/Ponca joint-use OTSA,,,From Original List,,,,,,No changes,No changes,No changes,No changes,KAY,KAY,,,,,,,
1232,1232,OK403258,VELERO/THUNDERBIRD EXPRESS/AST GROCER,15730 E HWY 9,,NORMAN,OK,73026,35.23128061,-97.20750857,"15730 E HWY 9  NORMAN, OK 73026",Original,1232.0,1.0,maybe,Can't Validate,Can't Validate,Can't Validate,Can't Validate,Can't Validate,VELERO/THUNDERBIRD EXPRESS/AST GROCER,"15730 E HWY 9 NORMAN, OK 73026",35.23128061,-97.20750857,POINT (-97.20750857 35.23128061),No,46.85222588,,,Creek/Seminole,Creek/Seminole joint-use OTSA,From Original List,,,,,,No changes,No changes,No changes,No changes,CLEVELAND,CLEVELAND,,,,,,,
1233,1233,OK403308,RED DEVIL SUPERETTE,161 S MAIN ST,,FAIRFAX,OK,74637,36.56996415,-96.70439328,"161 S MAIN ST  FAIRFAX, OK 74637",Original,1233.0,,,Correct,Correct,Correct,Correct,Active,RED DEVIL SUPERETTE,"161 S MAIN ST FAIRFAX, OK 74637",36.56996415,-96.70439328,POINT (-96.70439328000001 36.56996415),Yes,0.0,Osage,Osage Reservation,,,From Original List,,,,,,No changes,No changes,No changes,No changes,OSAGE,OSAGE,1900418126,"RED DEVIL SUPERETTE, INC.",ROCK REESE,,FAIRFAX,OK,
1234,1234,OK403545,HARRAH SMOKESHOP,19857 NE 23RD ST,,HARRAH,OK,73045,35.49352086,-97.17967594,"19857 NE 23RD ST  HARRAH, OK 73045",Original,1234.0,1.0,yes,AST SMOKE SHOP / HARRAH SMOKE SHOP,Correct,Correct,Correct,Active,AST SMOKE SHOP / HARRAH SMOKE SHOP,"19857 NE 23RD ST HARRAH, OK 73045",35.49352086,-97.17967594,POINT (-97.17967594 35.49352086),No,45.12638285,,,Creek/Seminole,Creek/Seminole joint-use OTSA,From Original List,,,,,,No changes,No changes,No changes,No changes,OKLAHOMA,OKLAHOMA,,,,,,,
1235,1235,OK403673,OSAGE CASINO-PAWHUSKA,2017 E 15TH ST,,PAWHUSKA,OK,74036,36.6729385,-96.31457184,"2017 E 15TH ST  PAWHUSKA, OK 74036",Original,1235.0,,,Correct,"2017 E. 15th St &, OK-99, Pawhuska, OK 74056, USA",36.6735692,-96.3143599,Active,OSAGE CASINO-PAWHUSKA,"2017 E. 15th St &, OK-99, Pawhuska, OK 74056, USA",36.6735692,-96.3143599,POINT (-96.3143599 36.6735692),Yes,0.0,Osage,Osage Reservation,,,From Original List,,,,,,2017 E. 15TH ST & -99,PAWHUSKA,OK,74056,OSAGE,OSAGE,,,,,,,
1236,1236,OK403754,JIM'S PLACE,2072 CR 3575,,PAWHUSKA,OK,74056,36.91291152,-96.20121371,"2072 CR 3575  PAWHUSKA, OK 74056",Original,1236.0,,,Correct,Correct,Correct,Correct,Active,JIM'S PLACE,"2072 CR 3575 PAWHUSKA, OK 74056",36.91291152,-96.20121371,POINT (-96.20121371 36.91291152),Yes,0.0,Osage,Osage Reservation,,,From Original List,,,,,,No changes,No changes,No changes,No changes,OSAGE,OSAGE,1900348444,"JIM\'S PLACE, INC.",JAMES B. SMITH,,COLBERT,OK,
1237,1237,OK404105,KICKAPOO C STORE,25200 E HIGHWAY 62,,HARRAH,OK,73045,35.49263254,-97.11002207,"25200 E HIGHWAY 62  HARRAH, OK 73045",Original,1237.0,1.0,yes,Correct,"25200 US-62, Harrah, OK 73045, USA",35.4931324,-97.0845857,Active,KICKAPOO C STORE,"25200 US-62, Harrah, OK 73045, USA",35.49313239999999,-97.0845857,POINT (-97.08458570000001 35.49313239999999),No,38.94211706,,,Creek/Seminole,Creek/Seminole joint-use OTSA,From Original List,,,,,,25200 US-62,HARRAH,OK,73045,OKLAHOMA,LINCOLN,,,,,,,
1238,1238,OK404106,KICKAPOO CASINO,25230 E HIGHWAY 62,,HARRAH,OK,73045,35.49263254,-97.10989616,"25230 E HIGHWAY 62  HARRAH, OK 73045",Original,1238.0,1.0,yes,KICKAPOO CASINO HARRAH,"25230 US-62, Harrah, OK 73045, USA",35.4929867,-97.0833791,Active,KICKAPOO CASINO HARRAH,"25230 US-62, Harrah, OK 73045, USA",35.4929867,-97.0833791,POINT (-97.0833791 35.4929867),No,38.86273312,,,Creek/Seminole,Creek/Seminole joint-use OTSA,From Original List,,,,,,25230 US-62,HARRAH,OK,73045,OKLAHOMA,LINCOLN,,,,,,,
1239,1239,OK404259,TURTLE STOP,2M E JCT HWY 60 & 137,,WYANDOTTE,OK,74370,36.8051922,-94.7196624,"2M E JCT HWY 60 & 137  WYANDOTTE, OK 74370",Google,1239.0,1.0,yes,LUCKY TURTLE CASINO,"64499 US-60, Wyandotte, OK 74370, USA",36.804916,-94.7257353,Active,LUCKY TURTLE CASINO,"64499 US-60, Wyandotte, OK 74370, USA",36.804916,-94.7257353,POINT (-94.7257353 36.804916),No,11.06717482,,,Miami/Peoria,Miami/Peoria joint-use OTSA,From Original List,,,,,,64499 US-60,WYANDOTTE,OK,74370,OTTAWA,OTTAWA,,,,,,,
1240,1240,OK404333,OTTER STOP,301 S MAIN ST,,MIAMI,OK,74354,36.87047447,-94.87706888,"301 S MAIN ST  MIAMI, OK 74354",Original,1240.0,,,Correct,Correct,Correct,Correct,Active,OTTER STOP,"301 S MAIN ST MIAMI, OK 74354",36.87047447,-94.87706888,POINT (-94.87706888 36.87047447),No,0.635324104,,,Miami/Peoria,Miami/Peoria joint-use OTSA,From Original List,,,,,,No changes,No changes,No changes,No changes,OTTAWA,OTTAWA,,,,,,,
1241,1241,OK404550,MARVIN'S FOODS,324 N EASTERN AVE,,HOMINY,OK,74035,36.41799672,-96.38948677,"324 N EASTERN AVE  HOMINY, OK 74035",Original,1241.0,,,Correct,Correct,Correct,Correct,Closed,MARVIN'S FOODS,"324 N EASTERN AVE HOMINY, OK 74035",36.41799672,-96.38948677,POINT (-96.38948677 36.41799672),Yes,0.0,Osage,Osage Reservation,,,From Original List,,,,,,No changes,No changes,No changes,No changes,OSAGE,OSAGE,2312213996,MARVIN\'S FOOD STORES,CHARLES VANN COMBS,,STILWELL,OK,
1242,1242,OK404596,BIG AL'S,3360 N 209TH WEST AVE STE A,,SAND SPRINGS,OK,74063,36.18427195,-96.22575626,"3360 N 209TH WEST AVE STE A  SAND SPRINGS, OK 74063",Original,1242.0,,,Correct,"3660 New Prue Rd, Sand Springs, OK 74063, USA",36.2075605,-96.2099508,Active,BIG AL'S,"3660 New Prue Rd, Sand Springs, OK 74063, USA",36.2075605,-96.20995079999999,POINT (-96.20995080000002 36.2075605),Yes,0.0,Osage,Osage Reservation,,,From Original List,,,,,,3660 NEW PRUE RD,SAND SPRINGS,OK,74063,TULSA,OSAGE,3512494263,BIG AL\'S,MOMTAZ BEGUM,,SAND SPRINGS,OK,
1243,1243,OK404802,MR BASS,4000 W ROGERS BLVD,,SKIATOOK,OK,74070,36.36856,-96.0302,"4000 W ROGERS BLVD  SKIATOOK, OK 74070",Original,1243.0,1.0,maybe,Correct,Correct,Correct,Correct,Active,MR BASS,"4000 W ROGERS BLVD SKIATOOK, OK 74070",36.368559999999995,-96.0302,POINT (-96.03019999999999 36.36856),Yes,0.0,Osage,Osage Reservation,,,From Original List,,,,,,No changes,No changes,No changes,No changes,TULSA,TULSA,1900390818,"MR. BASS, INC.",RON GIBSON,,SAND SPRINGS,OK,
1244,1244,OK404838,SEMINOLE FOOD MART,401 W STROTHER AVE,,SEMINOLE,OK,74868,35.23168327,-96.6747967,"401 W STROTHER AVE  SEMINOLE, OK 74868",Original,1244.0,,,Correct,"401 W Strothers Ave, Seminole, OK 74868, USA",35.2318149,-96.67504,Active,SEMINOLE FOOD MART,"401 W Strothers Ave, Seminole, OK 74868, USA",35.231814899999996,-96.67504,POINT (-96.67504 35.2318149),No,12.06947593,,,Creek/Seminole,Creek/Seminole joint-use OTSA,From Original List,,,,,,401 W STROTHERS AVE,SEMINOLE,OK,74868,SEMINOLE,SEMINOLE,,,,,,,
1245,1245,OK404906,GARRETTS COUNTRY STORE & GRILL,412 W SPRUCE AVE,,BARNSDALL,OK,74002,36.55713281,-96.15978058,"412 W SPRUCE AVE  BARNSDALL, OK 74002",Original,1245.0,,,Correct,Correct,Correct,Correct,Active,GARRETTS COUNTRY STORE & GRILL,"412 W SPRUCE AVE BARNSDALL, OK 74002",36.55713281,-96.15978058,POINT (-96.15978058 36.55713281),Yes,0.0,Osage,Osage Reservation,,,From Original List,,,,,,No changes,No changes,No changes,No changes,OSAGE,OSAGE,1912012407,"GARRETT\'S COUNTRY STORE & GRILL, INC.",SHELLY GARRETT,,BARNSDALL,OK,
1246,1246,OK404909,WOODRIDGE MARKET,4128 LAKE RD,,PONCA CITY,OK,74604,36.70910027,-97.0261782,"4128 LAKE RD  PONCA CITY, OK 74604",Original,1246.0,,,Correct,Correct,Correct,Correct,Active,WOODRIDGE MARKET,"4128 LAKE RD PONCA CITY, OK 74604",36.70910027,-97.0261782,POINT (-97.0261782 36.70910027),Yes,0.0,Kaw/Ponca,Kaw/Ponca joint-use OTSA,,,From Original List,,,,,,No changes,No changes,No changes,No changes,KAY,KAY,1900672547,WOODRIDGE MARKET,MOHAMMAD ALAM ZAIB,,EDMOND,OK,
1247,1247,OK404938,CHIEF LIQUOR,418 S W 15TH ST,,WAGONER,OK,74467,35.94417995,-95.38225539,"418 S W 15TH ST  WAGONER, OK 74467",Original,1247.0,1.0,yes,CHIEF LIQUORS,Correct,Correct,Correct,Active,CHIEF LIQUORS,"418 S W 15TH ST WAGONER, OK 74467",35.94417995,-95.38225539,POINT (-95.38225539 35.94417995),No,42.83844807,,,Osage,Osage Reservation,From Original List,,,,,,No changes,No changes,No changes,No changes,WAGONER,WAGONER,,,,,,,
1248,1248,OK405201,BILLY B'S OF HOMINY,501 E 1ST ST,,HOMINY,OK,74035,36.41466923,-96.38921698,"501 E 1ST ST  HOMINY, OK 74035",Original,1248.0,,,Correct,Correct,Correct,Correct,Active,BILLY B'S OF HOMINY,"501 E 1ST ST HOMINY, OK 74035",36.41466923,-96.38921698,POINT (-96.38921698 36.41466923),Yes,0.0,Osage,Osage Reservation,,,From Original List,,,,,,No changes,No changes,No changes,No changes,OSAGE,OSAGE,3512350871,BILLY B\'S OF HOMINY,ARTHUR JOHNSON Jr,,TULSA,OK,
1249,1249,OK405226,Z MART ENTERPRISES LLC,502 E MAIN ST,,HOMINY,OK,74035,36.41535271,-96.38850651,"502 E MAIN ST  HOMINY, OK 74035",Original,1249.0,,,Correct,Correct,Correct,Correct,Active,Z MART ENTERPRISES LLC,"502 E MAIN ST HOMINY, OK 74035",36.41535271,-96.38850651,POINT (-96.38850651 36.41535271),Yes,0.0,Osage,Osage Reservation,,,From Original List,,,,,,No changes,No changes,No changes,No changes,OSAGE,OSAGE,3512055401,Z MART ENTERPRISES LLC,Naveed Zafar,,Hominy,OK,
1250,1250,OK405262,CHOCTAW TR,505 N HIGHWAY 59,,HEAVENER,OK,74957,34.8885578,-94.6033558,"505 N HIGHWAY 59  HEAVENER, OK 74957",Google,1250.0,,,CHOCTAW TRAVEL PLAZA,"505 US-59, Heavener, OK 74937, USA",34.9106113,-94.6047896,Active,CHOCTAW TRAVEL PLAZA,"505 US-59, Heavener, OK 74937, USA",34.91061129999999,-94.60478959999999,POINT (-94.60478959999999 34.91061130000001),No,120.7212121,,,Creek/Seminole,Creek/Seminole joint-use OTSA,From Original List,,,,,,505 US-59,HEAVENER,OK,74937,LEFLORE,LE FLORE,,,,,,,
1251,1251,OK405342,HANDY'S GROCERY,521 EAST MAIN STREET,,PAWHUSKA,OK,74056,36.66277414,-96.33309028,"521 EAST MAIN STREET  PAWHUSKA, OK 74056",Original,1251.0,1.0,yes,Correct,Correct,Correct,Correct,Active,HANDY'S GROCERY,"521 EAST MAIN STREET PAWHUSKA, OK 74056",36.66277414,-96.33309028,POINT (-96.33309027999999 36.66277414),Yes,0.0,Osage,Osage Reservation,,,From Original List,,,,,,No changes,No changes,No changes,No changes,OSAGE,OSAGE,,,,,,,
1252,1252,OK405422,OSAGE TRAVEL PLAZA,5591 W ROGERS BLVD,,SKIATOOK,OK,74070,36.36967,-96.05348,"5591 W ROGERS BLVD  SKIATOOK, OK 74070",Original,1252.0,1.0,yes,Correct,"5591 W C Rogers Blvd, Skiatook, OK 74070, USA",36.369673,-96.0534843,Active,OSAGE TRAVEL PLAZA,"5591 W C Rogers Blvd, Skiatook, OK 74070, USA",36.369673,-96.0534843,POINT (-96.05348429999999 36.369673),Yes,0.0,Osage,Osage Reservation,,,From Original List,,,,,,5591 W C ROGERS BLVD,SKIATOOK,OK,74070,TULSA,OSAGE,,,,,,,
1253,1253,OK405432,KAW SOUTHWIND CASINO,5640 N LA CANN RD,,NEWKIRK,OK,74647,36.87724648,-97.03095359,"5640 N LA CANN RD  NEWKIRK, OK 74647",Original,1253.0,,,Correct,Correct,Correct,Correct,Active,KAW SOUTHWIND CASINO,"5640 N LA CANN RD NEWKIRK, OK 74647",36.87724648,-97.03095359,POINT (-97.03095359 36.87724648),No,4.974044725,,,Kaw/Ponca,Kaw/Ponca joint-use OTSA,From Original List,,,,,,No changes,No changes,No changes,No changes,KAY,KAY,,,,,,,
1254,1254,OK405607,FASTRIP #5,611 E STEVE OWENS BLVD,,MIAMI,OK,74954,36.87127285,-94.8710898,"611 E STEVE OWENS BLVD  MIAMI, OK 74954",Original,1254.0,,,Can't Validate,Can't Validate,Can't Validate,Can't Validate,Can't Validate,FASTRIP #5,"611 E STEVE OWENS BLVD MIAMI, OK 74954",36.87127285,-94.8710898,POINT (-94.87108979999999 36.87127285),No,0.717929252,,,Miami/Peoria,Miami/Peoria joint-use OTSA,From Original List,,,,,,No changes,No changes,No changes,No changes,OTTAWA,OTTAWA,2300344965,FASTRIP #5,REG OFFICE,,MIAMI,OK,
1255,1255,OK405622,OTTER 2,61475 E 100 RD,,MIAMI,OK,74354,36.87112198,-94.77848523,"61475 E 100 RD  MIAMI, OK 74354",Original,1255.0,1.0,yes,HIGH WINDS CASINO,Correct,Correct,Correct,Active,HIGH WINDS CASINO,"61475 E 100 RD MIAMI, OK 74354",36.87112198,-94.77848523,POINT (-94.77848523 36.87112198),No,6.496030888,,,Miami/Peoria,Miami/Peoria joint-use OTSA,From Original List,,,,,,No changes,No changes,No changes,No changes,OTTAWA,OTTAWA,,,,,,,
1256,1256,OK405717,O-GAH-PAH CONVENIENCE CENTER,6590 S 580 RD,,MIAMI,OK,74354,36.91987422,-94.84198634,"6590 S 580 RD  MIAMI, OK 74354",Original,1256.0,,,Correct,Correct,Correct,Correct,Active,O-GAH-PAH CONVENIENCE CENTER,"6590 S 580 RD MIAMI, OK 74354",36.91987422,-94.84198634,POINT (-94.84198634000001 36.91987422),No,2.321357741,,,Miami/Peoria,Miami/Peoria joint-use OTSA,From Original List,,,,,,No changes,No changes,No changes,No changes,OTTAWA,OTTAWA,,,,,,,
1257,1257,OK405754,DOWNSTREAM CASINO RESORT,69300 E NEE RD,,QUAPAW,OK,74363,36.99814219,-94.62477314,"69300 E NEE RD  QUAPAW, OK 74363",Original,1257.0,,,Correct,Correct,Correct,Correct,Active,DOWNSTREAM CASINO RESORT,"69300 E NEE RD QUAPAW, OK 74363",36.99814219,-94.62477314,POINT (-94.62477314 36.99814219),No,17.28400349,,,Miami/Peoria,Miami/Peoria joint-use OTSA,From Original List,,,,,,No changes,No changes,No changes,No changes,OTTAWA,OTTAWA,,,,,,,
1258,1258,OK405761,EASTERN SHAWNEE TRAVEL CENTER,69721 E 100 RD,,WYANDOTTE,OK,74370,36.86897259,-94.62727326,"69721 E 100 RD  WYANDOTTE, OK 74370",Original,1258.0,,,Correct,Correct,Correct,Correct,Active,EASTERN SHAWNEE TRAVEL CENTER,"69721 E 100 RD WYANDOTTE, OK 74370",36.86897259,-94.62727326,POINT (-94.62727326 36.86897259),No,16.36316946,,,Miami/Peoria,Miami/Peoria joint-use OTSA,From Original List,,,,,,No changes,No changes,No changes,No changes,OTTAWA,OTTAWA,,,,,,,
1259,1259,OK406131,7 CLANS TRAVEL PLAZA #2,8401 HIGHWAY 177,,RED ROCK,OK,74651,36.48476241,-97.07033632,"8401 HIGHWAY 177  RED ROCK, OK 74651",Original,1259.0,,,Can't Validate,Can't Validate,Can't Validate,Can't Validate,Can't Validate,7 CLANS TRAVEL PLAZA #2,"8401 HIGHWAY 177 RED ROCK, OK 74651",36.48476241,-97.07033632,POINT (-97.07033632 36.48476241),No,4.117094539,,,Osage,Osage Reservation,From Original List,,,,,,No changes,No changes,No changes,No changes,NOBLE,NOBLE,,,,,,,
1260,1260,OK406253,MAVERIC MINI MART #26,914 W 7TH ST,,PAWHUSKA,OK,74056,36.66572392,-96.35239872,"914 W 7TH ST  PAWHUSKA, OK 74056",Original,1260.0,,,Can't Validate,Can't Validate,Can't Validate,Can't Validate,Can't Validate,MAVERIC MINI MART #26,"914 W 7TH ST PAWHUSKA, OK 74056",36.66572392,-96.35239872,POINT (-96.35239872 36.66572392),Yes,0.0,Osage,Osage Reservation,,,From Original List,,,,,,No changes,No changes,No changes,No changes,OSAGE,OSAGE,,,,,,,
1261,1261,OK406300,THE CROSSROADS,9445 STATE HWY 20 (NW CORNER HWY 20,,SKIATOOK,OK,74070,36.37493717,-96.09572331,"9445 STATE HWY 20 (NW CORNER HWY 20  SKIATOOK, OK 74070",Original,1261.0,,,Correct,"9445 OK-20, Skiatook, OK 74070, USA",36.3769517,-96.0995431,Active,THE CROSSROADS,"9445 OK-20, Skiatook, OK 74070, USA",36.376951700000006,-96.0995431,POINT (-96.09954310000001 36.37695170000001),Yes,0.0,Osage,Osage Reservation,,,From Original List,,,,,,9445 -20,SKIATOOK,OK,74070,TULSA,OSAGE,1910221491,THE CROSSROADS,THE CORPORATION COMPANY,,OKLAHOMA CITY,OK,
1262,1262,OK406332,KANZA TRAVEL PLAZA,9695 N HIGHWAY 177 I-35 EXIT 231,,BRAMAN,OK,74632,36.94046883,-97.3434769,"9695 N HIGHWAY 177 I-35 EXIT 231  BRAMAN, OK 74632",Original,1262.0,,,Correct,"9695 N Highway #177, Braman, OK 74632, USA",36.9399405,-97.3438202,Active,KANZA TRAVEL PLAZA,"9695 N Highway #177, Braman, OK 74632, USA",36.939940500000006,-97.34382020000001,POINT (-97.3438202 36.93994050000001),No,9.423289991,,,Kaw/Ponca,Kaw/Ponca joint-use OTSA,From Original List,,,,,,9695 N HIGHWAY # 177,BRAMAN,OK,74632,KAY,KAY,,,,,,,
1263,1263,OK406372,KUM & GO #,2101 E MAIN,,PAWHUSKA,OK,74056,36.6630979,-96.33774877,"2101 E MAIN  PAWHUSKA, OK 74056",Original,1263.0,,,Can't Validate,Can't Validate,Can't Validate,Can't Validate,Can't Validate,KUM & GO #,"2101 E MAIN PAWHUSKA, OK 74056",36.6630979,-96.33774877,POINT (-96.33774877 36.6630979),Yes,0.0,Osage,Osage Reservation,,,From Original List,,,,,,No changes,No changes,No changes,No changes,OSAGE,OSAGE,,,,,,,
1264,1264,OK406583,SEMINOLE FOOD MART #61,401 W STROTHERS AVE,,SEMINOLE,OK,74868,35.231746,-96.6748945,"401 W STROTHERS AVE  SEMINOLE, OK 74868",Google,1264.0,,,Can't Validate,Can't Validate,Can't Validate,Can't Validate,Can't Validate,SEMINOLE FOOD MART #61,"401 W STROTHERS AVE SEMINOLE, OK 74868",35.231746,-96.6748945,POINT (-96.67489449999999 35.231746),No,12.05999472,,,Creek/Seminole,Creek/Seminole joint-use OTSA,From Original List,,,,,,No changes,No changes,No changes,No changes,SEMINOLE,SEMINOLE,,,,,,,
1265,1265,OK406601,SEMINOLE NATION TRAVEL PLAZA,11267 N HIGHWAY 99,,SEMINOLE,OK,74868,35.19511,-96.67013,"11267 N HIGHWAY 99  SEMINOLE, OK 74868",Original,1265.0,,,Correct,Correct,Correct,Correct,Active,SEMINOLE NATION TRAVEL PLAZA,"11267 N HIGHWAY 99 SEMINOLE, OK 74868",35.19511,-96.67013,POINT (-96.67013 35.19511),No,11.754671,,,Creek/Seminole,Creek/Seminole joint-use OTSA,From Original List,,,,,,No changes,No changes,No changes,No changes,SEMINOLE,SEMINOLE,,,,,,,
1266,1266,OK406649,BOAT N TOTE,1670 OSAGE COVE ROAD,,BURBANK,OK,74633,36.72171573,-96.88968054,"1670 OSAGE COVE ROAD  BURBANK, OK 74633",Original,1266.0,0.0,,BOAT-N-TOTE,Correct,Correct,Correct,Active,BOAT-N-TOTE,"1670 OSAGE COVE ROAD BURBANK, OK 74633",36.72171573,-96.88968054,POINT (-96.88968054 36.72171573),Yes,0.0,Osage,Osage Reservation,,,From Original List,,,,,,No changes,No changes,No changes,No changes,OSAGE,OSAGE,,,,,,,
1267,1267,OK731625,DOLLAR GEN STORE #4474,1820 E MAIN ST,,PAWHUSKA,OK,74056,36.66739000000001,-96.3165,"1820 E MAIN ST  PAWHUSKA, OK 74056",Original,1267.0,,,Can't Validate,Can't Validate,Can't Validate,Can't Validate,Can't Validate,DOLLAR GEN STORE #4474,"1820 E MAIN ST PAWHUSKA, OK 74056",36.667390000000005,-96.3165,POINT (-96.3165 36.66739000000001),Yes,0.0,Osage,Osage Reservation,,,From Original List,,,,,,No changes,No changes,No changes,No changes,OSAGE,OSAGE,,,,,,,
1268,1268,OK731648,DOLLAR GENERAL ST 13421,501 N 8TH ST,,BARNSDALL,OK,74002,36.55772,-96.16585,"501 N 8TH ST  BARNSDALL, OK 74002",Original,1268.0,,,Correct,Correct,Correct,Correct,Active,DOLLAR GENERAL ST 13421,"501 N 8TH ST BARNSDALL, OK 74002",36.55772,-96.16585,POINT (-96.16585000000001 36.55772),Yes,0.0,Osage,Osage Reservation,,,From Original List,,,,,,No changes,No changes,No changes,No changes,OSAGE,OSAGE,,,,,,,
1269,1269,OK731746,DOLLAR GENERAL STORE #13094,27255 WEST HIGHWAY 51,,SAND SPRINGS,OK,74063,36.13019,-96.29304,"27255 WEST HIGHWAY 51  SAND SPRINGS, OK 74063",Original,1269.0,,,Can't Validate,Can't Validate,Can't Validate,Can't Validate,Can't Validate,DOLLAR GENERAL STORE #13094,"27255 WEST HIGHWAY 51 SAND SPRINGS, OK 74063",36.13019,-96.29304,POINT (-96.29304 36.13019),No,2.6319335919999998,,,Osage,Osage Reservation,From Original List,,,,,,No changes,No changes,No changes,No changes,OSAGE,OSAGE,,,,,,,
1270,1270,OK731747,DOLLAR GENERAL STORE 13918,525 S 209TH W AVE,,SAND SPRINGS,OK,74063,36.15476,-96.22604,"525 S 209TH W AVE  SAND SPRINGS, OK 74063",Original,1270.0,,,Correct,Correct,Correct,Correct,Active,DOLLAR GENERAL STORE 13918,"525 S 209TH W AVE SAND SPRINGS, OK 74063",36.154759999999996,-96.22604,POINT (-96.22604 36.15476),No,0.44512403700000003,,,Osage,Osage Reservation,From Original List,,,,,,No changes,No changes,No changes,No changes,OSAGE,OSAGE,,,,,,,
1271,1271,OK731748,DOLLAR GENERAL,5402 SOUTH HIGHWAY 97,,SAND SPRINGS,OK,74063,36.08485,-96.11991,"5402 SOUTH HIGHWAY 97  SAND SPRINGS, OK 74063",Original,1271.0,,,Correct,"5402 S, OK-97, Sand Springs, OK 74063, USA",36.0845845,-96.1206279,Active,DOLLAR GENERAL,"5402 S, OK-97, Sand Springs, OK 74063, USA",36.0845845,-96.12062790000002,POINT (-96.12062790000002 36.0845845),No,4.996619863,,,Osage,Osage Reservation,From Original List,,,,,,5402 S -97,SAND SPRINGS,OK,74063,OSAGE,TULSA,2300267776,DOLLAR GENERAL,CORPORATION SERVICE COMPANY,,OKLA CITY,OK,
1272,1272,OK731815,DOLLAR GENERAL STORE#2555,520 PLAZA CT,,SAND SPRINGS,OK,74063,36.13963,-96.10281,"520 PLAZA CT  SAND SPRINGS, OK 74063",Original,1272.0,,,Can't Validate,Can't Validate,Can't Validate,Can't Validate,Can't Validate,DOLLAR GENERAL STORE#2555,"520 PLAZA CT SAND SPRINGS, OK 74063",36.13963,-96.10280999999999,POINT (-96.10280999999999 36.13963),No,1.4018788880000002,,,Osage,Osage Reservation,From Original List,,,,,,No changes,No changes,No changes,No changes,OSAGE,OSAGE,,,,,,,
1273,1273,OK731856,DOLLAR GENERAL STORE#3567,3728 S HIGHWAY 97,,SAND SPRINGS,OK,74063,36.10918,-96.11736,"3728 S HIGHWAY 97  SAND SPRINGS, OK 74063",Original,1273.0,,,Can't Validate,Can't Validate,Can't Validate,Can't Validate,Can't Validate,DOLLAR GENERAL STORE#3567,"3728 S HIGHWAY 97 SAND SPRINGS, OK 74063",36.10918,-96.11735999999999,POINT (-96.11735999999999 36.10918),No,3.390950658,,,Osage,Osage Reservation,From Original List,,,,,,No changes,No changes,No changes,No changes,OSAGE,OSAGE,,,,,,,
1274,1274,OK731918,DOLLAR GENERAL STORE#6633,103 E MAIN ST,,HOMINY,OK,74035,36.41583,-96.39372,"103 E MAIN ST  HOMINY, OK 74035",Original,1274.0,,,Can't Validate,Can't Validate,Can't Validate,Can't Validate,Can't Validate,DOLLAR GENERAL STORE#6633,"103 E MAIN ST HOMINY, OK 74035",36.41583,-96.39372,POINT (-96.39372 36.41583),Yes,0.0,Osage,Osage Reservation,,,From Original List,,,,,,No changes,No changes,No changes,No changes,OSAGE,OSAGE,,,,,,,
1275,1275,OK731936,DOLLAR GENERAL STORE#7821,544 N MAIN ST,,FAIRFAX,OK,74637,36.12309000000001,-97.05145,"544 N MAIN ST  FAIRFAX, OK 74637",Original,1275.0,,,Can't Validate,Can't Validate,Can't Validate,Can't Validate,Can't Validate,DOLLAR GENERAL STORE#7821,"544 N MAIN ST FAIRFAX, OK 74637",36.123090000000005,-97.05145,POINT (-97.05145 36.12309000000001),No,22.69199753,,,Osage,Osage Reservation,From Original List,,,,,,No changes,No changes,No changes,No changes,OSAGE,OSAGE,,,,,,,
1276,1276,OK731950,DOLLAR GENERAL STORE 9324,519 EAST ROGERS BOULEVARD,,SKIATOOK,OK,74070,36.36853,-95.99605,"519 EAST ROGERS BOULEVARD  SKIATOOK, OK 74070",Original,1276.0,,,Correct,"519 Wc Rogers Blvd, Skiatook, OK 74070, USA",36.3688164,-95.9955693,Active,DOLLAR GENERAL STORE 9324,"519 Wc Rogers Blvd, Skiatook, OK 74070, USA",36.3688164,-95.9955693,POINT (-95.9955693 36.36881639999999),No,0.374830262,,,Osage,Osage Reservation,From Original List,,,,,,519 WC ROGERS BLVD,SKIATOOK,OK,74070,OSAGE,TULSA,,,,,,,
1277,1277,OK745809,INDIGO SKY CASINO,70220 E. HWY. 60,,WYANDOTTE,OK,74370,36.823429,-94.623861,"70220 E. HWY. 60  WYANDOTTE, OK 74370",Original,1277.0,,,Correct,"70220 US-60, Wyandotte, OK 74370, USA",36.8249513,-94.6260119,Active,INDIGO SKY CASINO,"70220 US-60, Wyandotte, OK 74370, USA",36.824951299999995,-94.62601190000001,POINT (-94.62601189999999 36.8249513),No,16.820752,,,Miami/Peoria,Miami/Peoria joint-use OTSA,From Original List,,,,,,70220 US-60,WYANDOTTE,OK,74370,,OTTAWA,3712363492,"INDIGO SKY CASINO, LLC",KARL JONES,,VINITA,OK,
1278,1278,OK745810,OUTPOST CASINO,69701 E. 100 RD.,,WYANDOTTE,OK,74370,36.869047,-94.629384,"69701 E. 100 RD.  WYANDOTTE, OK 74370",Original,1278.0,,,Correct,Correct,Correct,Correct,Active,OUTPOST CASINO,"69701 E. 100 RD. WYANDOTTE, OK 74370",36.869046999999995,-94.629384,POINT (-94.629384 36.86904699999999),No,16.22520795,,,Miami/Peoria,Miami/Peoria joint-use OTSA,From Original List,,,,,,No changes,No changes,No changes,No changes,,OTTAWA,,,,,,,
1279,1279,OK745829,EAST GORE DISCOUNT TOBACCO,2005 E. GORE BLVD.,,LAWTON,OK,73501,34.608638,-98.364101,"2005 E. GORE BLVD.  LAWTON, OK 73501",Original,1279.0,,,Correct,Correct,Correct,Correct,Active,EAST GORE DISCOUNT TOBACCO,"2005 E. GORE BLVD. LAWTON, OK 73501",34.608638,-98.364101,POINT (-98.36410100000001 34.608638),No,26.52830651,,,Kiowa-Comanche-Apache-Ft Sill Apache/Caddo-Wichita-Delaware,Kiowa-Comanche-Apache-Ft Sill Apache/Caddo-Wichita-Delaware joint-use OTSA,From Original List,,,,,,No changes,No changes,No changes,No changes,,COMANCHE,,,,,,,
1280,1280,OK745838,AST CONVENIENCE STORE,15700 E. STATE HWY. 9,,NORMAN,OK,73026,35.231324,-97.207589,"15700 E. STATE HWY. 9  NORMAN, OK 73026",Original,1280.0,1.0,yes,Correct,Correct,Correct,Correct,Active,AST CONVENIENCE STORE,"15700 E. STATE HWY. 9 NORMAN, OK 73026",35.231324,-97.207589,POINT (-97.207589 35.231324),No,46.85746509,,,Creek/Seminole,Creek/Seminole joint-use OTSA,From Original List,,,,,,No changes,No changes,No changes,No changes,,CLEVELAND,,,,,,,
1281,1281,OK745839,KWICK STOP CONVENIENCE STORES,522 EAST WALNUT STREET,,TECUMSEH,OK,74873,35.26067800000001,-96.930939,"522 EAST WALNUT STREET  TECUMSEH, OK 74873",Original,1281.0,,,Correct,Correct,Correct,Correct,Active,KWICK STOP CONVENIENCE STORES,"522 EAST WALNUT STREET TECUMSEH, OK 74873",35.260678000000006,-96.930939,POINT (-96.930939 35.26067800000001),No,28.77699199,,,Creek/Seminole,Creek/Seminole joint-use OTSA,From Original List,,,,,,No changes,No changes,No changes,No changes,,POTTAWATOMIE,1900233957,KWICK STOP CONVENIENCE STORES,"CHEEK & FALCONE, PLLC",,OKLAHOMA CITY,OK,
1282,1282,OK745840,THUNDERBIRD CASINO - NORMAN,15700 E. HWY. 9,,NORMAN,OK,73026,35.231324,-97.207589,"15700 E. HWY. 9  NORMAN, OK 73026",Original,1282.0,,,Correct,"15700 OK-9, Norman, OK 73026, USA",35.2291282,-97.2067307,Active,THUNDERBIRD CASINO - NORMAN,"15700 OK-9, Norman, OK 73026, USA",35.2291282,-97.20673070000001,POINT (-97.20673069999999 35.2291282),No,46.80183207,,,Creek/Seminole,Creek/Seminole joint-use OTSA,From Original List,,,,,,15700 -9,NORMAN,OK,73026,,CLEVELAND,,,,,,,
1283,1283,OK745841,FIRE LAKE CASINO,41207 HARDESTY ROAD,,SHAWNEE,OK,74801,35.296318,-96.925947,"41207 HARDESTY ROAD  SHAWNEE, OK 74801",Original,1283.0,1.0,yes,FIRELAKE CASINO AND ENTERTAINMENT CENTER,Correct,Correct,Correct,Active,FIRELAKE CASINO AND ENTERTAINMENT CENTER,"41207 HARDESTY ROAD SHAWNEE, OK 74801",35.296318,-96.925947,POINT (-96.92594699999999 35.296318),No,28.43434758,,,Creek/Seminole,Creek/Seminole joint-use OTSA,From Original List,,,,,,No changes,No changes,No changes,No changes,,POTTAWATOMIE,,,,,,,
1284,1284,OK745874,KEVINS 66,615 E. CENTRAL,,ANADARKO,OK,73005,35.07264,-98.234344,"615 E. CENTRAL  ANADARKO, OK 73005",Original,1284.0,1.0,yes,Correct,Correct,Correct,Correct,Active,KEVINS 66,"615 E. CENTRAL ANADARKO, OK 73005",35.07264,-98.234344,POINT (-98.23434399999999 35.07264),Yes,0.0,Kiowa-Comanche-Apache-Ft Sill Apache/Caddo-Wichita-Delaware,Kiowa-Comanche-Apache-Ft Sill Apache/Caddo-Wichita-Delaware joint-use OTSA,,,From Original List,,,,,,No changes,No changes,No changes,No changes,,CADDO,,,,,,,
1285,1285,OK745875,TEXACO WARRIOR MART,806 W. PETREE RD.,,ANADARKO,OK,73005,35.057824,-98.257416,"806 W. PETREE RD.  ANADARKO, OK 73005",Original,1285.0,1.0,yes,SHELL WARRIOR MART,Correct,Correct,Correct,Active,SHELL WARRIOR MART,"806 W. PETREE RD. ANADARKO, OK 73005",35.057824,-98.257416,POINT (-98.25741600000001 35.057824),Yes,0.0,Kiowa-Comanche-Apache-Ft Sill Apache/Caddo-Wichita-Delaware,Kiowa-Comanche-Apache-Ft Sill Apache/Caddo-Wichita-Delaware joint-use OTSA,,,From Original List,,,,,,No changes,No changes,No changes,No changes,,CADDO,,,,,,,
1286,1286,OK745876,WICHITA TRAVEL PLAZA,32107 N. HWY. 281,,ANADARKO,OK,73005,35.096070000000005,-98.2436,"32107 N. HWY. 281  ANADARKO, OK 73005",Original,1286.0,,,Correct,"32107 US-281, Anadarko, OK 73005, USA",35.0956946,-98.243426,Active,WICHITA TRAVEL PLAZA,"32107 US-281, Anadarko, OK 73005, USA",35.0956946,-98.243426,POINT (-98.243426 35.0956946),No,0.525456197,,,Kiowa-Comanche-Apache-Ft Sill Apache/Caddo-Wichita-Delaware,Kiowa-Comanche-Apache-Ft Sill Apache/Caddo-Wichita-Delaware joint-use OTSA,From Original List,,,,,,32107 US-281,ANADARKO,OK,73005,,CADDO,,,,,,,
1287,1287,OK745951,BRIGGS TOBACCO OUTLET,23957 OK 51,,TAHLEQUAH,OK,74464,35.92904,-94.87049,"23957 OK 51  TAHLEQUAH, OK 74464",Original,1287.0,,,Correct,"23957 OK-51, Tahlequah, OK 74464, USA",35.9278763,-94.8727858,Active,BRIGGS TOBACCO OUTLET,"23957 OK-51, Tahlequah, OK 74464, USA",35.9278763,-94.8727858,POINT (-94.8727858 35.9278763),No,61.60833696,,,Miami/Peoria,Miami/Peoria joint-use OTSA,From Original List,,,,,,23957 -51,TAHLEQUAH,OK,74464,,CHEROKEE,,,,,,,
1288,1288,OK745952,CHEROKEE SMOKE SHOP,19105 E TIMBERCREST CIR.,,CATOOSA,OK,74015,36.165427,-95.764726,"19105 E TIMBERCREST CIR.  CATOOSA, OK 74015",Original,1288.0,,,Correct,"777 W Cherokee St, Catoosa, OK 74015, USA",36.1649131,-95.7629725,Active,CHEROKEE SMOKE SHOP,"777 W Cherokee St, Catoosa, OK 74015, USA",36.1649131,-95.7629725,POINT (-95.7629725 36.16491309999999),No,15.55422093,,,Osage,Osage Reservation,From Original List,,,,,,777 W CHEROKEE ST,CATOOSA,OK,74015,,ROGERS,,,,,,,
1289,1289,OK745953,CHEROKEE CASINO RAMONA,31501 US HWY. 75,,RAMONA,OK,74061,36.561525,-95.929474,"31501 US HWY. 75  RAMONA, OK 74061",Original,1289.0,,,Correct,"31501 US-75, Ramona, OK 74061, USA",36.564391,-95.930707,Active,CHEROKEE CASINO RAMONA,"31501 US-75, Ramona, OK 74061, USA",36.564391,-95.930707,POINT (-95.930707 36.564391),No,4.57661867,,,Osage,Osage Reservation,From Original List,,,,,,31501 US-75,RAMONA,OK,74061,,WASHINGTON,,,,,,,
1290,1290,OK745954,CHEROKEE CASINO ROLAND,205 CHEROKEE BLVD.,,ROLAND,OK,74954,35.406657,-94.524583,"205 CHEROKEE BLVD.  ROLAND, OK 74954",Original,1290.0,,,CHEROKEE CASINO AND HOTEL ROLAND,"109 Cherokee Blvd, Roland, OK 74954, USA",35.407758,-94.5285343,Active,CHEROKEE CASINO AND HOTEL ROLAND,"109 Cherokee Blvd, Roland, OK 74954, USA",35.407758,-94.5285343,POINT (-94.5285343 35.40775799999999),No,98.84992599,,,Miami/Peoria,Miami/Peoria joint-use OTSA,From Original List,,,,,,109 CHEROKEE BLVD,ROLAND,OK,74954,,SEQUOYAH,,,,,,,
1291,1291,OK745955,CHEROKEE CASINO SALLISAW,1621 W RUTH ST.,,SALLISAW,OK,74955,35.44909000000001,-94.807111,"1621 W RUTH ST.  SALLISAW, OK 74955",Original,1291.0,,,CHEROKEE NATION SALLISAW CASINO,"1621 W Ruth Ave, Sallisaw, OK 74955, USA",35.4495272,-94.8074488,Active,CHEROKEE NATION SALLISAW CASINO,"1621 W Ruth Ave, Sallisaw, OK 74955, USA",35.449527200000006,-94.8074488,POINT (-94.8074488 35.44952720000001),No,90.78189667,,,Osage,Osage Reservation,From Original List,,,,,,1621 W RUTH AVE,SALLISAW,OK,74955,,SEQUOYAH,,,,,,,
1292,1292,OK745956,CHEROKEE CASINO SOUTH COFFEYVILLE,1506 N. HWY 169,,SOUTH COFFEYVILLE,OK,74072,36.98258,-95.62581,"1506 N. HWY 169  SOUTH COFFEYVILLE, OK 74072",Original,1292.0,,,Correct,"1506 US-169, South Coffeyville, OK 74072, USA",36.9825777,-95.6258073,Active,CHEROKEE CASINO SOUTH COFFEYVILLE,"1506 US-169, South Coffeyville, OK 74072, USA",36.9825777,-95.62580729999999,POINT (-95.62580729999999 36.98257770000001),No,24.4973983,,,Osage,Osage Reservation,From Original List,,,,,,1506 US-169,SOUTH COFFEYVILLE,OK,74072,,NOWATA,,,,,,,
1293,1293,OK745957,CHEROKEE CASINO TAHLEQUAH,16489 HWY. 62,,TAHLEQUAH,OK,74464,35.84918,-95.01622,"16489 HWY. 62  TAHLEQUAH, OK 74464",Original,1293.0,,,Correct,"16489 US-62, Tahlequah, OK 74464, USA",35.8481921,-95.0112277,Active,CHEROKEE CASINO TAHLEQUAH,"16489 US-62, Tahlequah, OK 74464, USA",35.848192100000006,-95.0112277,POINT (-95.01122770000001 35.84819210000001),No,66.95374384,,,Miami/Peoria,Miami/Peoria joint-use OTSA,From Original List,,,,,,16489 US-62,TAHLEQUAH,OK,74464,,CHEROKEE,,,,,,,
1294,1294,OK745958,CHEROKEE CASINO WEST SILOAM SPRINGS,2416 HWY. 412,,SILOAM SPRINGS,OK,74338,36.176457,-94.567364,"2416 HWY. 412  SILOAM SPRINGS, OK 74338",Original,1294.0,,,Correct,"2416 US-412, West Siloam Springs, OK 74338, USA",36.1777366,-94.5678181,Active,CHEROKEE CASINO WEST SILOAM SPRINGS,"2416 US-412, West Siloam Springs, OK 74338, USA",36.1777366,-94.5678181,POINT (-94.5678181 36.1777366),No,50.14885412,,,Miami/Peoria,Miami/Peoria joint-use OTSA,From Original List,,,,,,2416 US-412,WEST SILOAM SPRINGS,OK,74338,,DELAWARE,,,,,,,
1295,1295,OK745959,CHEROKEE CASINO WILL RIGERS DOWNS,29099 S 4200 RD.,,CLAREMORE,OK,74019,36.29556,-95.52525,"29099 S 4200 RD.  CLAREMORE, OK 74019",Original,1295.0,0.0,,CHEROKEE CASINO WILL ROGERS DOWNS,"20900 S 4200 Rd, Claremore, OK 74019, USA",36.312283,-95.532636,Active,CHEROKEE CASINO WILL ROGERS DOWNS,"20900 S 4200 Rd, Claremore, OK 74019, USA",36.312283,-95.532636,POINT (-95.532636 36.312283),No,30.62372348,,,Osage,Osage Reservation,From Original List,,,,,,20900 S 4200 RD,CLAREMORE,OK,74019,,ROGERS,,,,,,,
1296,1296,OK745960,CHEROKEE CASINO  FORT GIBSON,103 N GEORGETOWN RD. & STATE HWY. 62,,FORT GIBSON,OK,74434,35.76982,-95.26945,"103 N GEORGETOWN RD. & STATE HWY. 62  FORT GIBSON, OK 74434",Original,1296.0,,,Correct,"107 N Georgetown Rd, Fort Gibson, OK 74434, USA",35.770773,-95.269422,Active,CHEROKEE CASINO  FORT GIBSON,"107 N Georgetown Rd, Fort Gibson, OK 74434, USA",35.770773,-95.26942199999999,POINT (-95.26942199999999 35.770773),No,54.17545217,,,Osage,Osage Reservation,From Original List,,,,,,107 N GEORGETOWN RD,FORT GIBSON,OK,74434,,MUSKOGEE,,,,,,,
1297,1297,OK745961,CHEROKEE NATION OUTPOST TOBACCO SHOP,44 & 193RD E AVE.,,CATOOSA,OK,74015,36.162754,-95.761669,"44 & 193RD E AVE.  CATOOSA, OK 74015",Original,1297.0,,,Correct,Correct,Correct,Correct,Active,CHEROKEE NATION OUTPOST TOBACCO SHOP,"44 & 193RD E AVE. CATOOSA, OK 74015",36.162754,-95.761669,POINT (-95.761669 36.162754),No,15.637968599999999,,,Osage,Osage Reservation,From Original List,,,,,,No changes,No changes,No changes,No changes,,ROGERS,,,,,,,
1298,1298,OK745962,CHEROKEE TOBACCO SALES,208 N NO NAME ST,,SALLISAW,OK,74955,35.458411,-94.805607,"208 N NO NAME ST  SALLISAW, OK 74955",Original,1298.0,,,Correct,Correct,Correct,Correct,Active,CHEROKEE TOBACCO SALES,"208 N NO NAME ST SALLISAW, OK 74955",35.458411,-94.805607,POINT (-94.80560699999999 35.458411),No,90.58973956,,,Osage,Osage Reservation,From Original List,,,,,,No changes,No changes,No changes,No changes,,SEQUOYAH,,,,,,,
1299,1299,OK745963,CHRISTIEVILLE SMOKE SHOP,HC 66 BOX 449,,LOCUST GROVE,OK,74352,36.1998307,-95.1678137,"HC 66 BOX 449  LOCUST GROVE, OK 74352",Google,1299.0,,,Correct,Correct,Correct,Correct,Active,CHRISTIEVILLE SMOKE SHOP,"HC 66 BOX 449 LOCUST GROVE, OK 74352",36.1998307,-95.1678137,POINT (-95.1678137 36.1998307),No,46.51618925,,,Miami/Peoria,Miami/Peoria joint-use OTSA,From Original List,,,,,,No changes,No changes,No changes,No changes,,MAYES,,,,,,,
1300,1300,OK745964,CLAREMORE SMOKE SHOP,902 NORTH DOROTHY AVENUE,,CLAREMORE,OK,74017,36.315125,-95.599216,"902 NORTH DOROTHY AVENUE  CLAREMORE, OK 74017",Original,1300.0,,,Correct,Correct,Correct,Correct,Active,CLAREMORE SMOKE SHOP,"902 NORTH DOROTHY AVENUE CLAREMORE, OK 74017",36.315125,-95.599216,POINT (-95.599216 36.315125),No,26.27486045,,,Osage,Osage Reservation,From Original List,,,,,,No changes,No changes,No changes,No changes,,ROGERS,,,,,,,
1301,1301,OK745965,FLYING CLOUD SMOKE SHOP,126 W CLYDE AVE.,,VINITA,OK,74301,36.648007,-95.149501,"126 W CLYDE AVE.  VINITA, OK 74301",Original,1301.0,,,Correct,Correct,Correct,Correct,Active,FLYING CLOUD SMOKE SHOP,"126 W CLYDE AVE. VINITA, OK 74301",36.648007,-95.149501,POINT (-95.149501 36.648007),No,20.44349547,,,Miami/Peoria,Miami/Peoria joint-use OTSA,From Original List,,,,,,No changes,No changes,No changes,No changes,,CRAIG,,,,,,,
1302,1302,OK745966,FOUR FEATHER LTD.  LLC,4 N MILL ST.,,PRYOR,OK,74361,36.308214,-95.318448,"4 N MILL ST.  PRYOR, OK 74361",Original,1302.0,1.0,yes,Correct,Correct,Correct,Correct,Active,FOUR FEATHER LTD.  LLC,"4 N MILL ST. PRYOR, OK 74361",36.308214,-95.318448,POINT (-95.318448 36.308214),No,44.61538813,,,Osage,Osage Reservation,From Original List,,,,,,No changes,No changes,No changes,No changes,,MAYES,,,,,,,
1303,1303,OK745967,GAWSKEY INC. WEBBERS FALLS,HWY. 100 & I-40 JCT.,,GORE,OK,74435,35.5294286,-95.1174295,"HWY. 100 & I-40 JCT.  GORE, OK 74435",Google,1303.0,,,Can't Validate,Can't Validate,Can't Validate,Can't Validate,Can't Validate,GAWSKEY INC. WEBBERS FALLS,"HWY. 100 & I-40 JCT. GORE, OK 74435",35.5294286,-95.1174295,POINT (-95.1174295 35.5294286),No,70.96158893,,,Osage,Osage Reservation,From Original List,,,,,,No changes,No changes,No changes,No changes,,SEQUOYAH,,,,,,,
1304,1304,OK745968,GRAND CHEROKEE SMOKE SHOP,4710 US HWY. 59,,GROVE,OK,74344,36.607739,-94.797493,"4710 US HWY. 59  GROVE, OK 74344",Original,1304.0,,,Correct,"4710 US-59, Grove, OK 74344, USA",36.6086496,-94.7998084,Active,GRAND CHEROKEE SMOKE SHOP,"4710 US-59, Grove, OK 74344, USA",36.60864960000001,-94.7998084,POINT (-94.7998084 36.60864960000001),No,18.45014155,,,Miami/Peoria,Miami/Peoria joint-use OTSA,From Original List,,,,,,4710 US-59,GROVE,OK,74344,,DELAWARE,,,,,,,
1305,1305,OK745969,GRAND LAKE SMOKE SHOP,443501 E 380 RD.,,VINITA,OK,74301,36.466831,-95.103587,"443501 E 380 RD.  VINITA, OK 74301",Original,1305.0,,,Correct,"443501 E 380 Rd Vinita, Nowata, OK 74048, USA",36.699249,-95.5756792,Active,GRAND LAKE SMOKE SHOP,"443501 E 380 Rd Vinita, Nowata, OK 74048, USA",36.699249,-95.5756792,POINT (-95.5756792 36.699249),No,27.75588128,,,Osage,Osage Reservation,From Original List,,,,,,443501 E 380 RD,"VINITA, NOWATA",OK,74048,,NOWATA,,,,,,,
1306,1306,OK745970,HARD ROCK HOTEL & CASINO,777 WEST CHEROKEE STREET,,CATOOSA,OK,74015,36.165243,-95.766437,"777 WEST CHEROKEE STREET  CATOOSA, OK 74015",Original,1306.0,1.0,yes,Correct,Correct,Correct,Correct,Active,HARD ROCK HOTEL & CASINO,"777 WEST CHEROKEE STREET CATOOSA, OK 74015",36.165243,-95.766437,POINT (-95.766437 36.165243),No,15.327772199999998,,,Osage,Osage Reservation,From Original List,,,,,,No changes,No changes,No changes,No changes,,ROGERS,,,,,,,
1307,1307,OK745971,INDEPENDENCE SMOKE SHOP,743 N LEWIS PL.,,TULSA,OK,74110,36.165925,-95.956917,"743 N LEWIS PL.  TULSA, OK 74110",Original,1307.0,1.0,yes,INDEPENDENCE INDIAN SMOKE SHOP,Correct,Correct,Correct,Active,INDEPENDENCE INDIAN SMOKE SHOP,"743 N LEWIS PL. TULSA, OK 74110",36.165925,-95.956917,POINT (-95.956917 36.165925),No,2.884911167,,,Osage,Osage Reservation,From Original List,,,,,,No changes,No changes,No changes,No changes,,TULSA,,,,,,,
1308,1308,OK745972,INDIAN SMOKE SHOP,1418 NORTH SHERIDAN ROAD,,TULSA,OK,74115,36.175335,-95.904598,"1418 NORTH SHERIDAN ROAD  TULSA, OK 74115",Original,1308.0,,,Correct,Correct,Correct,Correct,Active,INDIAN SMOKE SHOP,"1418 NORTH SHERIDAN ROAD TULSA, OK 74115",36.175335,-95.904598,POINT (-95.90459799999999 36.175335),No,6.31129162,,,Osage,Osage Reservation,From Original List,,,,,,No changes,No changes,No changes,No changes,,TULSA,,,,,,,
1309,1309,OK745973,INDIAN SMOKE SHOP,433687 EAST HIGHWAY 66,,VINITA,OK,74301,36.613925,-95.279646,"433687 EAST HIGHWAY 66  VINITA, OK 74301",Original,1309.0,,,Correct,"433661 Rte 66, Vinita, OK 74301, USA",36.6151894,-95.2762877,Active,INDIAN SMOKE SHOP,"433661 Rte 66, Vinita, OK 74301, USA",36.6151894,-95.2762877,POINT (-95.2762877 36.6151894),No,28.10302968,,,Miami/Peoria,Miami/Peoria joint-use OTSA,From Original List,,,,,,433661 RTE 66,VINITA,OK,74301,,CRAIG,,,,,,,
1310,1310,OK745974,KS TOBACCO OUTLET,11669 US HWY. 412,,KS,OK,74347,36.19934,-94.73109,"11669 US HWY. 412  KS, OK 74347",Original,1310.0,1.0,no,KANSAS TOBACCO OUTLET,"11669 US-412, Kansas, OK 74347, USA",36.204975,-94.820673,Active,KANSAS TOBACCO OUTLET,"11669 US-412, Kansas, OK 74347, USA",36.204975,-94.820673,POINT (-94.820673 36.204975),No,43.94105131,,,Miami/Peoria,Miami/Peoria joint-use OTSA,From Original List,,,,,,11669 US-412,KANSAS,OK,74347,,DELAWARE,,,,,,,
1311,1311,OK745975,LENAPE SMOKE SHOP,12042 US 75,,DEWEY,OK,74029,36.83778,-95.9355,"12042 US 75  DEWEY, OK 74029",Original,1311.0,,,Correct,"12042 US-75, Dewey, OK 74029, USA",36.8428651,-95.9344853,Active,LENAPE SMOKE SHOP,"12042 US-75, Dewey, OK 74029, USA",36.842865100000004,-95.9344853,POINT (-95.93448530000001 36.8428651),No,4.3215928560000005,,,Osage,Osage Reservation,From Original List,,,,,,12042 US-75,DEWEY,OK,74029,,WASHINGTON,1900552514,"LENAPE SMOKE SHOP, INC.",JAMES B MCCARTLIN,,DEWEY,OK,
1312,1312,OK745976,LITTLE DEER SMOKE SHOP/TWO FINGERS TOBACCO,2810 S HWY. 169,,TALALA,OK,74080,36.572317,-95.677971,"2810 S HWY. 169  TALALA, OK 74080",Original,1312.0,0.0,,Correct,"2810 US-169, Talala, OK 74080, USA",36.5723043,-95.6786465,Active,LITTLE DEER SMOKE SHOP/TWO FINGERS TOBACCO,"2810 US-169, Talala, OK 74080, USA",36.57230429999999,-95.6786465,POINT (-95.6786465 36.57230429999999),No,21.04060069,,,Osage,Osage Reservation,From Original List,,,,,,2810 US-169,TALALA,OK,74080,,ROGERS,,,,,,,
1313,1313,OK745977,OUTPOST CONVENIENCE STORE,17699 S MUSKOGEE AVE.,,TAHLEQUAH,OK,74465,35.856253,-94.982974,"17699 S MUSKOGEE AVE.  TAHLEQUAH, OK 74465",Original,1313.0,,,Correct,"17699 S Muskogee Ave, Tahlequah, OK 74464, USA",35.8532431,-94.9892479,Active,OUTPOST CONVENIENCE STORE,"17699 S Muskogee Ave, Tahlequah, OK 74464, USA",35.85324310000001,-94.98924790000001,POINT (-94.9892479 35.85324310000001),No,66.52024262,,,Miami/Peoria,Miami/Peoria joint-use OTSA,From Original List,,,,,,17699 S MUSKOGEE AVE,TAHLEQUAH,OK,74464,,CHEROKEE,,,,,,,
1314,1314,OK745978,PEACE PIPE INDIAN SMOKE SHOP,11301 N GARNETT RD.,,OWASSO,OK,74055,36.317922,-95.848108,"11301 N GARNETT RD.  OWASSO, OK 74055",Original,1314.0,,,Correct,Correct,Correct,Correct,Active,PEACE PIPE INDIAN SMOKE SHOP,"11301 N GARNETT RD. OWASSO, OK 74055",36.317921999999996,-95.848108,POINT (-95.848108 36.317922),No,10.01708909,,,Osage,Osage Reservation,From Original List,,,,,,No changes,No changes,No changes,No changes,,TULSA,,,,,,,
1315,1315,OK745979,RED BIRD INDIAN SMOKE SHOP,1526 80TH ST.,,GROVE,OK,74344,36.618239,-94.810565,"1526 80TH ST.  GROVE, OK 74344",Original,1315.0,1.0,yes,REDBIRD INDIAN SMOKESHOP,Correct,Correct,Correct,Active,REDBIRD INDIAN SMOKESHOP,"1526 80TH ST. GROVE, OK 74344",36.618239,-94.810565,POINT (-94.810565 36.618239),No,17.66174746,,,Miami/Peoria,Miami/Peoria joint-use OTSA,From Original List,,,,,,No changes,No changes,No changes,No changes,,DELAWARE,,,,,,,
1316,1316,OK745980,SALINE CREEK SMOKE SHOP,521 S SALTWELL ST.,,SALINA,OK,74365,36.288932,-95.148529,"521 S SALTWELL ST.  SALINA, OK 74365",Original,1316.0,,,Correct,Correct,Correct,Correct,Active,SALINE CREEK SMOKE SHOP,"521 S SALTWELL ST. SALINA, OK 74365",36.288932,-95.14852900000001,POINT (-95.14852900000001 36.288932),No,40.61946493,,,Miami/Peoria,Miami/Peoria joint-use OTSA,From Original List,,,,,,No changes,No changes,No changes,No changes,,MAYES,,,,,,,
1317,1317,OK745981,STILWELL SMOKE SHOP,119 W CEDAR ST.,,STILWELL,OK,74960,35.80934600000001,-94.627665,"119 W CEDAR ST.  STILWELL, OK 74960",Original,1317.0,,,Correct,Correct,Correct,Correct,Active,STILWELL SMOKE SHOP,"119 W CEDAR ST. STILWELL, OK 74960",35.809346000000005,-94.62766500000001,POINT (-94.62766500000001 35.80934600000001),No,71.83072678,,,Miami/Peoria,Miami/Peoria joint-use OTSA,From Original List,,,,,,No changes,No changes,No changes,No changes,,ADAIR,,,,,,,
1318,1318,OK745982,TAHLEQUAH SMOKE SHOP,821 W CHOCTAW ST.,,TAHLEQUAH,OK,74465,35.914756,-94.983573,"821 W CHOCTAW ST.  TAHLEQUAH, OK 74465",Original,1318.0,,,Correct,"821 W Choctaw St, Tahlequah, OK 74464, USA",35.9145609,-94.9834946,Active,TAHLEQUAH SMOKE SHOP,"821 W Choctaw St, Tahlequah, OK 74464, USA",35.9145609,-94.9834946,POINT (-94.9834946 35.91456090000001),No,62.49922003,,,Miami/Peoria,Miami/Peoria joint-use OTSA,From Original List,,,,,,821 W CHOCTAW ST,TAHLEQUAH,OK,74464,,CHEROKEE,,,,,,,
1319,1319,OK745983,TALL CHIEF SMOKE SHOP,31485 US 69,,BIG CABIN,OK,74332,36.554438,-95.220339,"31485 US 69  BIG CABIN, OK 74332",Original,1319.0,,,Correct,Correct,36.5668607,-95.2202581,Closed,TALL CHIEF SMOKE SHOP,"31485 US 69 BIG CABIN, OK 74332",36.5668607,-95.2202581,POINT (-95.2202581 36.56686070000001),No,27.46879183,,,Miami/Peoria,Miami/Peoria joint-use OTSA,From Original List,,,,,,No changes,No changes,No changes,No changes,,CRAIG,,,,,,,
1320,1320,OK745984,TWO TURTLES SMOKE SHOP,1004 E 63RD ST. N,,TULSA,OK,74126,36.245885,-95.978825,"1004 E 63RD ST. N  TULSA, OK 74126",Original,1320.0,,,Correct,Correct,Correct,Correct,Active,TWO TURTLES SMOKE SHOP,"1004 E 63RD ST. N TULSA, OK 74126",36.245884999999994,-95.978825,POINT (-95.978825 36.24588499999999),No,1.475428507,,,Osage,Osage Reservation,From Original List,,,,,,No changes,No changes,No changes,No changes,,TULSA,,,,,,,
1321,1321,OK745985,TWO TURTLES SMOKE SHOP,743 EAST 98TH STREET NORTH,,SPERRY,OK,74073,36.29673,-95.983525,"743 EAST 98TH STREET NORTH  SPERRY, OK 74073",Original,1321.0,1.0,maybe,TWO TURTLES SPERRY,Correct,Correct,Correct,Active,TWO TURTLES SPERRY,"743 EAST 98TH STREET NORTH SPERRY, OK 74073",36.29673,-95.983525,POINT (-95.983525 36.29673),No,1.175977555,,,Osage,Osage Reservation,From Original List,,,,,,No changes,No changes,No changes,No changes,,TULSA,,,,,,,
1322,1322,OK745986,WARRIOR SMOKE SHOP,4TH & MAYES,,ADAIR,OK,74330,36.440504,-95.270325,"4TH & MAYES  ADAIR, OK 74330",Original,1322.0,,,Correct,Correct,Correct,Correct,Active,WARRIOR SMOKE SHOP,"4TH & MAYES ADAIR, OK 74330",36.440504,-95.270325,POINT (-95.270325 36.440504),No,35.86498545,,,Miami/Peoria,Miami/Peoria joint-use OTSA,From Original List,,,,,,No changes,No changes,No changes,No changes,,MAYES,,,,,,,
1323,1323,OK745987,WILLY & BILLY'S TOBACCO SHACK,412 W ALLEN RD.,,TAHLEQUAH,OK,74464,35.929879,-94.973364,"412 W ALLEN RD.  TAHLEQUAH, OK 74464",Original,1323.0,,,Correct,Correct,Correct,Correct,Active,WILLY & BILLY'S TOBACCO SHACK,"412 W ALLEN RD. TAHLEQUAH, OK 74464",35.929879,-94.973364,POINT (-94.973364 35.929879),No,61.46350346,,,Miami/Peoria,Miami/Peoria joint-use OTSA,From Original List,,,,,,No changes,No changes,No changes,No changes,,CHEROKEE,3512720865,"WILLY & BILLY\'S TOBACCO SHACK, LLC",WILLIAM HERMAN AUGERHOLE,,TAHLEQUAH,OK,
1324,1324,OK745988,CALUMET GROCERY STORE,101 E. MAIN ST.,,CALUMET,OK,73014,35.601039,-98.118516,"101 E. MAIN ST.  CALUMET, OK 73014",Original,1324.0,,,Correct,Correct,Correct,Correct,Active,CALUMET GROCERY STORE,"101 E. MAIN ST. CALUMET, OK 73014",35.601039,-98.118516,POINT (-98.118516 35.601039),No,31.7251707,,,Kiowa-Comanche-Apache-Ft Sill Apache/Caddo-Wichita-Delaware,Kiowa-Comanche-Apache-Ft Sill Apache/Caddo-Wichita-Delaware joint-use OTSA,From Original List,,,,,,No changes,No changes,No changes,No changes,,CANADIAN,,,,,,,
1325,1325,OK745989,LUCKY STAR CASINO - CANTON,10347 N. 2274 RD.,,CANTON,OK,73724,36.02621,-95.8172,"10347 N. 2274 RD.  CANTON, OK 73724",Original,1325.0,,,Correct,"10347 N 2274 Rd, Clinton, OK 73601, USA",35.5163656,-98.9345196,Active,LUCKY STAR CASINO - CANTON,"10347 N 2274 Rd, Clinton, OK 73601, USA",35.5163656,-98.9345196,POINT (-98.9345196 35.5163656),No,33.31584605,,,Kiowa-Comanche-Apache-Ft Sill Apache/Caddo-Wichita-Delaware,Kiowa-Comanche-Apache-Ft Sill Apache/Caddo-Wichita-Delaware joint-use OTSA,From Original List,,,,,,10347 N 2274 RD,CLINTON,OK,73601,,CUSTER,,,,,,,
1326,1326,OK745990,LUCKY STAR CASINO - CLINTON,10347 N. 2274 RD.,,CLINTON,OK,73601,35.516492,-98.933519,"10347 N. 2274 RD.  CLINTON, OK 73601",Original,1326.0,,,Correct,Correct,Correct,Correct,Active,LUCKY STAR CASINO - CLINTON,"10347 N. 2274 RD. CLINTON, OK 73601",35.516492,-98.93351899999999,POINT (-98.93351899999999 35.516492),No,33.27695191,,,Kiowa-Comanche-Apache-Ft Sill Apache/Caddo-Wichita-Delaware,Kiowa-Comanche-Apache-Ft Sill Apache/Caddo-Wichita-Delaware joint-use OTSA,From Original List,,,,,,No changes,No changes,No changes,No changes,,CUSTER,,,,,,,
1327,1327,OK745991,LUCKY STAR CASINO - WATONGA,1407 S. CLARENCE NASH BLVD.,,WATONGA,OK,73772,35.828575,-98.419219,"1407 S. CLARENCE NASH BLVD.  WATONGA, OK 73772",Original,1327.0,,,Correct,Correct,Correct,Correct,Active,LUCKY STAR CASINO - WATONGA,"1407 S. CLARENCE NASH BLVD. WATONGA, OK 73772",35.828575,-98.419219,POINT (-98.419219 35.828575),No,45.55237163,,,Kiowa-Comanche-Apache-Ft Sill Apache/Caddo-Wichita-Delaware,Kiowa-Comanche-Apache-Ft Sill Apache/Caddo-Wichita-Delaware joint-use OTSA,From Original List,,,,,,No changes,No changes,No changes,No changes,,BLAINE,,,,,,,
1328,1328,OK745992,HAMMON TRAVEL CENTER,20413 HWY. 33,,HAMMON,OK,73650,35.63886,-99.393289,"20413 HWY. 33  HAMMON, OK 73650",Original,1328.0,1.0,maybe,LUCKY STAR CASINO - HAMMON,"20413 OK-33, Hammon, OK 73650, USA",35.6395871,-99.357604,Active,LUCKY STAR CASINO - HAMMON,"20413 OK-33, Hammon, OK 73650, USA",35.63958710000001,-99.35760400000001,POINT (-99.35760399999999 35.63958710000001),No,59.55269409,,,Kiowa-Comanche-Apache-Ft Sill Apache/Caddo-Wichita-Delaware,Kiowa-Comanche-Apache-Ft Sill Apache/Caddo-Wichita-Delaware joint-use OTSA,From Original List,,,,,,20413 -33,HAMMON,OK,73650,,CUSTER,,,,,,,
1329,1329,OK745993,TRAVEL CENTER & CASINO - CONCHO,7751 N. HWY. 81,,CONCHO,OK,73022,44.36895689999999,-97.1287827,"7751 N. HWY. 81  CONCHO, OK 73022",Google,1329.0,,,Can't Validate,Can't Validate,Can't Validate,Can't Validate,Can't Validate,TRAVEL CENTER & CASINO - CONCHO,"7751 N. HWY. 81 CONCHO, OK 73022",44.36895689999999,-97.1287827,POINT (-97.1287827 44.36895689999999),No,37.77027395,,,Lake Traverse,Lake Traverse Reservation,From Original List,,,,,,No changes,No changes,No changes,No changes,,KINGSBURY,,,,,,,
1330,1330,OK746010,FIRELAKE CORNER STORE,41201 HARDESTY RD.,,SHAWNEE,OK,74801,35.304142,-96.920252,"41201 HARDESTY RD.  SHAWNEE, OK 74801",Original,1330.0,,,Correct,Correct,Correct,Correct,Active,FIRELAKE CORNER STORE,"41201 HARDESTY RD. SHAWNEE, OK 74801",35.304142,-96.920252,POINT (-96.920252 35.304142),No,28.05769132,,,Creek/Seminole,Creek/Seminole joint-use OTSA,From Original List,,,,,,No changes,No changes,No changes,No changes,,POTTAWATOMIE,,,,,,,
1331,1331,OK746011,FIRELAKE EXPRESS GROCERY,214 EAST WALNUT,,TECUMSEH,OK,74873,35.260686,-96.934435,"214 EAST WALNUT  TECUMSEH, OK 74873",Original,1331.0,,,Correct,Correct,Correct,Correct,Active,FIRELAKE EXPRESS GROCERY,"214 EAST WALNUT TECUMSEH, OK 74873",35.260686,-96.934435,POINT (-96.93443499999999 35.260686),No,29.00530241,,,Creek/Seminole,Creek/Seminole joint-use OTSA,From Original List,,,,,,No changes,No changes,No changes,No changes,,POTTAWATOMIE,,,,,,,
1332,1332,OK746012,SMOKE SHOP / FUEL,777 GRAND CASINO BOULEVARD,,SHAWNEE,OK,74801,35.38073400000001,-97.058863,"777 GRAND CASINO BOULEVARD  SHAWNEE, OK 74801",Original,1332.0,1.0,yes,Correct,Correct,Correct,Correct,Active,SMOKE SHOP / FUEL,"777 GRAND CASINO BOULEVARD SHAWNEE, OK 74801",35.380734000000004,-97.058863,POINT (-97.058863 35.38073400000001),No,37.07479452,,,Creek/Seminole,Creek/Seminole joint-use OTSA,From Original List,,,,,,No changes,No changes,No changes,No changes,,POTTAWATOMIE,,,,,,,
1333,1333,OK746028,COMANCHE NATION SMOKE SHOP - LAWTON,I-44 & GORE BLVD.,,LAWTON,OK,73501,34.6088,-98.44621,"I-44 & GORE BLVD.  LAWTON, OK 73501",Original,1333.0,,,Correct,"402 SE Interstate Dr, Lawton, OK 73501, USA",34.6037021,-98.375315,Active,COMANCHE NATION SMOKE SHOP - LAWTON,"402 SE Interstate Dr, Lawton, OK 73501, USA",34.6037021,-98.375315,POINT (-98.375315 34.6037021),No,26.85355457,,,Kiowa-Comanche-Apache-Ft Sill Apache/Caddo-Wichita-Delaware,Kiowa-Comanche-Apache-Ft Sill Apache/Caddo-Wichita-Delaware joint-use OTSA,From Original List,,,,,,402 SE INTERSTATE DR,LAWTON,OK,73501,,COMANCHE,,,,,,,
1334,1334,OK746029,COMANCHE NATION SMOKE SHOP - WALTERS,OK-53,,WALTERS,OK,73572,34.362120000000004,-98.30784,"OK-53  WALTERS, OK 73572",Original,1334.0,,,Correct,Correct,Correct,Correct,Active,COMANCHE NATION SMOKE SHOP - WALTERS,"OK-53 WALTERS, OK 73572",34.362120000000004,-98.30784,POINT (-98.30784 34.36212),No,42.62159814,,,Kiowa-Comanche-Apache-Ft Sill Apache/Caddo-Wichita-Delaware,Kiowa-Comanche-Apache-Ft Sill Apache/Caddo-Wichita-Delaware joint-use OTSA,From Original List,,,,,,No changes,No changes,No changes,No changes,,COTTON,,,,,,,
1335,1335,OK746030,COMANCHE NATION TRAVEL PLAZA,RT. 1  BOX 3315,,DEVOL,OK,73531,34.11557,-98.49744,"RT. 1  BOX 3315  DEVOL, OK 73531",Original,1335.0,,,Correct,Correct,Correct,Correct,Active,COMANCHE NATION TRAVEL PLAZA,"RT. 1  BOX 3315 DEVOL, OK 73531",34.11557,-98.49744,POINT (-98.49744 34.11557),No,58.724096499999995,,,Kiowa-Comanche-Apache-Ft Sill Apache/Caddo-Wichita-Delaware,Kiowa-Comanche-Apache-Ft Sill Apache/Caddo-Wichita-Delaware joint-use OTSA,From Original List,,,,,,No changes,No changes,No changes,No changes,,COTTON,,,,,,,
1336,1336,OK746031,COMANCHE SPUR QUIK STOP,9047 U.S. HWY. 62,,ELGIN,OK,73538,34.74173,-98.39271,"9047 U.S. HWY. 62  ELGIN, OK 73538",Original,1336.0,,,Correct,Correct,Correct,Correct,Active,COMANCHE SPUR QUIK STOP,"9047 U.S. HWY. 62 ELGIN, OK 73538",34.74173,-98.39271,POINT (-98.39270999999999 34.74173),No,17.83631019,,,Kiowa-Comanche-Apache-Ft Sill Apache/Caddo-Wichita-Delaware,Kiowa-Comanche-Apache-Ft Sill Apache/Caddo-Wichita-Delaware joint-use OTSA,From Original List,,,,,,No changes,No changes,No changes,No changes,,COMANCHE,,,,,,,
1337,1337,OK746192,CUSHING SMOKE SHOP,5405 E. MAIN ST.,,CUSHING,OK,74023,35.985675,-96.683209,"5405 E. MAIN ST.  CUSHING, OK 74023",Original,1337.0,,,Correct,Correct,Correct,Correct,Active,CUSHING SMOKE SHOP,"5405 E. MAIN ST. CUSHING, OK 74023",35.985675,-96.68320899999999,POINT (-96.68320899999999 35.985675),No,22.2341947,,,Osage,Osage Reservation,From Original List,,,,,,No changes,No changes,No changes,No changes,,PAYNE,1900560318,"CUSHING SMOKE SHOP, INC.",ROBERT JEFFREY WHITE,,PAWNEE,OK,
1338,1338,OK746193,INDIAN SMOKE SHOP,523 NORTH JIM THORPE BOULEVARD,,PRAGUE,OK,74864,35.482332,-96.685955,"523 NORTH JIM THORPE BOULEVARD  PRAGUE, OK 74864",Original,1338.0,,,Correct,Correct,Correct,Correct,Active,INDIAN SMOKE SHOP,"523 NORTH JIM THORPE BOULEVARD PRAGUE, OK 74864",35.482332,-96.685955,POINT (-96.68595500000001 35.482332),No,13.10233014,,,Creek/Seminole,Creek/Seminole joint-use OTSA,From Original List,,,,,,No changes,No changes,No changes,No changes,,LINCOLN,,,,,,,
1339,1339,OK746194,TWO FEATHERS SMOKE SHOP,4501 E. 90 RD.,,CHANDLER,OK,74834,35.71023,-96.93757,"4501 E. 90 RD.  CHANDLER, OK 74834",Original,1339.0,,,Correct,"4501 90th Rd, Chandler, OK 74834, USA",35.7102313,-96.9375697,Active,TWO FEATHERS SMOKE SHOP,"4501 90th Rd, Chandler, OK 74834, USA",35.7102313,-96.9375697,POINT (-96.9375697 35.7102313),No,33.97146547,,,Creek/Seminole,Creek/Seminole joint-use OTSA,From Original List,,,,,,4501 90TH RD,CHANDLER,OK,74834,,LINCOLN,,,,,,,
1340,1340,OK746266,SENECA CAYUGA TRIBAL SMOKE SHOP,11350 U.S. HWY. 59,,MIAMI,OK,74354,36.85354,-94.90333,"11350 U.S. HWY. 59  MIAMI, OK 74354",Original,1340.0,1.0,yes,SENECA-CAYUGA TRIBAL SMOKE SHP,"2309 S Eight Tribe Trail, Miami, OK 74354, USA",36.8729508,-94.8502215,Active,SENECA-CAYUGA TRIBAL SMOKE SHP,"2309 S Eight Tribe Trail, Miami, OK 74354, USA",36.8729508,-94.8502215,POINT (-94.8502215 36.8729508),No,1.8445088230000002,,,Miami/Peoria,Miami/Peoria joint-use OTSA,From Original List,,,,,,2309 S EIGHT TRIBE TRAIL,MIAMI,OK,74354,,OTTAWA,,,,,,,
1341,1341,OK746267,SENECA-CAYUGA TRIBAL CASINO SMOKE SHOP,65490 E. 240 RD.,,GROVE,OK,74344,36.667747,-94.705822,"65490 E. 240 RD.  GROVE, OK 74344",Original,1341.0,,,Correct,Correct,Correct,Correct,Active,SENECA-CAYUGA TRIBAL CASINO SMOKE SHOP,"65490 E. 240 RD. GROVE, OK 74344",36.667747,-94.705822,POINT (-94.705822 36.667747),No,17.84319122,,,Miami/Peoria,Miami/Peoria joint-use OTSA,From Original List,,,,,,No changes,No changes,No changes,No changes,,DELAWARE,,,,,,,
1342,1342,OK746361,RUSTIC TRAIL GIFT SHOP,7807 NORTH HIGHWAY 81,,DUNCAN,OK,73533,34.58456,-97.96702,"7807 NORTH HIGHWAY 81  DUNCAN, OK 73533",Original,1342.0,1.0,yes,CHISHOLM TRAIL CASINO,Correct,Correct,Correct,Active,CHISHOLM TRAIL CASINO,"7807 NORTH HIGHWAY 81 DUNCAN, OK 73533",34.584559999999996,-97.96701999999999,POINT (-97.96701999999999 34.58456),No,28.15649055,,,Kiowa-Comanche-Apache-Ft Sill Apache/Caddo-Wichita-Delaware,Kiowa-Comanche-Apache-Ft Sill Apache/Caddo-Wichita-Delaware joint-use OTSA,From Original List,,,,,,No changes,No changes,No changes,No changes,,STEPHENS,,,,,,,
1343,1343,OK746362,ADA GAMING CENTER,1500 N COUNTRY CLUB RD,,ADA,OK,74820,34.79006500000001,-96.652361,"1500 N COUNTRY CLUB RD  ADA, OK 74820",Original,1343.0,,,Correct,Correct,Correct,Correct,Active,ADA GAMING CENTER,"1500 N COUNTRY CLUB RD ADA, OK 74820",34.790065000000006,-96.652361,POINT (-96.652361 34.79006500000001),No,23.76584014,,,Creek/Seminole,Creek/Seminole joint-use OTSA,From Original List,,,,,,No changes,No changes,No changes,No changes,,PONTOTOC,,,,,,,
1344,1344,OK746363,ARDMORE I TOBACCO SHOP,1004 GRAND BLVD.,,ARDMORE,OK,73401,34.179416,-97.139994,"1004 GRAND BLVD.  ARDMORE, OK 73401",Original,1344.0,,,Correct,"1004 Grand Ave, Ardmore, OK 73401, USA",34.1791746,-97.1400139,Active,ARDMORE I TOBACCO SHOP,"1004 Grand Ave, Ardmore, OK 73401, USA",34.1791746,-97.14001390000001,POINT (-97.14001390000001 34.1791746),No,74.4616927,,,Creek/Seminole,Creek/Seminole joint-use OTSA,From Original List,,,,,,1004 GRAND AVE,ARDMORE,OK,73401,,CARTER,,,,,,,
1345,1345,OK746364,ARDMORE II TOBACCO SHOP,1400 SAM NOBLE PKWY.,,ARDMORE,OK,73401,34.18486,-97.109292,"1400 SAM NOBLE PKWY.  ARDMORE, OK 73401",Original,1345.0,1.0,yes,CHICKASAW TOBACCO,Correct,Correct,Correct,Active,CHICKASAW TOBACCO,"1400 SAM NOBLE PKWY. ARDMORE, OK 73401",34.18486,-97.10929200000001,POINT (-97.10929200000001 34.18486),No,73.02699965,,,Creek/Seminole,Creek/Seminole joint-use OTSA,From Original List,,,,,,No changes,No changes,No changes,No changes,,CARTER,,,,,,,
1346,1346,OK746365,ARTESIAN GIFT SHOP,23 WEST VINITA,,SULFUR,OK,73086,34.507837,-96.967533,"23 WEST VINITA  SULFUR, OK 73086",Original,1346.0,1.0,yes,Correct,Correct,Correct,Correct,Active,ARTESIAN GIFT SHOP,"23 WEST VINITA SULFUR, OK 73086",34.507837,-96.96753299999999,POINT (-96.96753299999999 34.507837),No,50.4863589,,,Creek/Seminole,Creek/Seminole joint-use OTSA,From Original List,,,,,,No changes,No changes,No changes,No changes,,MURRAY,,,,,,,
1347,1347,OK746366,BORDER CASINO,22953 BROWN SPRINGS RD,,THACKERVILLE,OK,73459,33.735059,-97.143543,"22953 BROWN SPRINGS RD  THACKERVILLE, OK 73459",Original,1347.0,,,Correct,Correct,Correct,Correct,Active,BORDER CASINO,"22953 BROWN SPRINGS RD THACKERVILLE, OK 73459",33.735059,-97.14354300000001,POINT (-97.14354300000001 33.735059),No,99.78040431,,,Creek/Seminole,Creek/Seminole joint-use OTSA,From Original List,,,,,,No changes,No changes,No changes,No changes,,LOVE,,,,,,,
1348,1348,OK746367,CHICKASAW OUTPOST,132 W. MAIN,,ADA,OK,74820,34.774555,-96.679399,"132 W. MAIN  ADA, OK 74820",Original,1348.0,,,CHICKASAW NATION OUTPOST,Correct,Correct,Correct,Active,CHICKASAW NATION OUTPOST,"132 W. MAIN ADA, OK 74820",34.774555,-96.679399,POINT (-96.679399 34.774555),No,25.48434387,,,Creek/Seminole,Creek/Seminole joint-use OTSA,From Original List,,,,,,No changes,No changes,No changes,No changes,,PONTOTOC,,,,,,,
1349,1349,OK746368,CHICKASAW TRAVEL STOP  - KINGSTON,1795 HWY 70 EAST,,KINGSTON,OK,73439,33.998303,-96.681402,"1795 HWY 70 EAST  KINGSTON, OK 73439",Original,1349.0,,,Correct,"1795 US-70, Kingston, OK 73439, USA",33.9990368,-96.6750355,Active,CHICKASAW TRAVEL STOP  - KINGSTON,"1795 US-70, Kingston, OK 73439, USA",33.9990368,-96.67503549999999,POINT (-96.67503549999999 33.99903680000001),No,73.94519401,,,Creek/Seminole,Creek/Seminole joint-use OTSA,From Original List,,,,,,1795 US-70,KINGSTON,OK,73439,,MARSHALL,,,,,,,
1350,1350,OK746369,CHICKASAW TRAVEL STOP,I-35 EXIT 79 & HWY 145,,PAOLI,OK,73074,34.82674,-97.25919,"I-35 EXIT 79 & HWY 145  PAOLI, OK 73074",Original,1350.0,,,Correct,Correct,Correct,Correct,Active,CHICKASAW TRAVEL STOP,"I-35 EXIT 79 & HWY 145 PAOLI, OK 73074",34.82674,-97.25919,POINT (-97.25919 34.82674),No,49.91435577,,,Kiowa-Comanche-Apache-Ft Sill Apache/Caddo-Wichita-Delaware,Kiowa-Comanche-Apache-Ft Sill Apache/Caddo-Wichita-Delaware joint-use OTSA,From Original List,,,,,,No changes,No changes,No changes,No changes,,GARVIN,,,,,,,
1351,1351,OK746370,CHICKASAW TRAVEL STOP  - THACKERVILLE,22983 BROWN SPRINGS RD.,,THACKERVILLE,OK,73439,33.736174,-97.143537,"22983 BROWN SPRINGS RD.  THACKERVILLE, OK 73439",Original,1351.0,,,Correct,"22983 Brown Springs Rd, Thackerville, OK 73459, USA",33.7361227,-97.1440953,Active,CHICKASAW TRAVEL STOP  - THACKERVILLE,"22983 Brown Springs Rd, Thackerville, OK 73459, USA",33.7361227,-97.1440953,POINT (-97.1440953 33.7361227),No,99.73303689,,,Creek/Seminole,Creek/Seminole joint-use OTSA,From Original List,,,,,,22983 BROWN SPRINGS RD,THACKERVILLE,OK,73459,,LOVE,,,,,,,
1352,1352,OK746371,CHICKASAW TRAVEL STOP  - WILSON,288 MULBERRY LN.,,WILSON,OK,73463,34.172548,-97.413768,"288 MULBERRY LN.  WILSON, OK 73463",Original,1352.0,,,Correct,Correct,Correct,Correct,Active,CHICKASAW TRAVEL STOP  - WILSON,"288 MULBERRY LN. WILSON, OK 73463",34.172548,-97.413768,POINT (-97.413768 34.172548),No,67.00606911,,,Kiowa-Comanche-Apache-Ft Sill Apache/Caddo-Wichita-Delaware,Kiowa-Comanche-Apache-Ft Sill Apache/Caddo-Wichita-Delaware joint-use OTSA,From Original List,,,,,,No changes,No changes,No changes,No changes,,CARTER,,,,,,,
1353,1353,OK746372,CHICKASAW TRAVEL STOP - ADA  EAST,1500 NORTH COUNTRY CLUB RD.,,ADA,OK,74820,34.79006500000001,-96.652361,"1500 NORTH COUNTRY CLUB RD.  ADA, OK 74820",Original,1353.0,1.0,yes,Correct,Correct,Correct,Correct,Active,CHICKASAW TRAVEL STOP - ADA  EAST,"1500 NORTH COUNTRY CLUB RD. ADA, OK 74820",34.790065000000006,-96.652361,POINT (-96.652361 34.79006500000001),No,23.76584014,,,Creek/Seminole,Creek/Seminole joint-use OTSA,From Original List,,,,,,No changes,No changes,No changes,No changes,,PONTOTOC,,,,,,,
1354,1354,OK746373,CHICKASAW TRAVEL STOP - ADA  WEST,201 LATTA ROAD,,ADA,OK,74820,34.773108,-96.697575,"201 LATTA ROAD  ADA, OK 74820",Original,1354.0,,,Correct,Correct,Correct,Correct,Active,CHICKASAW TRAVEL STOP - ADA  WEST,"201 LATTA ROAD ADA, OK 74820",34.773108,-96.697575,POINT (-96.697575 34.773108),No,26.1610035,,,Creek/Seminole,Creek/Seminole joint-use OTSA,From Original List,,,,,,No changes,No changes,No changes,No changes,,PONTOTOC,,,,,,,
1355,1355,OK746374,CHICKASAW TRAVEL STOP - DAVIS EAST,12218 HWY 7W,,DAVIS,OK,73030,34.50642,-97.0874,"12218 HWY 7W  DAVIS, OK 73030",Original,1355.0,,,Correct,Correct,Correct,Correct,Active,CHICKASAW TRAVEL STOP - DAVIS EAST,"12218 HWY 7W DAVIS, OK 73030",34.50642,-97.0874,POINT (-97.0874 34.50642),No,55.72808579,,,Creek/Seminole,Creek/Seminole joint-use OTSA,From Original List,,,,,,No changes,No changes,No changes,No changes,,MURRAY,,,,,,,
1356,1356,OK746375,CHISOLM TRAIL CASINO,7807 N HWY 81,,DUNCAN,OK,73533,34.58456,-97.96702,"7807 N HWY 81  DUNCAN, OK 73533",Original,1356.0,1.0,yes,Correct,Correct,Correct,Correct,Active,CHISOLM TRAIL CASINO,"7807 N HWY 81 DUNCAN, OK 73533",34.584559999999996,-97.96701999999999,POINT (-97.96701999999999 34.58456),No,28.15649055,,,Kiowa-Comanche-Apache-Ft Sill Apache/Caddo-Wichita-Delaware,Kiowa-Comanche-Apache-Ft Sill Apache/Caddo-Wichita-Delaware joint-use OTSA,From Original List,,,,,,No changes,No changes,No changes,No changes,,STEPHENS,,,,,,,
1357,1357,OK746376,DAVIS TRADING POST GAMING,12218 HWY 7 W,,DAVIS,OK,73030,34.50642,-97.0874,"12218 HWY 7 W  DAVIS, OK 73030",Original,1357.0,,,Correct,"12218 OK-7, Davis, OK 73030, USA",34.5064334,-97.0874388,Active,DAVIS TRADING POST GAMING,"12218 OK-7, Davis, OK 73030, USA",34.5064334,-97.08743879999999,POINT (-97.08743880000002 34.5064334),No,55.72923411,,,Creek/Seminole,Creek/Seminole joint-use OTSA,From Original List,,,,,,12218 -7,DAVIS,OK,73030,,MURRAY,,,,,,,
1358,1358,OK746377,GOLD MOUNTAIN CASINO,1410 SAM NOBLE PKWY,,ARDMORE,OK,73401,34.185097,-97.108742,"1410 SAM NOBLE PKWY  ARDMORE, OK 73401",Original,1358.0,,,Correct,Correct,Correct,Correct,Active,GOLD MOUNTAIN CASINO,"1410 SAM NOBLE PKWY ARDMORE, OK 73401",34.185097,-97.108742,POINT (-97.10874200000001 34.185097),No,72.99422039,,,Creek/Seminole,Creek/Seminole joint-use OTSA,From Original List,,,,,,No changes,No changes,No changes,No changes,,CARTER,,,,,,,
1359,1359,OK746378,GOLDSBY GAMING CENTER,1038 W SYCAMORE RD,,NORMAN,OK,73072,35.175019,-97.490408,"1038 W SYCAMORE RD  NORMAN, OK 73072",Original,1359.0,,,Correct,Correct,Correct,Correct,Active,GOLDSBY GAMING CENTER,"1038 W SYCAMORE RD NORMAN, OK 73072",35.175019,-97.490408,POINT (-97.490408 35.175019),No,33.75584216,,,Kiowa-Comanche-Apache-Ft Sill Apache/Caddo-Wichita-Delaware,Kiowa-Comanche-Apache-Ft Sill Apache/Caddo-Wichita-Delaware joint-use OTSA,From Original List,,,,,,No changes,No changes,No changes,No changes,,MCCLAIN,,,,,,,
1360,1360,OK746379,MADILL GAMING CENTER AND TOBACCO,902 1ST ST,,MADILL,OK,73446,34.100212,-96.775858,"902 1ST ST  MADILL, OK 73446",Original,1360.0,,,Correct,Correct,Correct,Correct,Active,MADILL GAMING CENTER AND TOBACCO,"902 1ST ST MADILL, OK 73446",34.100212,-96.775858,POINT (-96.775858 34.100212),No,68.91621403,,,Creek/Seminole,Creek/Seminole joint-use OTSA,From Original List,,,,,,No changes,No changes,No changes,No changes,,MARSHALL,,,,,,,
1361,1361,OK746380,NEWCASTLE CASINO,2457 HWY. 62 SERVICE RD,,NEWCASTLE,OK,73065,35.278225,-97.599793,"2457 HWY. 62 SERVICE RD  NEWCASTLE, OK 73065",Original,1361.0,,,Correct,Correct,Correct,Correct,Active,NEWCASTLE CASINO,"2457 HWY. 62 SERVICE RD NEWCASTLE, OK 73065",35.278225,-97.599793,POINT (-97.59979300000001 35.278225),No,28.96174869,,,Kiowa-Comanche-Apache-Ft Sill Apache/Caddo-Wichita-Delaware,Kiowa-Comanche-Apache-Ft Sill Apache/Caddo-Wichita-Delaware joint-use OTSA,From Original List,,,,,,No changes,No changes,No changes,No changes,,MCCLAIN,,,,,,,
1362,1362,OK746381,SALTCREEK CASINO/REFLECTIONS GIFT SHOP,1600 HIGHWAY 81,,POCASSET,OK,73079,35.1735,-97.95265,"1600 HIGHWAY 81  POCASSET, OK 73079",Original,1362.0,,,Correct,Correct,Correct,Correct,Active,SALTCREEK CASINO/REFLECTIONS GIFT SHOP,"1600 HIGHWAY 81 POCASSET, OK 73079",35.1735,-97.95265,POINT (-97.95265000000001 35.1735),No,5.663666615,,,Kiowa-Comanche-Apache-Ft Sill Apache/Caddo-Wichita-Delaware,Kiowa-Comanche-Apache-Ft Sill Apache/Caddo-Wichita-Delaware joint-use OTSA,From Original List,,,,,,No changes,No changes,No changes,No changes,,GRADY,,,,,,,
1363,1363,OK746382,REMINGTON PARK,1 REMINGTON PLACE,,OK CITY,OK,73111,35.52777000000001,-97.472357,"1 REMINGTON PLACE  OK CITY, OK 73111",Original,1363.0,,,Correct,Correct,Correct,Correct,Active,REMINGTON PARK,"1 REMINGTON PLACE OK CITY, OK 73111",35.527770000000004,-97.47235699999999,POINT (-97.47235699999999 35.52777000000001),No,44.64694316,,,Kiowa-Comanche-Apache-Ft Sill Apache/Caddo-Wichita-Delaware,Kiowa-Comanche-Apache-Ft Sill Apache/Caddo-Wichita-Delaware joint-use OTSA,From Original List,,,,,,No changes,No changes,No changes,No changes,,OKLAHOMA,3512242258,REMINGTON PARK,GLOBAL GAMING SOLUTIONS LLC,,ADA,OK,
1364,1364,OK746383,RENAISSANCE GIFT SHOP,2457 HWY. 62 SERVICE RD.,,NEWCASTLE,OK,73565,35.278225,-97.599793,"2457 HWY. 62 SERVICE RD.  NEWCASTLE, OK 73565",Original,1364.0,1.0,yes,Correct,Correct,Correct,Correct,Active,RENAISSANCE GIFT SHOP,"2457 HWY. 62 SERVICE RD. NEWCASTLE, OK 73565",35.278225,-97.599793,POINT (-97.59979300000001 35.278225),No,28.96174869,,,Kiowa-Comanche-Apache-Ft Sill Apache/Caddo-Wichita-Delaware,Kiowa-Comanche-Apache-Ft Sill Apache/Caddo-Wichita-Delaware joint-use OTSA,From Original List,,,,,,No changes,No changes,No changes,No changes,,MCCLAIN,,,,,,,
1365,1365,OK746384,RIVERWIND GIFT SHOP,1544 W. STATE HWY. 9,,NORMAN,OK,73072,35.182713,-97.500354,"1544 W. STATE HWY. 9  NORMAN, OK 73072",Original,1365.0,,,RIVERWIND CASINO GIFT SHOP,"1544 OK-9, Norman, OK 73072, USA",35.1811021,-97.5005294,Active,RIVERWIND CASINO GIFT SHOP,"1544 OK-9, Norman, OK 73072, USA",35.181102100000004,-97.5005294,POINT (-97.5005294 35.1811021),No,33.17657935,,,Kiowa-Comanche-Apache-Ft Sill Apache/Caddo-Wichita-Delaware,Kiowa-Comanche-Apache-Ft Sill Apache/Caddo-Wichita-Delaware joint-use OTSA,From Original List,,,,,,1544 -9,NORMAN,OK,73072,,MCCLAIN,,,,,,,
1366,1366,OK746385,SALTCREEK CASINO,1600 HWY 81,,POCASSET,OK,73039,35.1735,-97.95265,"1600 HWY 81  POCASSET, OK 73039",Original,1366.0,,,Correct,"1600 US-81, Pocasset, OK 73079, USA",35.1754907,-97.9652106,Active,SALTCREEK CASINO,"1600 US-81, Pocasset, OK 73079, USA",35.1754907,-97.96521059999999,POINT (-97.96521059999999 35.1754907),No,5.138653813,,,Kiowa-Comanche-Apache-Ft Sill Apache/Caddo-Wichita-Delaware,Kiowa-Comanche-Apache-Ft Sill Apache/Caddo-Wichita-Delaware joint-use OTSA,From Original List,,,,,,1600 US-81,POCASSET,OK,73079,,GRADY,,,,,,,
1367,1367,OK746386,TEXOMA CASINO,1795 HWY. 70 E.,,KINGSTON,OK,73439,33.998303,-96.681402,"1795 HWY. 70 E.  KINGSTON, OK 73439",Original,1367.0,,,Correct,"1795 US-70, Kingston, OK 73439, USA",33.999137,-96.675261,Active,TEXOMA CASINO,"1795 US-70, Kingston, OK 73439, USA",33.999137,-96.67526099999999,POINT (-96.67526099999999 33.999137),No,73.94114006,,,Creek/Seminole,Creek/Seminole joint-use OTSA,From Original List,,,,,,1795 US-70,KINGSTON,OK,73439,,MARSHALL,3512432074,"TEXOMA INSURANCE GROUP, LLC",WESTON CHAPMAN,,MADILL,OK,
1368,1368,OK746387,TISHOMINGO TOBACCO AND GAMING,1200 W MAIN,,TISHOMINGO,OK,73460,34.240835,-96.690422,"1200 W MAIN  TISHOMINGO, OK 73460",Original,1368.0,1.0,yes,CHICKASAW TOBACCO SHOP,Correct,Correct,Correct,Active,CHICKASAW TOBACCO SHOP,"1200 W MAIN TISHOMINGO, OK 73460",34.240835,-96.690422,POINT (-96.690422 34.240835),No,58.63393788,,,Creek/Seminole,Creek/Seminole joint-use OTSA,From Original List,,,,,,No changes,No changes,No changes,No changes,,JOHNSTON,,,,,,,
1369,1369,OK746388,TREASURE VALLEY CASINO,12252 RUPPE RD,,DAVIS,OK,73030,34.50907,-97.17237,"12252 RUPPE RD  DAVIS, OK 73030",Original,1369.0,0.0,,Correct,Correct,Correct,Correct,Active,TREASURE VALLEY CASINO,"12252 RUPPE RD DAVIS, OK 73030",34.50907,-97.17237,POINT (-97.17237 34.50907),No,59.62868387,,,Creek/Seminole,Creek/Seminole joint-use OTSA,From Original List,,,,,,No changes,No changes,No changes,No changes,,GARVIN,,,,,,,
1370,1370,OK746389,WASHITA CASINO,30639 HWY. 145,,PAOLI,OK,73074,34.826840000000004,-97.30699,"30639 HWY. 145  PAOLI, OK 73074",Original,1370.0,,,Correct,Correct,Correct,Correct,Active,WASHITA CASINO,"30639 HWY. 145 PAOLI, OK 73074",34.826840000000004,-97.30699,POINT (-97.30699 34.82684),No,46.891985600000005,,,Kiowa-Comanche-Apache-Ft Sill Apache/Caddo-Wichita-Delaware,Kiowa-Comanche-Apache-Ft Sill Apache/Caddo-Wichita-Delaware joint-use OTSA,From Original List,,,,,,No changes,No changes,No changes,No changes,,GARVIN,2100698754,WASHITA COUNTY FIRE ASSOCIATION,TOMMY MERRILL,,CORDELL,OK,
1371,1371,OK746390,WINSTAR WORLD CASINO AND RESORT,777 CASINO AVE,,THACKERVILLE,OK,73459,33.761923,-97.131354,"777 CASINO AVE  THACKERVILLE, OK 73459",Original,1371.0,,,Correct,Correct,Correct,Correct,Active,WINSTAR WORLD CASINO AND RESORT,"777 CASINO AVE THACKERVILLE, OK 73459",33.761922999999996,-97.131354,POINT (-97.131354 33.761923),No,97.85359431,,,Creek/Seminole,Creek/Seminole joint-use OTSA,From Original List,,,,,,No changes,No changes,No changes,No changes,,LOVE,,,,,,,
1372,1372,OK746391,CHOCTAW NATION TRAVEL MART ATOKA,1302 SOUTH MISSIPPI AVE.,,ATOKA,OK,74525,34.37397,-96.13538,"1302 SOUTH MISSIPPI AVE.  ATOKA, OK 74525",Original,1372.0,1.0,yes,CONOCO CHOCTAW TRAVEL PLAZA,"1302 S Mississippi Ave, Atoka, OK 74525, USA",34.3731481,-96.1350128,Active,CONOCO CHOCTAW TRAVEL PLAZA,"1302 S Mississippi Ave, Atoka, OK 74525, USA",34.3731481,-96.1350128,POINT (-96.1350128 34.3731481),No,52.47771002,,,Creek/Seminole,Creek/Seminole joint-use OTSA,From Original List,,,,,,1302 S MISSISSIPPI AVE,ATOKA,OK,74525,,ATOKA,,,,,,,
1373,1373,OK746392,CHOCTAW NATION TRAVEL PLAZA BROKEN BOW,1800 SOUTH PARK DRIVE,,BROKEN BOW,OK,74728,34.004952,-94.739603,"1800 SOUTH PARK DRIVE  BROKEN BOW, OK 74728",Original,1373.0,,,Correct,Correct,Correct,Correct,Active,CHOCTAW NATION TRAVEL PLAZA BROKEN BOW,"1800 SOUTH PARK DRIVE BROKEN BOW, OK 74728",34.004952,-94.739603,POINT (-94.739603 34.004952),No,132.7548132,,,Creek/Seminole,Creek/Seminole joint-use OTSA,From Original List,,,,,,No changes,No changes,No changes,No changes,,MCCURTAIN,,,,,,,
1374,1374,OK746393,CHOCTAW NATION TRAVEL PLAZA DURANT EAST,4015 CHOCTAW ROAD,,DURANT,OK,74569,33.954164,-96.415401,"4015 CHOCTAW ROAD  DURANT, OK 74569",Original,1374.0,,,Correct,"4015 Choctaw Rd, Durant, OK 74701, USA",33.9536553,-96.4153065,Active,CHOCTAW NATION TRAVEL PLAZA DURANT EAST,"4015 Choctaw Rd, Durant, OK 74701, USA",33.953655299999994,-96.4153065,POINT (-96.4153065 33.95365529999999),No,75.93324571,,,Creek/Seminole,Creek/Seminole joint-use OTSA,From Original List,,,,,,4015 CHOCTAW RD,DURANT,OK,74701,,BRYAN,,,,,,,
1375,1375,OK746394,CHOCTAW NATION TRAVEL PLAZA GARVIN,10545 STATE HIGHWAY 37,,GARVIN,OK,74736,33.871379,-95.031116,"10545 STATE HIGHWAY 37  GARVIN, OK 74736",Original,1375.0,,,Correct,Correct,Correct,Correct,Active,CHOCTAW NATION TRAVEL PLAZA GARVIN,"10545 STATE HIGHWAY 37 GARVIN, OK 74736",33.871379,-95.031116,POINT (-95.031116 33.871379),No,122.86166019999999,,,Creek/Seminole,Creek/Seminole joint-use OTSA,From Original List,,,,,,No changes,No changes,No changes,No changes,,MCCURTAIN,,,,,,,
1376,1376,OK746395,CHOCTAW NATION TRAVEL PLAZA GRANT,HWY 271,,GRANTS,OK,74738,33.9431,-95.52093,"HWY 271  GRANTS, OK 74738",Original,1376.0,,,Correct,Correct,Correct,Correct,Active,CHOCTAW NATION TRAVEL PLAZA GRANT,"HWY 271 GRANTS, OK 74738",33.9431,-95.52093,POINT (-95.52093000000001 33.9431),No,97.38380852,,,Creek/Seminole,Creek/Seminole joint-use OTSA,From Original List,,,,,,No changes,No changes,No changes,No changes,,CHOCTAW,,,,,,,
1377,1377,OK746415,IOWA TRIBE SMOKE SHOP,821 WEST FREEMAN AVENUE,,PERKINS,OK,74059,35.978237,-97.041539,"821 WEST FREEMAN AVENUE  PERKINS, OK 74059",Original,1377.0,,,Correct,"335588 E 750 Rd, Perkins, OK 74059, USA",35.9776752,-97.0441486,Active,IOWA TRIBE SMOKE SHOP,"335588 E 750 Rd, Perkins, OK 74059, USA",35.9776752,-97.04414859999999,POINT (-97.0441486 35.9776752),No,31.91305616,,,Osage,Osage Reservation,From Original List,,,,,,335588 E 750 RD,PERKINS,OK,74059,,PAYNE,,,,,,,
1378,1378,OK746416,IOWAY CASINO,338445 EAST HIGHWAY 66,,CHANDLER,OK,74834,35.6934,-96.97004,"338445 EAST HIGHWAY 66  CHANDLER, OK 74834",Original,1378.0,,,Correct,Correct,Correct,Correct,Active,IOWAY CASINO,"338445 EAST HIGHWAY 66 CHANDLER, OK 74834",35.6934,-96.97004,POINT (-96.97004 35.6934),No,35.30934058,,,Creek/Seminole,Creek/Seminole joint-use OTSA,From Original List,,,,,,No changes,No changes,No changes,No changes,,LINCOLN,,,,,,,
1379,1379,OK746417,IOWAY TRAVEL PLAZA/ TRAVEL PLAZA & CASINO,750841 SOUTH HIGHWAY 177,,TRYON,OK,74875,35.920634,-97.016262,"750841 SOUTH HIGHWAY 177  TRYON, OK 74875",Original,1379.0,,,Correct,Correct,Correct,Correct,Active,IOWAY TRAVEL PLAZA/ TRAVEL PLAZA & CASINO,"750841 SOUTH HIGHWAY 177 TRYON, OK 74875",35.920634,-97.016262,POINT (-97.016262 35.920634),No,35.29246512,,,Osage,Osage Reservation,From Original List,,,,,,No changes,No changes,No changes,No changes,,LINCOLN,,,,,,,
1380,1380,OK746435,KAW SMOKE SHOP I,5640 N. LACANN DR.,,NEWKIRK,OK,74647,36.876911,-97.031109,"5640 N. LACANN DR.  NEWKIRK, OK 74647",Original,1380.0,,,Correct,"5650 N La Cann Rd #2, Newkirk, OK 74647, USA",36.878398,-97.0306171,Active,KAW SMOKE SHOP I,"5650 N La Cann Rd #2, Newkirk, OK 74647, USA",36.878398,-97.0306171,POINT (-97.0306171 36.87839799999999),No,5.050675577,,,Kaw/Ponca,Kaw/Ponca joint-use OTSA,From Original List,,,,,,5650 N LA CANN RD # 2,NEWKIRK,OK,74647,,KAY,,,,,,,
1381,1381,OK746436,TOBACCO ROW  INC.,1535 E. HUBBARD RD.,,PONCA CITY,OK,74604,36.753039,-97.0644,"1535 E. HUBBARD RD.  PONCA CITY, OK 74604",Original,1381.0,,,Correct,Correct,Correct,Correct,Active,TOBACCO ROW  INC.,"1535 E. HUBBARD RD. PONCA CITY, OK 74604",36.753039,-97.0644,POINT (-97.06440000000001 36.753039),Yes,0.0,Kaw/Ponca,Kaw/Ponca joint-use OTSA,,,From Original List,,,,,,No changes,No changes,No changes,No changes,,KAY,2300666340,"TOBACCO ROW, INC.",SECRETARY OF STATE,,OKC,OK,
1382,1382,OK746442,KIA CASINO,S.H. 36 E. 1980 RD.,,DEVOL,OK,73531,34.14315,-98.52541,"S.H. 36 E. 1980 RD.  DEVOL, OK 73531",Original,1382.0,1.0,maybe,Correct,Correct,Correct,Correct,Active,KIA CASINO,"S.H. 36 E. 1980 RD. DEVOL, OK 73531",34.14315,-98.52541,POINT (-98.52540999999999 34.14315),No,56.92737705,,,Kiowa-Comanche-Apache-Ft Sill Apache/Caddo-Wichita-Delaware,Kiowa-Comanche-Apache-Ft Sill Apache/Caddo-Wichita-Delaware joint-use OTSA,From Original List,,,,,,No changes,No changes,No changes,No changes,,COTTON,,,,,,,
1383,1383,OK746443,KIA CASINO VERDEN,33165 COUNTY RD. 2740,,VERDEN,OK,73092,35.0764,-98.10943,"33165 COUNTY RD. 2740  VERDEN, OK 73092",Original,1383.0,1.0,yes,KIOWA CASINO VERDEN,"33165 County Street 2740, Verden, OK 73092, USA",35.076414,-98.1094358,Active,KIOWA CASINO VERDEN,"33165 County Street 2740, Verden, OK 73092, USA",35.076414,-98.1094358,POINT (-98.1094358 35.076414),Yes,0.0,Kiowa-Comanche-Apache-Ft Sill Apache/Caddo-Wichita-Delaware,Kiowa-Comanche-Apache-Ft Sill Apache/Caddo-Wichita-Delaware joint-use OTSA,,,From Original List,,,,,,33165 COUNTY STREET 2740,VERDEN,OK,73092,,CADDO,,,,,,,
1384,1384,OK746444,WETUMKA INDIAN SMOKE SHOP,123 HWY. 9,,WETUMKA,OK,74883,35.232037,-96.242371,"123 HWY. 9  WETUMKA, OK 74883",Original,1384.0,,,Correct,"123 OK-9, Wetumka, OK 74883, USA",35.2320279,-96.2419638,Active,WETUMKA INDIAN SMOKE SHOP,"123 OK-9, Wetumka, OK 74883, USA",35.2320279,-96.2419638,POINT (-96.24196379999999 35.2320279),No,13.02150792,,,Creek/Seminole,Creek/Seminole joint-use OTSA,From Original List,,,,,,123 -9,WETUMKA,OK,74883,,HUGHES,,,,,,,
1385,1385,OK746497,PRAIRIE MOON CASINO,202 S. EIGHT TRIBES TRL.,,MIAMI,OK,74354,36.87228,-94.84855,"202 S. EIGHT TRIBES TRL.  MIAMI, OK 74354",Original,1385.0,,,Correct,Correct,Correct,Correct,Active,PRAIRIE MOON CASINO,"202 S. EIGHT TRIBES TRL. MIAMI, OK 74354",36.872279999999996,-94.84855,POINT (-94.84855 36.87228),No,1.961335531,,,Miami/Peoria,Miami/Peoria joint-use OTSA,From Original List,,,,,,No changes,No changes,No changes,No changes,,OTTAWA,,,,,,,
1386,1386,OK746498,PRAIRIE SUN CASINO,3411 P ST. N.W.,,MIAMI,OK,74354,36.918206,-94.895675,"3411 P ST. N.W.  MIAMI, OK 74354",Original,1386.0,,,Correct,Correct,Correct,Correct,Active,PRAIRIE SUN CASINO,"3411 P ST. N.W. MIAMI, OK 74354",36.918206,-94.895675,POINT (-94.895675 36.918206),Yes,0.0,Miami/Peoria,Miami/Peoria joint-use OTSA,,,From Original List,,,,,,No changes,No changes,No changes,No changes,,OTTAWA,,,,,,,
1387,1387,OK746666,7 CLANS TRAVEL PLAZA,12901 N. HWY. 77,,NEWKIRK,OK,74647,36.986199,-97.041625,"12901 N. HWY. 77  NEWKIRK, OK 74647",Original,1387.0,,,Correct,"12901 US-77, Newkirk, OK 74647, USA",36.984497,-97.0420055,Active,7 CLANS TRAVEL PLAZA,"12901 US-77, Newkirk, OK 74647, USA",36.984497,-97.0420055,POINT (-97.0420055 36.984497),No,11.48000111,,,Kaw/Ponca,Kaw/Ponca joint-use OTSA,From Original List,,,,,,12901 US-77,NEWKIRK,OK,74647,,KAY,,,,,,,
1388,1388,OK746667,HIGH WINDS CASINO,61475 E. 100 RD.,,MIAMI,OK,74354,36.871183,-94.778744,"61475 E. 100 RD.  MIAMI, OK 74354",Original,1388.0,,,Correct,Correct,Correct,Correct,Active,HIGH WINDS CASINO,"61475 E. 100 RD. MIAMI, OK 74354",36.871183,-94.77874399999999,POINT (-94.77874399999999 36.871183),No,6.478834367,,,Miami/Peoria,Miami/Peoria joint-use OTSA,From Original List,,,,,,No changes,No changes,No changes,No changes,,OTTAWA,,,,,,,
1389,1389,OK746677,PAWNEE TRADING POST & CASINO,291 AGENCY RD.,,PAWNEE,OK,74058,36.338025,-96.793861,"291 AGENCY RD.  PAWNEE, OK 74058",Original,1389.0,,,Correct,Correct,Correct,Correct,Active,PAWNEE TRADING POST & CASINO,"291 AGENCY RD. PAWNEE, OK 74058",36.338025,-96.79386099999999,POINT (-96.79386099999999 36.338025),No,8.474684237,,,Osage,Osage Reservation,From Original List,,,,,,No changes,No changes,No changes,No changes,,PAWNEE,,,,,,,
1390,1390,OK746678,PAWNEE TRAVEL PLAZA,54251 S. 349 RD.,,PAWNEE,OK,74058,36.227361,-96.784241,"54251 S. 349 RD.  PAWNEE, OK 74058",Original,1390.0,1.0,yes,Correct,Correct,Correct,Correct,Active,PAWNEE TRAVEL PLAZA,"54251 S. 349 RD. PAWNEE, OK 74058",36.227361,-96.78424100000001,POINT (-96.78424100000001 36.227361),No,14.24600047,,,Osage,Osage Reservation,From Original List,,,,,,No changes,No changes,No changes,No changes,,PAWNEE,,,,,,,
1391,1391,OK746687,PONCA NATION SMOKE SHOP,116 WHITE EAGLE DR.,,PONCA CITY,OK,74601,36.603659,-97.082766,"116 WHITE EAGLE DR.  PONCA CITY, OK 74601",Original,1391.0,,,Correct,"20 White Eagle Dr, Ponca City, OK 74601, USA",36.6029619,-97.0825396,Active,PONCA NATION SMOKE SHOP,"20 White Eagle Dr, Ponca City, OK 74601, USA",36.602961900000004,-97.08253959999999,POINT (-97.08253959999999 36.6029619),No,1.647871649,,,Osage,Osage Reservation,From Original List,,,,,,20 WHITE EAGLE DR,PONCA CITY,OK,74601,,KAY,,,,,,,
1392,1392,OK746703,CHOCTAW NATION TRAVEL PLAZA IDABEL,1455 SE WA ST.,,IDABEL,OK,74745,33.895568,-94.809492,"1455 SE WA ST.  IDABEL, OK 74745",Original,1392.0,1.0,yes,CHOCTAW NATION INDIAN SMOKESHOP,"1455 SE Washington St, Idabel, OK 74745, USA",33.8961535,-94.7913926,Active,CHOCTAW NATION INDIAN SMOKESHOP,"1455 SE Washington St, Idabel, OK 74745, USA",33.8961535,-94.7913926,POINT (-94.79139259999999 33.8961535),No,134.03374540000002,,,Creek/Seminole,Creek/Seminole joint-use OTSA,From Original List,,,,,,1455 SE WASHINGTON ST,IDABEL,OK,74745,,MCCURTAIN,,,,,,,
1393,1393,OK746704,CHOCTAW NATION TRAVEL PLAZA POTEAU,4105 NORTH BROADWAY ST.,,POTEAU,OK,74953,35.097481,-94.632516,"4105 NORTH BROADWAY ST.  POTEAU, OK 74953",Original,1393.0,,,Correct,Correct,Correct,Correct,Active,CHOCTAW NATION TRAVEL PLAZA POTEAU,"4105 NORTH BROADWAY ST. POTEAU, OK 74953",35.097481,-94.63251600000001,POINT (-94.63251600000001 35.097481),No,113.2313364,,,Osage,Osage Reservation,From Original List,,,,,,No changes,No changes,No changes,No changes,,LE FLORE,,,,,,,
1394,1394,OK746705,CHOCTAW NATION TRAVEL PLAZA STRINGTOWN,895 NORTH HIGHWAY 69,,STRINGTOWN,OK,74569,34.452928,-96.070547,"895 NORTH HIGHWAY 69  STRINGTOWN, OK 74569",Original,1394.0,1.0,yes,CHOCTAW TRAVEL PLAZA-STRINGTOWN,"897 US-69, Atoka, OK 74525, USA",34.4896829,-96.0497104,Active,CHOCTAW TRAVEL PLAZA-STRINGTOWN,"897 US-69, Atoka, OK 74525, USA",34.4896829,-96.04971040000001,POINT (-96.0497104 34.4896829),No,48.24293255,,,Creek/Seminole,Creek/Seminole joint-use OTSA,From Original List,,,,,,897 US-69,ATOKA,OK,74525,,ATOKA,,,,,,,
1395,1395,OK746706,CHOCTAW NATIONTRAVEL PLAZA WILBURTON,902 W MAIN ST,,WILBURTON,OK,74578,34.912956,-95.322331,"902 W MAIN ST  WILBURTON, OK 74578",Original,1395.0,,,Correct,Correct,Correct,Correct,Active,CHOCTAW NATIONTRAVEL PLAZA WILBURTON,"902 W MAIN ST WILBURTON, OK 74578",34.912956,-95.322331,POINT (-95.32233100000001 34.912956),No,74.29310901,,,Creek/Seminole,Creek/Seminole joint-use OTSA,From Original List,,,,,,No changes,No changes,No changes,No changes,,LATIMER,,,,,,,
1396,1396,OK746707,CHOCTAW TRAVEL PLAZA DURANT WEST,4305 CHOCTAW RD,,CALERA,OK,74730,33.954128999999995,-96.418399,"4305 CHOCTAW RD  CALERA, OK 74730",Original,1396.0,,,Correct,Correct,Correct,Correct,Active,CHOCTAW TRAVEL PLAZA DURANT WEST,"4305 CHOCTAW RD CALERA, OK 74730",33.954128999999995,-96.418399,POINT (-96.41839899999999 33.95412899999999),No,75.89804138,,,Creek/Seminole,Creek/Seminole joint-use OTSA,From Original List,,,,,,No changes,No changes,No changes,No changes,,BRYAN,,,,,,,
1397,1397,OK746708,CHOCTAW TRAVEL PLAZA POCOLA,3402 SERVICE RD.,,POCOLA,OK,74902,35.29167,-94.435434,"3402 SERVICE RD.  POCOLA, OK 74902",Original,1397.0,,,Correct,Correct,Correct,Correct,Active,CHOCTAW TRAVEL PLAZA POCOLA,"3402 SERVICE RD. POCOLA, OK 74902",35.29167,-94.435434,POINT (-94.435434 35.29167),No,107.71212150000001,,,Miami/Peoria,Miami/Peoria joint-use OTSA,From Original List,,,,,,No changes,No changes,No changes,No changes,,LE FLORE,,,,,,,
1398,1398,OK746709,CHOCTAW NATION TRAVEL PLAZA MCALESTER,1640 SOUTH GEORGE NIGH EXPRESSWAY,,MCALESTER,OK,74501,34.886826,-95.786412,"1640 SOUTH GEORGE NIGH EXPRESSWAY  MCALESTER, OK 74501",Original,1398.0,,,Correct,Correct,Correct,Correct,Active,CHOCTAW NATION TRAVEL PLAZA MCALESTER,"1640 SOUTH GEORGE NIGH EXPRESSWAY MCALESTER, OK 74501",34.886826,-95.786412,POINT (-95.786412 34.886826),No,45.32504643,,,Creek/Seminole,Creek/Seminole joint-use OTSA,From Original List,,,,,,No changes,No changes,No changes,No changes,,PITTSBURG,,,,,,,
1399,1399,OK746710,MODOC SMOKE SHOP,515 G ST.  NW,,MIAMI,OK,74354,36.882422,-94.885354,"515 G ST.  NW  MIAMI, OK 74354",Original,1399.0,,,MODOC SMOKESHOP,Correct,Correct,Correct,Closed,MODOC SMOKESHOP,"515 G ST.  NW MIAMI, OK 74354",36.882422,-94.885354,POINT (-94.88535400000001 36.882422),Yes,0.0,Miami/Peoria,Miami/Peoria joint-use OTSA,,,From Original List,,,,,,No changes,No changes,No changes,No changes,,OTTAWA,,,,,,,
1400,1400,OK746711,SNAK-ATAK,2215 E STEVE OWENS BLVD,,MIAMI,OK,74354,36.871137,-94.853848,"2215 E STEVE OWENS BLVD  MIAMI, OK 74354",Original,1400.0,,,Correct,Correct,Correct,Correct,Active,SNAK-ATAK,"2215 E STEVE OWENS BLVD MIAMI, OK 74354",36.871137,-94.853848,POINT (-94.853848 36.871137),No,1.655210853,,,Miami/Peoria,Miami/Peoria joint-use OTSA,From Original List,,,,,,No changes,No changes,No changes,No changes,,OTTAWA,3500582921,"SNAK-ATAK, L.L.C.",R BLAKE ATKINS,,TULSA,OK,
1401,1401,OK746712,THE STABLES,530 H STREET SOUTHEAST,,MIAMI,OK,74354,36.86759,-94.86898,"530 H STREET SOUTHEAST  MIAMI, OK 74354",Original,1401.0,1.0,yes,THE STABLES CASINO,Correct,Correct,Correct,Active,THE STABLES CASINO,"530 H STREET SOUTHEAST MIAMI, OK 74354",36.86759,-94.86898000000001,POINT (-94.86898000000001 36.86759),No,0.994105832,,,Miami/Peoria,Miami/Peoria joint-use OTSA,From Original List,,,,,,No changes,No changes,No changes,No changes,,OTTAWA,,,,,,,
1402,1402,OK746713,BRISTOW INDIAN COMMUNITY CENTER,710 SOUTH MAIN ST,,BRISTOW,OK,74010,35.827274,-96.391055,"710 SOUTH MAIN ST  BRISTOW, OK 74010",Original,1402.0,,,Can't Validate,Can't Validate,Can't Validate,Can't Validate,Can't Validate,BRISTOW INDIAN COMMUNITY CENTER,"710 SOUTH MAIN ST BRISTOW, OK 74010",35.827273999999996,-96.39105500000001,POINT (-96.39105500000001 35.827274),No,23.28876389,,,Osage,Osage Reservation,From Original List,,,,,,No changes,No changes,No changes,No changes,,CREEK,,,,,,,
1403,1403,OK746714,CHECOTAH SMOKE SHOP,998 MAPLE ST.,,CHECOTAH,OK,74426,35.481779,-95.523208,"998 MAPLE ST.  CHECOTAH, OK 74426",Original,1403.0,,,CHECOTAH INDIAN SMOKE SHOP,Correct,Correct,Correct,Active,CHECOTAH INDIAN SMOKE SHOP,"998 MAPLE ST. CHECOTAH, OK 74426",35.481778999999996,-95.523208,POINT (-95.523208 35.481779),No,54.26536465,,,Osage,Osage Reservation,From Original List,,,,,,No changes,No changes,No changes,No changes,,MCINTOSH,,,,,,,
1404,1404,OK746715,DUCK CREEK CASINO/SMOKE SHOP,10079 FERGUSON ROAD,,BEGGS,OK,74421,35.813368,-96.0126,"10079 FERGUSON ROAD  BEGGS, OK 74421",Original,1404.0,1.0,no,Correct,Correct,Correct,Correct,Active,DUCK CREEK CASINO/SMOKE SHOP,"10079 FERGUSON ROAD BEGGS, OK 74421",35.813368,-96.0126,POINT (-96.01260000000001 35.813368),No,22.72798843,,,Osage,Osage Reservation,From Original List,,,,,,No changes,No changes,No changes,No changes,,OKMULGEE,,,,,,,
1405,1405,OK746716,EUFAULA SMOKE SHOP,702 WEST FOREST AVE.,,EUFAULA,OK,74432,35.28270300000001,-95.590352,"702 WEST FOREST AVE.  EUFAULA, OK 74432",Original,1405.0,,,Correct,"702 W Forrest Ave, Eufaula, OK 74432, USA",35.2824903,-95.5917191,Active,EUFAULA SMOKE SHOP,"702 W Forrest Ave, Eufaula, OK 74432, USA",35.2824903,-95.5917191,POINT (-95.59171910000001 35.2824903),No,55.49777664,,,Creek/Seminole,Creek/Seminole joint-use OTSA,From Original List,,,,,,702 W FORREST AVE,EUFAULA,OK,74432,,MCINTOSH,,,,,,,
1406,1406,OK746717,HOLDENVILLE SMOKE SHOP,224 EAST POPLAR ST.,,HOLDENVILLE,OK,74848,35.090506,-96.403542,"224 EAST POPLAR ST.  HOLDENVILLE, OK 74848",Original,1406.0,,,Correct,Correct,Correct,Correct,Active,HOLDENVILLE SMOKE SHOP,"224 EAST POPLAR ST. HOLDENVILLE, OK 74848",35.090506,-96.403542,POINT (-96.403542 35.090506),No,2.97319705,,,Creek/Seminole,Creek/Seminole joint-use OTSA,From Original List,,,,,,No changes,No changes,No changes,No changes,,HUGHES,,,,,,,
1407,1407,OK746718,KOWETA SMOKE SHOP,13751 SOUTH STATE HIGHWAY 51,,COWETA,OK,74429,35.962832,-95.654162,"13751 SOUTH STATE HIGHWAY 51  COWETA, OK 74429",Original,1407.0,,,Correct,"30901 E 141st St S, Coweta, OK 74429, USA",35.9591442,-95.6323121,Active,KOWETA SMOKE SHOP,"30901 E 141st St S, Coweta, OK 74429, USA",35.959144200000004,-95.6323121,POINT (-95.63231209999999 35.95914420000001),No,27.47000199,,,Osage,Osage Reservation,From Original List,,,,,,30901 E 141ST ST S,COWETA,OK,74429,,WAGONER,,,,,,,
1408,1408,OK746719,MUSCOGEE (CREEK) NATION TRAVEL PLAZA,3420 W PEAK BLVD,,MUSKOGEE,OK,74401,35.711608,-95.404944,"3420 W PEAK BLVD  MUSKOGEE, OK 74401",Original,1408.0,,,Correct,Correct,Correct,Correct,Active,MUSCOGEE (CREEK) NATION TRAVEL PLAZA,"3420 W PEAK BLVD MUSKOGEE, OK 74401",35.711608,-95.404944,POINT (-95.404944 35.711608),No,48.77772987,,,Osage,Osage Reservation,From Original List,,,,,,No changes,No changes,No changes,No changes,,MUSKOGEE,,,,,,,
1409,1409,OK746720,OKEMAH SMOKE SHOP,1100 S. WOODY GUTHERIE BLVD.,,OKEMAH,OK,74859,35.419545,-96.299638,"1100 S. WOODY GUTHERIE BLVD.  OKEMAH, OK 74859",Original,1409.0,,,CREEK NATION CASINO OKEMAH,"S., 1100 S Woody Guthrie St, Okemah, OK 74859, USA",35.4192908,-96.3002844,Active,CREEK NATION CASINO OKEMAH,"S., 1100 S Woody Guthrie St, Okemah, OK 74859, USA",35.4192908,-96.30028440000001,POINT (-96.3002844 35.4192908),No,9.205424449,,,Creek/Seminole,Creek/Seminole joint-use OTSA,From Original List,,,,,,S. 1100 S WOODY GUTHRIE ST,OKEMAH,OK,74859,,OKFUSKEE,,,,,,,
1410,1410,OK746721,OKMULGEE SMOKE SHOP,2850 S. WOOD DR.,,OKMULGEE,OK,74447,35.599125,-95.961902,"2850 S. WOOD DR.  OKMULGEE, OK 74447",Original,1410.0,,,OKMULGEE INDIAN SMOKE SHOP,Correct,Correct,Correct,Active,OKMULGEE INDIAN SMOKE SHOP,"2850 S. WOOD DR. OKMULGEE, OK 74447",35.599125,-95.961902,POINT (-95.96190199999999 35.599125),No,32.47089572,,,Creek/Seminole,Creek/Seminole joint-use OTSA,From Original List,,,,,,No changes,No changes,No changes,No changes,,OKMULGEE,1912616780,OKMULGEE INDIAN SMOKE SHOP INC,RONNIE BOSWELL,,MUSKOGEE,OK,
1411,1411,OK746722,RIVERSIDE INDIAN SMOKE SHOP,1614 EAST 81ST STREET,,TULSA,OK,74137,36.046298,-95.964239,"1614 EAST 81ST STREET  TULSA, OK 74137",Original,1411.0,0.0,,RIVERSIDE INDIAN SMOKESHOP,Correct,Correct,Correct,Active,RIVERSIDE INDIAN SMOKESHOP,"1614 EAST 81ST STREET TULSA, OK 74137",36.046298,-95.964239,POINT (-95.96423900000001 36.046298),No,7.88759849,,,Osage,Osage Reservation,From Original List,,,,,,No changes,No changes,No changes,No changes,,TULSA,,,,,,,
1412,1412,OK746723,TWIN HILLS CONVENIENCE PLAZA,18902 HIGHWAY 16,,OKMULGEE,OK,74447,35.74031,-95.83229,"18902 HIGHWAY 16  OKMULGEE, OK 74447",Original,1412.0,,,Correct,"18902 OK-16, Morris, OK 74445, USA",35.7402257,-95.8555392,Active,TWIN HILLS CONVENIENCE PLAZA,"18902 OK-16, Morris, OK 74445, USA",35.7402257,-95.8555392,POINT (-95.8555392 35.7402257),No,29.102119800000004,,,Osage,Osage Reservation,From Original List,,,,,,18902 -16,MORRIS,OK,74445,,OKMULGEE,,,,,,,
1413,1413,OK746724,OSAGE TRADING POST,4996 WEST ROGERS BLVD.,,SKIATOOK,OK,74070,36.368623,-96.048343,"4996 WEST ROGERS BLVD.  SKIATOOK, OK 74070",Original,1413.0,,,Correct,"5599-5943 W C Rogers Blvd, Skiatook, OK 74070, USA",36.3690569,-96.0483384,Active,OSAGE TRADING POST,"5599-5943 W C Rogers Blvd, Skiatook, OK 74070, USA",36.3690569,-96.0483384,POINT (-96.04833840000001 36.3690569),Yes,0.0,Osage,Osage Reservation,,,From Original List,,,,,,5599-5943 W C ROGERS BLVD,SKIATOOK,OK,74070,OSAGE,OSAGE,,,,,,,
1414,1414,OK746725,QUAPAW CASINO C STORE,58100 E 64 RD,,QUAPAW,OK,74363,36.92071,-94.83678,"58100 E 64 RD  QUAPAW, OK 74363",Original,1414.0,,,Correct,"58100 E 64 Rd, Miami, OK 74354, USA",36.9207059,-94.836787,Active,QUAPAW CASINO C STORE,"58100 E 64 Rd, Miami, OK 74354, USA",36.9207059,-94.836787,POINT (-94.836787 36.9207059),No,2.663240649,,,Miami/Peoria,Miami/Peoria joint-use OTSA,From Original List,,,,,,58100 E 64 RD,MIAMI,OK,74354,,OTTAWA,,,,,,,
1415,1415,OK746726,RIVERMIST CONVENIENCE STORE,14313 HIGHWAY 99,,KONAWA,OK,74849,34.96888,-96.73804,"14313 HIGHWAY 99  KONAWA, OK 74849",Original,1415.0,1.0,no,Can't Validate,Can't Validate,Can't Validate,Can't Validate,Can't Validate,RIVERMIST CONVENIENCE STORE,"14313 HIGHWAY 99 KONAWA, OK 74849",34.96888,-96.73804,POINT (-96.73804 34.96888),No,18.8095978,,,Creek/Seminole,Creek/Seminole joint-use OTSA,From Original List,,,,,,No changes,No changes,No changes,No changes,,SEMINOLE,,,,,,,
1416,1416,OK746727,WEWOKA TRADING POST,36625 HWY 270 WEWOKA,,WEWOKA,OK,74884,35.12137,-96.478747,"36625 HWY 270 WEWOKA  WEWOKA, OK 74884",Original,1416.0,,,WEWOKA TRADING POST CASINO,"36625 US-270, Wewoka, OK 74884, USA",35.1296359,-96.4917665,Active,WEWOKA TRADING POST CASINO,"36625 US-270, Wewoka, OK 74884, USA",35.1296359,-96.4917665,POINT (-96.4917665 35.12963589999999),No,0.091290446,,,Creek/Seminole,Creek/Seminole joint-use OTSA,From Original List,,,,,,36625 US-270,WEWOKA,OK,74884,,SEMINOLE,,,,,,,
1417,1417,OK746728,GOLDEN PONY CASINO,109095 OKEMAH ST.,,OKEMAH,OK,74859,35.42698,-96.19586,"109095 OKEMAH ST.  OKEMAH, OK 74859",Original,1417.0,,,Correct,Correct,Correct,Correct,Active,GOLDEN PONY CASINO,"109095 OKEMAH ST. OKEMAH, OK 74859",35.42698,-96.19586,POINT (-96.19586 35.42698),No,16.02544843,,,Creek/Seminole,Creek/Seminole joint-use OTSA,From Original List,,,,,,No changes,No changes,No changes,No changes,,OKFUSKEE,,,,,,,
1418,1418,OK746741,TONKAWA CASINO AND SMOKE SHOP WEST,16601 W. SOUTH AVE.,,TONKAWA,OK,74653,36.695321,-97.348992,"16601 W. SOUTH AVE.  TONKAWA, OK 74653",Original,1418.0,,,TONKAWA HOTEL AND CASINO,Correct,Correct,Correct,Active,TONKAWA HOTEL AND CASINO,"16601 W. SOUTH AVE. TONKAWA, OK 74653",36.695321,-97.34899200000001,POINT (-97.34899200000001 36.695321),No,6.669415887,,,Kaw/Ponca,Kaw/Ponca joint-use OTSA,From Original List,,,,,,No changes,No changes,No changes,No changes,,KAY,1900041906,TONKAWA HOTEL ASSOCIATION,,,,,
1419,1419,OK746782,SUGAR CREEK CASINO,5304 NORTH BROADWAY AVENUE,,HINTON,OK,73047,35.52816,-98.35292,"5304 NORTH BROADWAY AVENUE  HINTON, OK 73047",Original,1419.0,,,Correct,Correct,Correct,Correct,Active,SUGAR CREEK CASINO,"5304 NORTH BROADWAY AVENUE HINTON, OK 73047",35.52816,-98.35292,POINT (-98.35292 35.52816),No,27.10214527,,,Kiowa-Comanche-Apache-Ft Sill Apache/Caddo-Wichita-Delaware,Kiowa-Comanche-Apache-Ft Sill Apache/Caddo-Wichita-Delaware joint-use OTSA,From Original List,,,,,,No changes,No changes,No changes,No changes,,CADDO,,,,,,,
1420,1420,OK746783,WICHITA TRIBAL SMOKE SHOP,5304 N. BROADWAY AVE.,,HINTON,OK,73047,35.52816,-98.35292,"5304 N. BROADWAY AVE.  HINTON, OK 73047",Original,1420.0,,,Correct,Correct,Correct,Correct,Active,WICHITA TRIBAL SMOKE SHOP,"5304 N. BROADWAY AVE. HINTON, OK 73047",35.52816,-98.35292,POINT (-98.35292 35.52816),No,27.10214527,,,Kiowa-Comanche-Apache-Ft Sill Apache/Caddo-Wichita-Delaware,Kiowa-Comanche-Apache-Ft Sill Apache/Caddo-Wichita-Delaware joint-use OTSA,From Original List,,,,,,No changes,No changes,No changes,No changes,,CADDO,,,,,,,
1421,1421,OK746796,WYANDOTTE NATION CASINO,100 JACKPOT PL.,,WYANDOTTE,OK,74370,36.804,-94.730277,"100 JACKPOT PL.  WYANDOTTE, OK 74370",Original,1421.0,1.0,yes,RIVER BEND CASINO AND HOTEL,"2158, 100 Jackpot Pl, Wyandotte, OK 74370, USA",36.8029702,-94.7291271,Active,RIVER BEND CASINO AND HOTEL,"2158, 100 Jackpot Pl, Wyandotte, OK 74370, USA",36.802970200000004,-94.7291271,POINT (-94.7291271 36.8029702),No,10.9272165,,,Miami/Peoria,Miami/Peoria joint-use OTSA,From Original List,,,,,,2158 100 JACKPOT PL,WYANDOTTE,OK,74370,,OTTAWA,,,,,,,
1422,1422,OK747678,THE OFFICE,1003 ANTWINE AVENUE,,WYNONA,OK,74084,36.5415,-96.326817,"1003 ANTWINE AVENUE  WYNONA, OK 74084",Original,1422.0,,,Can't Validate,Can't Validate,Can't Validate,Can't Validate,Can't Validate,THE OFFICE,"1003 ANTWINE AVENUE WYNONA, OK 74084",36.5415,-96.326817,POINT (-96.32681700000001 36.5415),Yes,0.0,Osage,Osage Reservation,,,From Original List,,,,,,No changes,No changes,No changes,No changes,OSAGE,OSAGE,1900619889,"THE OFFICE, INC.",WINSTON H CONNOR II,,MIAMI,OK,
1423,1423,OK749767,CHOCTAW CASINO-BROKEN BOW,1790 S. PARK DR.,,BROKEN BOW,OK,74728,34.00502,-94.739605,"1790 S. PARK DR.  BROKEN BOW, OK 74728",Original,1423.0,,,Correct,Correct,Correct,Correct,Active,CHOCTAW CASINO-BROKEN BOW,"1790 S. PARK DR. BROKEN BOW, OK 74728",34.00502,-94.73960500000001,POINT (-94.73960500000001 34.00502),No,132.75227579999998,,,Creek/Seminole,Creek/Seminole joint-use OTSA,From Original List,,,,,,No changes,No changes,No changes,No changes,,MCCURTAIN,,,,,,,
1424,1424,OK749769,PIPES SMOKE SHOP,407 N. OWALLA AVE,,CLAREMORE,OK,74017,36.316051,-95.617121,"407 N. OWALLA AVE  CLAREMORE, OK 74017",Original,1424.0,,,Correct,Correct,Correct,Correct,Active,PIPES SMOKE SHOP,"407 N. OWALLA AVE CLAREMORE, OK 74017",36.316051,-95.617121,POINT (-95.617121 36.316051),No,25.1055111,,,Osage,Osage Reservation,From Original List,,,,,,No changes,No changes,No changes,No changes,,ROGERS,,,,,,,
1425,1425,OK749770,LUCKY STAR CASINO,7777 NORTH HIGHWAY 81,,CONCHO,OK,73022,35.60007299999999,-97.9633153,"7777 NORTH HIGHWAY 81  CONCHO, OK 73022",Google,1425.0,1.0,yes,Correct,"7777 US-81, El Reno, OK 73036, USA",35.6000702,-97.963318,Active,LUCKY STAR CASINO,"7777 US-81, El Reno, OK 73036, USA",35.600070200000005,-97.963318,POINT (-97.963318 35.60007020000001),No,31.47567911,,,Kiowa-Comanche-Apache-Ft Sill Apache/Caddo-Wichita-Delaware,Kiowa-Comanche-Apache-Ft Sill Apache/Caddo-Wichita-Delaware joint-use OTSA,From Original List,,,,,,7777 US-81,EL RENO,OK,73036,,CANADIAN,,,,,,,
1426,1426,OK749771,COMANCHE RED RIVER HOTEL & CASINO,HWY. 36 & HWY. 70,,DEVOL,OK,73531,34.4224019,-98.6618837,"HWY. 36 & HWY. 70  DEVOL, OK 73531",Google,1426.0,,,Correct,"Rt 1 42K, Devol, OK 73531, USA",34.1630892,-98.5239102,Active,COMANCHE RED RIVER HOTEL & CASINO,"Rt 1 42K, Devol, OK 73531, USA",34.1630892,-98.5239102,POINT (-98.5239102 34.1630892),No,55.62435154,,,Kiowa-Comanche-Apache-Ft Sill Apache/Caddo-Wichita-Delaware,Kiowa-Comanche-Apache-Ft Sill Apache/Caddo-Wichita-Delaware joint-use OTSA,From Original List,,,,,,RT 1 42K,DEVOL,OK,73531,,COTTON,2612726064,COMANCHE RED RIVER HOTEL & CASINO,SECRETARY OF STATE,,OKLAHOMA CITY,OK,
1427,1427,OK749772,CHOCTAW CASINO RESORT-DURANT,4216 S. HWY. 69,,DURANT,OK,74701,33.951071,-96.416524,"4216 S. HWY. 69  DURANT, OK 74701",Original,1427.0,1.0,yes,Correct,"4216S. Hwy69, 75, Durant, OK 74701, USA",33.9520367,-96.414352,Active,CHOCTAW CASINO RESORT-DURANT,"4216S. Hwy69, 75, Durant, OK 74701, USA",33.9520367,-96.41435200000001,POINT (-96.41435199999999 33.9520367),No,76.04037603,,,Creek/Seminole,Creek/Seminole joint-use OTSA,From Original List,,,,,,"4216S. HWY69, 75",DURANT,OK,74701,,BRYAN,,,,,,,
1428,1428,OK749773,FAIR FAX ONE STOP,200 N. MAIN ST.,,FAIRFAX,OK,74637,36.572317,-96.704254,"200 N. MAIN ST.  FAIRFAX, OK 74637",Original,1428.0,,,Can't Validate,Can't Validate,Can't Validate,Can't Validate,Can't Validate,FAIR FAX ONE STOP,"200 N. MAIN ST. FAIRFAX, OK 74637",36.572317,-96.704254,POINT (-96.70425400000001 36.572317),Yes,0.0,Osage,Osage Reservation,,,From Original List,,,,,,No changes,No changes,No changes,No changes,,OSAGE,,,,,,,
1429,1429,OK749774,CHOCTAW CASINO-GRANT,1516 HWY. 271,,GRANT,OK,74738,33.9431004,-95.5209361,"1516 HWY. 271  GRANT, OK 74738",Google,1429.0,,,Correct,Correct,Correct,Correct,Active,CHOCTAW CASINO-GRANT,"1516 HWY. 271 GRANT, OK 74738",33.9431004,-95.52093609999999,POINT (-95.52093609999999 33.9431004),No,97.38354193,,,Creek/Seminole,Creek/Seminole joint-use OTSA,From Original List,,,,,,No changes,No changes,No changes,No changes,,CHOCTAW,,,,,,,
1430,1430,OK749775,GRAND LAKE CASINO,24701 S. 655 RD.,,GROVE,OK,74344,36.65812,-94.706787,"24701 S. 655 RD.  GROVE, OK 74344",Original,1430.0,,,Correct,Correct,Correct,Correct,Active,GRAND LAKE CASINO,"24701 S. 655 RD. GROVE, OK 74344",36.658120000000004,-94.706787,POINT (-94.70678700000001 36.65812),No,18.29807463,,,Miami/Peoria,Miami/Peoria joint-use OTSA,From Original List,,,,,,No changes,No changes,No changes,No changes,,DELAWARE,,,,,,,
1431,1431,OK749778,CHOCTAW CASINO-IDABEL,1425 SE WASHINGTON ST.,,IDABEL,OK,74745,33.892829,-94.842113,"1425 SE WASHINGTON ST.  IDABEL, OK 74745",Original,1431.0,1.0,yes,Correct,Correct,Correct,Correct,Active,CHOCTAW CASINO-IDABEL,"1425 SE WASHINGTON ST. IDABEL, OK 74745",33.892829,-94.842113,POINT (-94.842113 33.892829),No,131.5158966,,,Creek/Seminole,Creek/Seminole joint-use OTSA,From Original List,,,,,,No changes,No changes,No changes,No changes,,MCCURTAIN,,,,,,,
1432,1432,OK749789,LIL' INDIANS SMOKE SHOP,7 W. MONROE ST,,JAY,OK,74346,36.4308826,-94.7916333,"7 W. MONROE ST  JAY, OK 74346",Google,1432.0,,,Correct,Correct,Correct,Correct,Active,LIL' INDIANS SMOKE SHOP,"7 W. MONROE ST JAY, OK 74346",36.4308826,-94.7916333,POINT (-94.7916333 36.4308826),No,29.88195303,,,Miami/Peoria,Miami/Peoria joint-use OTSA,From Original List,,,,,,No changes,No changes,No changes,No changes,,DELAWARE,,,,,,,
1433,1433,OK749790,BIG DADDY'S SMOKE SHOP,1136 E. HWY. 412,,LOCUST GROVE,OK,74352,36.18680300000001,-95.243932,"1136 E. HWY. 412  LOCUST GROVE, OK 74352",Original,1433.0,,,Correct,Correct,Correct,Correct,Closed,BIG DADDY'S SMOKE SHOP,"1136 E. HWY. 412 LOCUST GROVE, OK 74352",36.186803000000005,-95.243932,POINT (-95.243932 36.18680300000001),No,49.19171422,,,Miami/Peoria,Miami/Peoria joint-use OTSA,From Original List,,,,,,No changes,No changes,No changes,No changes,,MAYES,,,,,,,
1434,1434,OK750127,FASTRACK,501 SOUTH 5TH STREET,,BARNSDALL,OK,74002,36.557432,-96.161529,"501 SOUTH 5TH STREET  BARNSDALL, OK 74002",Original,1434.0,1.0,yes,FAST TRACK,Correct,Correct,Correct,Active,FAST TRACK,"501 SOUTH 5TH STREET BARNSDALL, OK 74002",36.557432,-96.161529,POINT (-96.161529 36.557432),Yes,0.0,Osage,Osage Reservation,,,From Original List,,,,,,No changes,No changes,No changes,No changes,OSAGE,OSAGE,1900350894,"FAST TRACK, INC.",ELIZABETH LEWIS,,TULSA,OK,
1435,1435,OK750260,HWY 60 EXPRESS LLC,800 W MAIN ST,,PAWHUSKA,OK,74056,36.664632,-96.34986,"800 W MAIN ST  PAWHUSKA, OK 74056",Original,1435.0,1.0,yes,Correct,Correct,Correct,Correct,Active,HWY 60 EXPRESS LLC,"800 W MAIN ST PAWHUSKA, OK 74056",36.664632,-96.34985999999999,POINT (-96.34985999999999 36.664632),Yes,0.0,Osage,Osage Reservation,,,From Original List,,,,,,No changes,No changes,No changes,No changes,OSAGE,OSAGE,3512478180,HWY 60 EXPRESS LLC,MICHAEL KRIEGE,,SKIATOOK,OK,
1436,1436,OK750283,WINSTAR WORLD HOTEL,777 CASINO BOULEVARD,,THACKERVILLE,OK,73459,33.758684,-97.127731,"777 CASINO BOULEVARD  THACKERVILLE, OK 73459",Original,1436.0,,,Correct,"777 Casino Ave, Thackerville, OK 73459, USA",33.7591547,-97.1304106,Active,WINSTAR WORLD HOTEL,"777 Casino Ave, Thackerville, OK 73459, USA",33.7591547,-97.13041059999999,POINT (-97.13041059999999 33.75915469999999),No,97.99076559,,,Creek/Seminole,Creek/Seminole joint-use OTSA,From Original List,,,,,,777 CASINO AVE,THACKERVILLE,OK,73459,LOVE,LOVE,3712131252,WINSTAR WORLD HOTEL,THE CORPORATION COMPANY,,OKLAHOMA CITY,OK,
1437,1437,OK751484,FAMILY DOLLAR,800 EAST 6TH STREET,,PAWHUSKA,OK,74056,36.663592,-96.329331,"800 EAST 6TH STREET  PAWHUSKA, OK 74056",Original,1437.0,,,Correct,Correct,Correct,Correct,Active,FAMILY DOLLAR,"800 EAST 6TH STREET PAWHUSKA, OK 74056",36.663592,-96.32933100000001,POINT (-96.32933100000001 36.663592),Yes,0.0,Osage,Osage Reservation,,,From Original List,,,,,,No changes,No changes,No changes,No changes,OSAGE,OSAGE,,,,,,,
1438,1438,OK754872,TWO TURTLES SMOKE SHOP,13800 N CINCINNATI AVE,,SKIATOOK,OK,74070,36.353776,-95.991401,"13800 N CINCINNATI AVE  SKIATOOK, OK 74070",Original,1438.0,1.0,maybe,TWO TURTLE SKIATOOK,Correct,Correct,Correct,Active,TWO TURTLE SKIATOOK,"13800 N CINCINNATI AVE SKIATOOK, OK 74070",36.353776,-95.991401,POINT (-95.991401 36.353776),No,0.647502726,,,Osage,Osage Reservation,From Original List,,,,,,No changes,No changes,No changes,No changes,,TULSA,,,,,,,
1439,1439,OK755038,APACHE CASINO HOTEL,2325 E GORE BLVD,,LAWTON,OK,73501,34.608628,-98.359329,"2325 E GORE BLVD  LAWTON, OK 73501",Original,1439.0,,,Correct,"2315 E Gore Blvd, Lawton, OK 73501, USA",34.6069743,-98.3602121,Active,APACHE CASINO HOTEL,"2315 E Gore Blvd, Lawton, OK 73501, USA",34.6069743,-98.3602121,POINT (-98.3602121 34.6069743),No,26.63568221,,,Kiowa-Comanche-Apache-Ft Sill Apache/Caddo-Wichita-Delaware,Kiowa-Comanche-Apache-Ft Sill Apache/Caddo-Wichita-Delaware joint-use OTSA,From Original List,,,,,,2315 E GORE BLVD,LAWTON,OK,73501,,COMANCHE,,,,,,,
1440,1440,OK755154,BEELINE SMOKE SHOP,4985 HIGHWAY 75,,BEGGS,OK,74421,35.782588,-96.015523,"4985 HIGHWAY 75  BEGGS, OK 74421",Original,1440.0,,,Correct,"4985 US-75, Beggs, OK 74421, USA",35.7844024,-96.0160444,Active,BEELINE SMOKE SHOP,"4985 US-75, Beggs, OK 74421, USA",35.7844024,-96.0160444,POINT (-96.0160444 35.7844024),No,24.61862182,,,Osage,Osage Reservation,From Original List,,,,,,4985 US-75,BEGGS,OK,74421,,OKMULGEE,,,,,,,
1441,1441,OK755171,BENTON-CHANDLER INC,905 E INDEPENDENCE ST,,SHAWNEE,OK,74804,35.347333,-96.910934,"905 E INDEPENDENCE ST  SHAWNEE, OK 74804",Original,1441.0,1.0,yes,Correct,Correct,Correct,Correct,Active,BENTON-CHANDLER INC,"905 E INDEPENDENCE ST SHAWNEE, OK 74804",35.347333,-96.910934,POINT (-96.910934 35.347333),No,27.44029021,,,Creek/Seminole,Creek/Seminole joint-use OTSA,From Original List,,,,,,No changes,No changes,No changes,No changes,,POTTAWATOMIE,1900517787,"BENTON-CHANDLER, INC.",LEINDA PARSON,,TECUMSEH,OK,
1442,1442,OK755305,BRIGGS TOBACCO OUTLET,23959 HIGHWAY 51,,TAHLEQUAH,OK,74464,35.928129,-94.872233,"23959 HIGHWAY 51  TAHLEQUAH, OK 74464",Original,1442.0,,,Correct,"23957 OK-51, Tahlequah, OK 74464, USA",35.9278763,-94.8727858,Active,BRIGGS TOBACCO OUTLET,"23957 OK-51, Tahlequah, OK 74464, USA",35.9278763,-94.8727858,POINT (-94.8727858 35.9278763),No,61.60833696,,,Miami/Peoria,Miami/Peoria joint-use OTSA,From Original List,,,,,,23957 -51,TAHLEQUAH,OK,74464,,CHEROKEE,,,,,,,
1443,1443,OK755485,CHICKASAW NATION,1004 GRAND AVE,,ARDMORE,OK,73401,34.179390999999995,-97.139884,"1004 GRAND AVE  ARDMORE, OK 73401",Original,1443.0,1.0,yes,Correct,Correct,Correct,Correct,Active,CHICKASAW NATION,"1004 GRAND AVE ARDMORE, OK 73401",34.179390999999995,-97.139884,POINT (-97.139884 34.179391),No,74.44524086,,,Creek/Seminole,Creek/Seminole joint-use OTSA,From Original List,,,,,,No changes,No changes,No changes,No changes,,CARTER,4300697558,CHICKASAW FOUNDATION,,,,,
1444,1444,OK755486,CHICKASAW NATION,HWY 81,,DUNCAN,OK,73533,34.5049372,-97.9675095,"HWY 81  DUNCAN, OK 73533",Google,1444.0,1.0,yes,CHICKASAW NATION-WIC,"1206 US-81 Suite 6, Duncan, OK 73533, USA",34.5015546,-97.9638284,Active,CHICKASAW NATION-WIC,"1206 US-81 Suite 6, Duncan, OK 73533, USA",34.501554600000006,-97.96382840000001,POINT (-97.9638284 34.50155459999999),No,33.57947649,,,Kiowa-Comanche-Apache-Ft Sill Apache/Caddo-Wichita-Delaware,Kiowa-Comanche-Apache-Ft Sill Apache/Caddo-Wichita-Delaware joint-use OTSA,From Original List,,,,,,1206 US-81 SUITE 6,DUNCAN,OK,73533,,STEPHENS,,,,,,,
1445,1445,OK755487,CHICKASAW NATION,I 35 EXIT 1,,THACKERVILLE,OK,73459,33.72749279999999,-97.1593573,"I 35 EXIT 1  THACKERVILLE, OK 73459",Google,1445.0,,,Correct,"22983 Brown Springs Rd, Thackerville, OK 73459, USA",33.7361227,-97.1440953,Active,CHICKASAW NATION,"22983 Brown Springs Rd, Thackerville, OK 73459, USA",33.7361227,-97.1440953,POINT (-97.1440953 33.7361227),No,99.73303689,,,Creek/Seminole,Creek/Seminole joint-use OTSA,From Original List,,,,,,22983 BROWN SPRINGS RD,THACKERVILLE,OK,73459,,LOVE,4300697558,CHICKASAW FOUNDATION,,,,,
1446,1446,OK755492,CHOCTAW TRIBAL PLAZA SMOKE SHO,1640 S GEORGE NIGH EXPY,,BACHE,OK,74501,34.886826,-95.786412,"1640 S GEORGE NIGH EXPY  BACHE, OK 74501",Original,1446.0,1.0,yes,Correct,Correct,Correct,Correct,Active,CHOCTAW TRIBAL PLAZA SMOKE SHO,"1640 S GEORGE NIGH EXPY BACHE, OK 74501",34.886826,-95.786412,POINT (-95.786412 34.886826),No,45.32504643,,,Creek/Seminole,Creek/Seminole joint-use OTSA,From Original List,,,,,,No changes,No changes,No changes,No changes,,PITTSBURG,,,,,,,
1447,1447,OK755881,CRYSTIEVILLE SMOKE SHOP,13266 S HIGHWAY 82,,PEGGS,OK,74452,36.120636,-95.13248,"13266 S HIGHWAY 82  PEGGS, OK 74452",Census,1447.0,1.0,yes,Correct,"13266 OK-82, Locust Grove, OK 74352, USA",36.1203889,-95.1327119,Active,CRYSTIEVILLE SMOKE SHOP,"13266 OK-82, Locust Grove, OK 74352, USA",36.120388899999995,-95.1327119,POINT (-95.1327119 36.1203889),No,50.77045402,,,Miami/Peoria,Miami/Peoria joint-use OTSA,From Original List,,,,,,13266 -82,LOCUST GROVE,OK,74352,,MAYES,,,,,,,
1448,1448,OK756100,DOROTHY''''S WICHES LLC,3105 W BERWICK,,CLAREMORE,OK,74017,36.308622,-95.649145,"3105 W BERWICK  CLAREMORE, OK 74017",Original,1448.0,,,Can't Validate,Can't Validate,Can't Validate,Can't Validate,Can't Validate,DOROTHY''''S WICHES LLC,"3105 W BERWICK CLAREMORE, OK 74017",36.308622,-95.64914499999999,POINT (-95.64914499999999 36.308622),No,23.012888699999998,,,Osage,Osage Reservation,From Original List,,,,,,No changes,No changes,No changes,No changes,,ROGERS,,,,,,,
1449,1449,OK756244,EUFALA INDIAN COMMUNITY SMOKE SHOP,806 W FORREST AVE,,EUFAULA,OK,74432,35.282706,-95.590623,"806 W FORREST AVE  EUFAULA, OK 74432",Original,1449.0,1.0,yes,Correct,"702 W Forrest Ave, Eufaula, OK 74432, USA",35.2824903,-95.5917191,Active,EUFALA INDIAN COMMUNITY SMOKE SHOP,"702 W Forrest Ave, Eufaula, OK 74432, USA",35.2824903,-95.5917191,POINT (-95.59171910000001 35.2824903),No,55.49777664,,,Creek/Seminole,Creek/Seminole joint-use OTSA,From Original List,,,,,,702 W FORREST AVE,EUFAULA,OK,74432,,MCINTOSH,,,,,,,
1450,1450,OK756272,FAIRFAX SMOKE SHOP INC,525 S 8TH ST,,FAIRFAX,OK,74637,36.566048,-96.710368,"525 S 8TH ST  FAIRFAX, OK 74637",Original,1450.0,,,Correct,Correct,Correct,Correct,Active,FAIRFAX SMOKE SHOP INC,"525 S 8TH ST FAIRFAX, OK 74637",36.566047999999995,-96.710368,POINT (-96.710368 36.56604799999999),Yes,0.0,Osage,Osage Reservation,,,From Original List,,,,,,No changes,No changes,No changes,No changes,,OSAGE,,,,,,,
1451,1451,OK756304,FAULK''S BEARD AND CIGAR LLC,1204 W BEECH AVE,,DUNCAN,OK,73533,34.506704,-97.962545,"1204 W BEECH AVE  DUNCAN, OK 73533",Original,1451.0,,,Can't Validate,Can't Validate,Can't Validate,Can't Validate,Can't Validate,FAULK''S BEARD AND CIGAR LLC,"1204 W BEECH AVE DUNCAN, OK 73533",34.506704,-97.96254499999999,POINT (-97.96254499999999 34.506704),No,33.24998336,,,Kiowa-Comanche-Apache-Ft Sill Apache/Caddo-Wichita-Delaware,Kiowa-Comanche-Apache-Ft Sill Apache/Caddo-Wichita-Delaware joint-use OTSA,From Original List,,,,,,No changes,No changes,No changes,No changes,,STEPHENS,,,,,,,
1452,1452,OK756318,PEACE PIPE SMOKE SHOP,11301 N GARNETT RD,,OWASSO,OK,74055,36.317922,-95.848108,"11301 N GARNETT RD  OWASSO, OK 74055",Original,1452.0,,,Correct,Correct,Correct,Correct,Active,PEACE PIPE SMOKE SHOP,"11301 N GARNETT RD OWASSO, OK 74055",36.317921999999996,-95.848108,POINT (-95.848108 36.317922),No,10.01708909,,,Osage,Osage Reservation,From Original List,,,,,,No changes,No changes,No changes,No changes,,TULSA,,,,,,,
1453,1453,OK756413,GAWKSKEY CHEROKEE SMOKE SHOP,100 GENEVA CIR,,GORE,OK,74435,35.525477,-95.119457,"100 GENEVA CIR  GORE, OK 74435",Original,1453.0,,,Correct,"OK-100, Webbers Falls, OK 74470, USA",35.485638,-95.1514054,Active,GAWKSKEY CHEROKEE SMOKE SHOP,"OK-100, Webbers Falls, OK 74470, USA",35.485638,-95.1514054,POINT (-95.1514054 35.485638),No,70.91248912,,,Osage,Osage Reservation,From Original List,,,,,,-100,WEBBERS FALLS,OK,74470,,MUSKOGEE,,,,,,,
1454,1454,OK756739,INDIAN SMOKE SHOP,704 SOUTH MAIN STREET,,BROKEN ARROW,OK,74012,36.046152,-95.790846,"704 SOUTH MAIN STREET  BROKEN ARROW, OK 74012",Original,1454.0,,,Correct,Correct,Correct,Correct,Active,INDIAN SMOKE SHOP,"704 SOUTH MAIN STREET BROKEN ARROW, OK 74012",36.046152,-95.790846,POINT (-95.790846 36.046152),No,15.65674698,,,Osage,Osage Reservation,From Original List,,,,,,No changes,No changes,No changes,No changes,,TULSA,,,,,,,
1455,1455,OK757084,LEE BOULEVARD SMOKE SHOP,1502 SE LEE BLVD,,LAWTON,OK,73501,34.594462,-98.364425,"1502 SE LEE BLVD  LAWTON, OK 73501",Original,1455.0,1.0,no,KIYOU SMOKE SHOP,Correct,Correct,Correct,Active,KIYOU SMOKE SHOP,"1502 SE LEE BLVD LAWTON, OK 73501",34.594462,-98.364425,POINT (-98.364425 34.594462),No,27.454415700000002,,,Kiowa-Comanche-Apache-Ft Sill Apache/Caddo-Wichita-Delaware,Kiowa-Comanche-Apache-Ft Sill Apache/Caddo-Wichita-Delaware joint-use OTSA,From Original List,,,,,,No changes,No changes,No changes,No changes,,COMANCHE,,,,,,,
1456,1456,OK757413,MUSCOGEE CREEK NATION,830 N BROADWAY ST,,CHECOTAH,OK,74426,35.480362,-95.522271,"830 N BROADWAY ST  CHECOTAH, OK 74426",Original,1456.0,1.0,yes,CREEK NATION CASINO CHECOTAH,Correct,Correct,Correct,Active,CREEK NATION CASINO CHECOTAH,"830 N BROADWAY ST CHECOTAH, OK 74426",35.480362,-95.52227099999999,POINT (-95.52227099999999 35.480362),No,54.37629063,,,Osage,Osage Reservation,From Original List,,,,,,No changes,No changes,No changes,No changes,,MCINTOSH,,,,,,,
1457,1457,OK757549,NUMUNU PAHMU LLC,402 SE INTERSTATE DR,,LAWTON,OK,73501,34.603454,-98.377527,"402 SE INTERSTATE DR  LAWTON, OK 73501",Original,1457.0,,,Correct,"602 SE Wallock St, Lawton, OK 73501, USA",34.602025,-98.384412,Active,NUMUNU PAHMU LLC,"602 SE Wallock St, Lawton, OK 73501, USA",34.602025,-98.384412,POINT (-98.384412 34.602025),No,26.96314047,,,Kiowa-Comanche-Apache-Ft Sill Apache/Caddo-Wichita-Delaware,Kiowa-Comanche-Apache-Ft Sill Apache/Caddo-Wichita-Delaware joint-use OTSA,From Original List,,,,,,602 SE WALLOCK ST,LAWTON,OK,73501,,COMANCHE,3712392314,NUMUNU PAHMU LLC,JARRETT JACKSON,,LAWTON,OK,
1458,1458,OK757568,OKMULGEE INDIAN COMMUNITY SMOKE SHOP,2700 N MIAMI AVE,,OKMULGEE,OK,74447,35.65318900000001,-95.957615,"2700 N MIAMI AVE  OKMULGEE, OK 74447",Original,1458.0,,,Correct,Correct,Correct,Correct,Active,OKMULGEE INDIAN COMMUNITY SMOKE SHOP,"2700 N MIAMI AVE OKMULGEE, OK 74447",35.653189000000005,-95.957615,POINT (-95.957615 35.65318900000001),No,33.31258933,,,Osage,Osage Reservation,From Original List,,,,,,No changes,No changes,No changes,No changes,,OKMULGEE,,,,,,,
1459,1459,OK757569,OKMULGEE INDIAN COMMUNITY SMOKE SHOP,2850 S WOOD DR,,OKMULGEE,OK,74447,35.599125,-95.961902,"2850 S WOOD DR  OKMULGEE, OK 74447",Original,1459.0,,,Correct,Correct,Correct,Correct,Active,OKMULGEE INDIAN COMMUNITY SMOKE SHOP,"2850 S WOOD DR OKMULGEE, OK 74447",35.599125,-95.961902,POINT (-95.96190199999999 35.599125),No,32.47089572,,,Creek/Seminole,Creek/Seminole joint-use OTSA,From Original List,,,,,,No changes,No changes,No changes,No changes,,OKMULGEE,,,,,,,
1460,1460,OK757605,OPS SALES COMPANY,14861 N 3980 RD,,DEWEY,OK,74029,36.802408,-95.917197,"14861 N 3980 RD  DEWEY, OK 74029",Original,1460.0,,,Correct,"3947, 14861 N 3980 Rd, Dewey, OK 74029, USA",36.8024485,-95.9176163,Active,OPS SALES COMPANY,"3947, 14861 N 3980 Rd, Dewey, OK 74029, USA",36.8024485,-95.91761629999999,POINT (-95.91761629999999 36.8024485),No,5.413404099,,,Osage,Osage Reservation,From Original List,,,,,,"3947, 14861 N 3980 RD",DEWEY,OK,74029,,WASHINGTON,1900615295,OPS SALES COMPANY,SECRETARY OF STATE,,OKLAHOMA CITY,OK,
1461,1461,OK757669,JT'S SMOKE SHOP,50879 WEST HIGHWAY 33,,DRUMRIGHT,OK,74030,35.98845,-96.560883,"50879 WEST HIGHWAY 33  DRUMRIGHT, OK 74030",Original,1461.0,1.0,maybe,Correct,"50879 OK-33, Drumright, OK 74030, USA",35.9912319,-96.559357,Active,JT'S SMOKE SHOP,"50879 OK-33, Drumright, OK 74030, USA",35.991231899999995,-96.55935699999999,POINT (-96.55935699999999 35.99123189999999),No,19.99215099,,,Osage,Osage Reservation,From Original List,,,,,,50879 -33,DRUMRIGHT,OK,74030,,CREEK,,,,,,,
1462,1462,OK757670,THE CHRISTMAS STORE AND MORE FLEA MARKET,722 HARRISON ST,,PAWNEE,OK,74058,36.337942,-96.806008,"722 HARRISON ST  PAWNEE, OK 74058",Original,1462.0,,,Correct,Correct,Correct,Correct,Active,THE CHRISTMAS STORE AND MORE FLEA MARKET,"722 HARRISON ST PAWNEE, OK 74058",36.337942,-96.80600799999999,POINT (-96.80600799999999 36.337942),No,9.007469926,,,Osage,Osage Reservation,From Original List,,,,,,No changes,No changes,No changes,No changes,,PAWNEE,,,,,,,
1463,1463,OK758047,ROYAL PIPE AND TOBACCO,105 EAST BOYD STREET,,NORMAN,OK,73069,35.211157,-97.441131,"105 EAST BOYD STREET  NORMAN, OK 73069",Original,1463.0,1.0,yes,Correct,Correct,Correct,Correct,Active,ROYAL PIPE AND TOBACCO,"105 EAST BOYD STREET NORMAN, OK 73069",35.211157,-97.441131,POINT (-97.441131 35.211157),No,37.37447194,,,Kiowa-Comanche-Apache-Ft Sill Apache/Caddo-Wichita-Delaware,Kiowa-Comanche-Apache-Ft Sill Apache/Caddo-Wichita-Delaware joint-use OTSA,From Original List,,,,,,No changes,No changes,No changes,No changes,,CLEVELAND,,,,,,,
1464,1464,OK758385,SMOKE''N HUT,9922 DARE LN,,NORMAN,OK,73026,35.272506,-97.293895,"9922 DARE LN  NORMAN, OK 73026",Original,1464.0,,,Can't Validate,Can't Validate,Can't Validate,Can't Validate,Can't Validate,SMOKE''N HUT,"9922 DARE LN NORMAN, OK 73026",35.272506,-97.29389499999999,POINT (-97.29389499999999 35.272506),No,47.66979213,,,Kiowa-Comanche-Apache-Ft Sill Apache/Caddo-Wichita-Delaware,Kiowa-Comanche-Apache-Ft Sill Apache/Caddo-Wichita-Delaware joint-use OTSA,From Original List,,,,,,No changes,No changes,No changes,No changes,,CLEVELAND,,,,,,,
1465,1465,OK758654,SPUR PIPE & STEEL,9977 NW MADISCHE RD,,ELGIN,OK,73538,34.750174,-98.404832,"9977 NW MADISCHE RD  ELGIN, OK 73538",Original,1465.0,,,Correct,Correct,Correct,Correct,Active,SPUR PIPE & STEEL,"9977 NW MADISCHE RD ELGIN, OK 73538",34.750174,-98.404832,POINT (-98.404832 34.750174),No,17.29268271,,,Kiowa-Comanche-Apache-Ft Sill Apache/Caddo-Wichita-Delaware,Kiowa-Comanche-Apache-Ft Sill Apache/Caddo-Wichita-Delaware joint-use OTSA,From Original List,,,,,,No changes,No changes,No changes,No changes,,COMANCHE,3512259432,SPUR PIPE & STEEL LLC,MICHAEL DOYLE,,ELGIN,OK,
1466,1466,OK759033,THLOPTHLOCCO TRIBAL TOWN,10095 BRYANT RD,,HENRYETTA,OK,74437,35.418386,-96.028941,"10095 BRYANT RD  HENRYETTA, OK 74437",Original,1466.0,,,Correct,"109009 N. 3830 Rd., Okemah, OK 74859, USA",35.43461,-96.194329,Active,THLOPTHLOCCO TRIBAL TOWN,"109009 N. 3830 Rd., Okemah, OK 74859, USA",35.43461,-96.19432900000001,POINT (-96.194329 35.43461),No,16.127761800000002,,,Creek/Seminole,Creek/Seminole joint-use OTSA,From Original List,,,,,,109009 N. 3830 RD.,OKEMAH,OK,74859,,OKFUSKEE,,,,,,,
1467,1467,OK759046,THUNDERBIRD DISCOUNT SMOKE SHO,870385 S 3433 RD,,CHANDLER,OK,74834,35.747895,-96.889237,"870385 S 3433 RD  CHANDLER, OK 74834",Original,1467.0,,,THUNDERBIRD DISCOUNT SMOKE SHOP,"502 N Hwy 18 Or, S Price Ave, Chandler, OK 74834, USA",35.7143284,-96.8841748,Active,THUNDERBIRD DISCOUNT SMOKE SHOP,"502 N Hwy 18 Or, S Price Ave, Chandler, OK 74834, USA",35.7143284,-96.8841748,POINT (-96.8841748 35.71432839999999),No,31.1547457,,,Creek/Seminole,Creek/Seminole joint-use OTSA,From Original List,,,,,,502 N HWY 18 OR S PRICE AVE,CHANDLER,OK,74834,,LINCOLN,,,,,,,
1468,1468,OK759165,TOBACCO EXPRESS INDIAN SMOKE SHOP,3353 SOUTH 57TH WEST AVENUE,,TULSA,OK,74107,36.111668,-96.056261,"3353 SOUTH 57TH WEST AVENUE  TULSA, OK 74107",Original,1468.0,,,Correct,Correct,Correct,Correct,Active,TOBACCO EXPRESS INDIAN SMOKE SHOP,"3353 SOUTH 57TH WEST AVENUE TULSA, OK 74107",36.111668,-96.05626099999999,POINT (-96.05626099999999 36.111668),No,3.228385336,,,Osage,Osage Reservation,From Original List,,,,,,No changes,No changes,No changes,No changes,,TULSA,1900685486,TOBACCO EXPRESS INDIAN SMOKE SHOP,P. WIDDOWS,,TULSA,OK,
1469,1469,OK759413,TP SMOKE SHOP,2109 W MAIN ST,,CUSHING,OK,74023,35.985624,-96.797504,"2109 W MAIN ST  CUSHING, OK 74023",Original,1469.0,1.0,yes,T P SMOKE SHOP,"2109 W Main Pl, Cushing, OK 74023, USA",35.985347,-96.7975,Active,T P SMOKE SHOP,"2109 W Main Pl, Cushing, OK 74023, USA",35.985347,-96.7975,POINT (-96.7975 35.985347),No,25.92031766,,,Osage,Osage Reservation,From Original List,,,,,,2109 W MAIN PL,CUSHING,OK,74023,,PAYNE,3512028256,"T P SMOKE SHOP, L.L.C.",TAMMY READY,,CUSHING,OK,
1470,1470,OK759611,WAGONER CREEK SMOKE SHOP,420 SW 15TH ST,,WAGONER,OK,74467,35.944302,-95.383426,"420 SW 15TH ST  WAGONER, OK 74467",Original,1470.0,,,Correct,Correct,Correct,Correct,Active,WAGONER CREEK SMOKE SHOP,"420 SW 15TH ST WAGONER, OK 74467",35.944302,-95.383426,POINT (-95.383426 35.944302),No,42.76365565,,,Osage,Osage Reservation,From Original List,,,,,,No changes,No changes,No changes,No changes,,WAGONER,1900614923,"WAGONER CREEK SMOKE SHOP, INC.",RONNIE BOSWELL,,WAGONER,OK,
1471,1471,OK759669,WHITE FEATHER SMOKE SHOP,2850 S HICKORY ST,,SAPULPA,OK,74066,35.960405,-96.118826,"2850 S HICKORY ST  SAPULPA, OK 74066",Original,1471.0,,,Correct,Correct,Correct,Correct,Active,WHITE FEATHER SMOKE SHOP,"2850 S HICKORY ST SAPULPA, OK 74066",35.960405,-96.118826,POINT (-96.118826 35.960405),No,13.10936149,,,Osage,Osage Reservation,From Original List,,,,,,No changes,No changes,No changes,No changes,OSAGE,OSAGE,,,,,,,
1472,1472,OK784762,JOHNNY APPLESEED STORE,320 S WOOD DR,,OKMULGEE,OK,74447,35.62057,-95.96067,"320 S WOOD DR  OKMULGEE, OK 74447",Original,1472.0,,,Correct,Correct,Correct,Correct,Active,JOHNNY APPLESEED STORE,"320 S WOOD DR OKMULGEE, OK 74447",35.62057,-95.96067,POINT (-95.96066999999999 35.62057),No,32.94571247,,,Creek/Seminole,Creek/Seminole joint-use OTSA,From Original List,,,,,,No changes,No changes,No changes,No changes,,OKMULGEE,,,,,,,
1473,1473,OK784763,CREEK NATION TRAVEL PLAZA,2800 N WOOD DR,,OKMULGEE,OK,74447,35.64751,-95.96278,"2800 N WOOD DR  OKMULGEE, OK 74447",Original,1473.0,,,Correct,Correct,Correct,Correct,Active,CREEK NATION TRAVEL PLAZA,"2800 N WOOD DR OKMULGEE, OK 74447",35.64751,-95.96278000000001,POINT (-95.96278000000001 35.64751),No,33.39200546,,,Creek/Seminole,Creek/Seminole joint-use OTSA,From Original List,,,,,,No changes,No changes,No changes,No changes,,OKMULGEE,,,,,,,
1474,1474,OK784840,CATOOSA CASINO TOBACCO SHOP,19105 E TIMBERCREST CIR.,,CATOOSA,OK,74015,36.16619,-95.76393,"19105 E TIMBERCREST CIR.  CATOOSA, OK 74015",Original,1474.0,1.0,yes,Correct,"777 W Cherokee St, Catoosa, OK 74015, USA",36.1649131,-95.7629725,Active,CATOOSA CASINO TOBACCO SHOP,"777 W Cherokee St, Catoosa, OK 74015, USA",36.1649131,-95.7629725,POINT (-95.7629725 36.16491309999999),No,15.55422093,,,Osage,Osage Reservation,From Original List,,,,,,777 W CHEROKEE ST,CATOOSA,OK,74015,,ROGERS,,,,,,,
1475,1475,OK785123,DOLLAR GENERAL,370942 EAST HIGHWAY 64,,CLEVELAND,OK,74020,36.28323,-96.53299,"370942 EAST HIGHWAY 64  CLEVELAND, OK 74020",Original,1475.0,,,Correct,"370942 US-64, Cleveland, OK 74020, USA",36.2353357,-96.3931792,Active,DOLLAR GENERAL,"370942 US-64, Cleveland, OK 74020, USA",36.2353357,-96.3931792,POINT (-96.39317920000001 36.23533570000001),No,1.9242757519999998,,,Osage,Osage Reservation,From Original List,,,,,,370942 US-64,CLEVELAND,OK,74020,OSAGE,PAWNEE,2300267776,DOLLAR GENERAL,CORPORATION SERVICE COMPANY,,OKLA CITY,OK,
1476,1476,OK785213,CASEY'S GENERAL STORE #3456,102 W ROGERS BLVD,,SKIATOOK,OK,74070,36.36832,-96.00139,"102 W ROGERS BLVD  SKIATOOK, OK 74070",Original,1476.0,,,Can't Validate,Can't Validate,Can't Validate,Can't Validate,Can't Validate,CASEY'S GENERAL STORE #3456,"102 W ROGERS BLVD SKIATOOK, OK 74070",36.368320000000004,-96.00139,POINT (-96.00139 36.36832),Yes,0.0,Osage,Osage Reservation,,,From Original List,,,,,,No changes,No changes,No changes,No changes,OSAGE,OSAGE,,,,,,,
1477,1477,OK788059,THUNDERBIRD CASINO - SHAWNEE,2051 SOUTH GORDON COOPER DRIVE,,SHAWNEE,OK,74801,35.39172,-97.75356,"2051 SOUTH GORDON COOPER DRIVE  SHAWNEE, OK 74801",Original,1477.0,,,Correct,Correct,Correct,Correct,Active,THUNDERBIRD CASINO - SHAWNEE,"2051 SOUTH GORDON COOPER DRIVE SHAWNEE, OK 74801",35.39172,-97.75356,POINT (-97.75355999999999 35.39172),No,24.90397821,,,Kiowa-Comanche-Apache-Ft Sill Apache/Caddo-Wichita-Delaware,Kiowa-Comanche-Apache-Ft Sill Apache/Caddo-Wichita-Delaware joint-use OTSA,From Original List,,,,,,No changes,No changes,No changes,No changes,,CANADIAN,,,,,,,
1478,1478,OK793635,VAPOR KINGS,110 NORTH GARFIELD AVE SUITE 300,,SAND SPRINGS,OK,74063,36.13594000000001,-96.11207,"110 NORTH GARFIELD AVE SUITE 300  SAND SPRINGS, OK 74063",Original,1478.0,1.0,yes,VAPOR KINGS - SAND SPRINGS,Correct,Correct,Correct,Active,VAPOR KINGS - SAND SPRINGS,"110 NORTH GARFIELD AVE SUITE 300 SAND SPRINGS, OK 74063",36.135940000000005,-96.11206999999999,POINT (-96.11206999999999 36.13594000000001),No,1.6432320130000002,,,Osage,Osage Reservation,From Original List,,,,,,No changes,No changes,No changes,No changes,OSAGE,OSAGE,,,,,,,
1479,1479,OK793636,WEST TULSA VAPOR,18 WEST 41ST STREET,,SAND SPRINGS,OK,74063,36.104683,-96.119385,"18 WEST 41ST STREET  SAND SPRINGS, OK 74063",Census,1479.0,,,WEST TULSA VAPOR S.S,Correct,Correct,Correct,Active,WEST TULSA VAPOR S.S,"18 WEST 41ST STREET SAND SPRINGS, OK 74063",36.104683,-96.119385,POINT (-96.11938499999999 36.104683),No,3.684485173,,,Osage,Osage Reservation,From Original List,,,,,,No changes,No changes,No changes,No changes,OSAGE,OSAGE,3512401407,WEST TULSA VAPOR,TULSA VAPOR DEPOT LLC,,TULSA,OK,
1480,1480,OK793637,VAPEHERE FOR LESS,3307 S 113TH WEST AVE,,SAND SPRINGS,OK,74063,35.3473,-96.92988,"3307 S 113TH WEST AVE  SAND SPRINGS, OK 74063",Original,1480.0,,,Can't Validate,Can't Validate,Can't Validate,Can't Validate,Can't Validate,VAPEHERE FOR LESS,"3307 S 113TH WEST AVE SAND SPRINGS, OK 74063",35.3473,-96.92988000000001,POINT (-96.92988000000001 35.3473),No,28.67761691,,,Creek/Seminole,Creek/Seminole joint-use OTSA,From Original List,,,,,,No changes,No changes,No changes,No changes,OSAGE,OSAGE,,,,,,,
1481,1481,OK793638,SAND SPRINGS VAPOR WAREHOUSE,420 W WEKIWA RD,,SAND SPRINGS,OK,74063,36.06095,-95.80444,"420 W WEKIWA RD  SAND SPRINGS, OK 74063",Original,1481.0,,,Correct,Correct,Correct,Correct,Active,SAND SPRINGS VAPOR WAREHOUSE,"420 W WEKIWA RD SAND SPRINGS, OK 74063",36.06095,-95.80444,POINT (-95.80444 36.06095),No,14.41967826,,,Osage,Osage Reservation,From Original List,,,,,,No changes,No changes,No changes,No changes,OSAGE,OSAGE,,,,,,,
1482,1482,OK793640,NICORAZZ VAPOR,1012 WEST TAFT AVE,,SAPULPA,OK,74066,35.55124,-97.61903,"1012 WEST TAFT AVE  SAPULPA, OK 74066",Original,1482.0,,,Correct,Correct,Correct,Correct,Closed,NICORAZZ VAPOR,"1012 WEST TAFT AVE SAPULPA, OK 74066",35.55124,-97.61903000000001,POINT (-97.61903000000001 35.55124),No,38.51053427,,,Kiowa-Comanche-Apache-Ft Sill Apache/Caddo-Wichita-Delaware,Kiowa-Comanche-Apache-Ft Sill Apache/Caddo-Wichita-Delaware joint-use OTSA,From Original List,,,,,,No changes,No changes,No changes,No changes,OSAGE,OSAGE,,,,,,,
1483,1483,OK793642,THE VAPOR CREW SAPULPA,1195 NEW SAPULPA RD,,SAPULPA,OK,74066,36.01482,-96.09756,"1195 NEW SAPULPA RD  SAPULPA, OK 74066",Original,1483.0,,,Correct,Correct,Correct,Correct,Active,THE VAPOR CREW SAPULPA,"1195 NEW SAPULPA RD SAPULPA, OK 74066",36.01482,-96.09756,POINT (-96.09756 36.01482),No,9.554808563,,,Osage,Osage Reservation,From Original List,,,,,,No changes,No changes,No changes,No changes,OSAGE,OSAGE,,,,,,,
1484,1484,OK793643,VAPE 4 LESS,923 SOUTH MAIN STREET,,SAPULPA,OK,74066,35.98722,-96.1133,"923 SOUTH MAIN STREET  SAPULPA, OK 74066",Original,1484.0,1.0,yes,Correct,Correct,Correct,Correct,Active,VAPE 4 LESS,"923 SOUTH MAIN STREET SAPULPA, OK 74066",35.98722,-96.1133,POINT (-96.1133 35.98722),No,11.35813965,,,Osage,Osage Reservation,From Original List,,,,,,No changes,No changes,No changes,No changes,OSAGE,OSAGE,3512384339,VAPE 4 LESS,"VAPOR BLING, LLC",,SAPULPA,OK,
2030,2030,,,2128 N 14TH ST STE 3,,PONCA CITY,OK,74601,,,,,,,,,,,,Active,JUICYS VAPOR LOUNGE,"2128 N 14th St Ste 3, Ponca City, OK, 74601",36.728159999999995,-97.06721999999999,POINT (-97.06722000000001 36.72816),Yes,,Kaw/Ponca,Kaw/Ponca joint-use OTSA,,,New Retailer,Independent,,,N,7614146.0,2128 N 14TH ST STE 3,PONCA CITY,OK,74601,,KAY,1912678552,JUICY\'S VAPOR LOUNGE INC,NANCY NELSON,,PONCA CITY,OK,
2658,2658,,,1910 N MAIN ST,,MIAMI,OK,74354,,,,,,,,,,,,Active,EXPRESS RX,"1910 N Main St, Miami, OK, 74354",36.896812,-94.87749000000001,POINT (-94.87748999999999 36.896812),Yes,,Miami/Peoria,Miami/Peoria joint-use OTSA,,,New Retailer,Independent,,,N,7274023.0,1910 N MAIN ST,MIAMI,OK,74354,,OTTAWA,3512372962,EXPRESS RX,GENTNER DRUMMOND,,TULSA,OK,
2662,2662,,,1501 N UNION ST,,PONCA CITY,OK,74601,,,,,,,,,,,,Active,LAMP POST LIQUOR,"1501 N Union St, Ponca City, OK, 74601",36.720753,-97.0852,POINT (-97.0852 36.720753),Yes,,Kaw/Ponca,Kaw/Ponca joint-use OTSA,,,New Retailer,Independent,,,N,1411909.0,1501 N UNION ST,PONCA CITY,OK,74601,,KAY,,,,,,,
2663,2663,,,104 W MAIN ST,,HOMINY,OK,74035,,,,,,,,,,,,Active,REXALL HOMINY DRUG,"104 W Main St, Hominy, OK, 74035",36.415271000000004,-96.394379,POINT (-96.394379 36.415271),Yes,,Osage,Osage Reservation,,,New Retailer,Independent,,,N,655375.0,104 W MAIN ST,HOMINY,OK,74035,,OSAGE,,,,,,,
2665,2665,,,331 N MAIN ST,,FAIRFAX,OK,74637,,,,,,,,,,,,Active,MAIN STREET LIQUOR,"331 N Main St, Fairfax, OK, 74637",36.5738715,-96.7046171,POINT (-96.70461709999999 36.5738715),Yes,,Osage,Osage Reservation,,,New Retailer,Independent,,,N,7606329.0,331 N MAIN ST,FAIRFAX,OK,74637,,OSAGE,,,,,,,
2667,2667,,,427 E 4TH ST,,CARNEGIE,OK,73015,,,,,,,,,,,,Active,CARNEGIE PACKAGE STORE,"427 E 4th St, Carnegie, OK, 73015",35.1020604,-98.5957882,POINT (-98.5957882 35.1020604),Yes,,Kiowa-Comanche-Apache-Ft Sill Apache/Caddo-Wichita-Delaware,Kiowa-Comanche-Apache-Ft Sill Apache/Caddo-Wichita-Delaware joint-use OTSA,,,New Retailer,Independent,,,N,7494447.0,427 E 4TH ST,CARNEGIE,OK,73015,,CADDO,3612549687,CARNEGIE PACKAGE STORE,,,,,
2671,2671,,,1355 W ROGERS BLVD STE 8,,SKIATOOK,OK,74070,,,,,,,,,,,,Active,CHARLOTTES COUNTRY SPIRITS,"1355 W Rogers Blvd Ste 8, Skiatook, OK, 74070",36.3679314,-96.01905740000001,POINT (-96.01905739999999 36.3679314),Yes,,Osage,Osage Reservation,,,New Retailer,Independent,,,N,3670586.0,1355 W ROGERS BLVD STE 8,SKIATOOK,OK,74070,,OSAGE,3500670650,"CHARLOTTE\'S COUNTRY SPIRITS, L.L.C.",CHARLOTTE WHITE,,OWASSO,OK,
2674,2674,,,301 W GRAND AVE,,PONCA CITY,OK,74601,,,,,,,,,,,,Active,TONIS WESTSIDE REXALL DRUG,"301 W Grand Ave, Ponca City, OK, 74601",36.7040599,-97.0868659,POINT (-97.08686590000001 36.7040599),Yes,,Kaw/Ponca,Kaw/Ponca joint-use OTSA,,,New Retailer,Independent,,,N,621511.0,301 W GRAND AVE,PONCA CITY,OK,74601,,KAY,,,,,,,
2682,2682,,,602 W CENTRAL BLVD,,ANADARKO,OK,73005,,,,,,,,,,,,Active,LOVELLS PHARMACY,"602 W Central Blvd, Anadarko, OK, 73005",35.072122,-98.2521495,POINT (-98.2521495 35.072122),Yes,,Kiowa-Comanche-Apache-Ft Sill Apache/Caddo-Wichita-Delaware,Kiowa-Comanche-Apache-Ft Sill Apache/Caddo-Wichita-Delaware joint-use OTSA,,,New Retailer,Independent,,,N,655356.0,602 W CENTRAL BLVD,ANADARKO,OK,73005,,CADDO,1900479526,"LOVELL\'S PHARMACY, INC.",JIMMIE O. LOVELL,,ANADARKO,OK,
2684,2684,,,510 W HIGHLAND AVE,,PONCA CITY,OK,74601,,,,,,,,,,,,Active,HIGHLAND SPIRITS,"510 W Highland Ave, Ponca City, OK, 74601",36.7094907,-97.0899765,POINT (-97.08997650000001 36.7094907),Yes,,Kaw/Ponca,Kaw/Ponca joint-use OTSA,,,New Retailer,Independent,,,N,1445466.0,510 W HIGHLAND AVE,PONCA CITY,OK,74601,,KAY,,,,,,,
2687,2687,,,614 N 1ST ST,,ANADARKO,OK,73005,,,,,,,,,,,,Active,THE MARKET,"614 N 1st St, Anadarko, OK, 73005",35.0823088,-98.2440183,POINT (-98.24401829999999 35.0823088),Yes,,Kiowa-Comanche-Apache-Ft Sill Apache/Caddo-Wichita-Delaware,Kiowa-Comanche-Apache-Ft Sill Apache/Caddo-Wichita-Delaware joint-use OTSA,,,New Retailer,Independent,,,N,1445443.0,614 N 1ST ST,ANADARKO,OK,73005,,CADDO,1900533246,"THE MARKET, INC.",DOYLE G BUNCH,,OKC,OK,
2690,2690,,,3211 N 14TH ST,,PONCA CITY,OK,74601,,,,,,,,,,,,Active,OLD WEST LIQUORS,"3211 N 14th St, Ponca City, OK, 74601",36.742568299999995,-97.06679770000001,POINT (-97.0667977 36.7425683),Yes,,Kaw/Ponca,Kaw/Ponca joint-use OTSA,,,New Retailer,Independent,,,N,299680.0,3211 N 14TH ST,PONCA CITY,OK,74601,,KAY,3500696818,"OLD WEST LIQUORS, LLC",ROD D WOHL,,PONCA CITY,OK,
2691,2691,,,714 KIHEKAH AVE,,PAWHUSKA,OK,74056,,,,,,,,,,,,Active,WEIGANTS PHARMACY,"714 Kihekah Ave, Pawhuska, OK, 74056",36.665627,-96.33906999999999,POINT (-96.33907000000001 36.665627),Yes,,Osage,Osage Reservation,,,New Retailer,Independent,,,N,621502.0,714 KIHEKAH AVE,PAWHUSKA,OK,74056,,OSAGE,1900381333,"WEIGANTS\' PHARMACY, INC.",JACK K HATFIELD,,TULSA,OK,
2693,2693,,,1104 E CENTRAL BLVD,,ANADARKO,OK,73005,,,,,,,,,,,,Active,CLINIC PHARMACY,"1104 E Central Blvd, Anadarko, OK, 73005",35.0717545,-98.2262277,POINT (-98.2262277 35.0717545),Yes,,Kiowa-Comanche-Apache-Ft Sill Apache/Caddo-Wichita-Delaware,Kiowa-Comanche-Apache-Ft Sill Apache/Caddo-Wichita-Delaware joint-use OTSA,,,New Retailer,Independent,,,N,2103578.0,1104 E CENTRAL BLVD,ANADARKO,OK,73005,,CADDO,1900192737,"CLINIC PHARMACY, INC",ROBERT R. BUCK,,OKLAHOMA CITY,OK,
2698,2698,,,2701 N 14TH ST,,PONCA CITY,OK,74601,,,,,,,,,,,,Active,BINTZ PHARMACY,"2701 N 14th St, Ponca City, OK, 74601",36.7370359,-97.0666099,POINT (-97.0666099 36.7370359),Yes,,Kaw/Ponca,Kaw/Ponca joint-use OTSA,,,New Retailer,Independent,,,N,4030150.0,2701 N 14TH ST,PONCA CITY,OK,74601,,KAY,1900332150,BINTZ PHARMACY,MATT BINTZ,,PONCA CITY,OK,
2699,2699,,,1311 N MAIN ST,,MIAMI,OK,74354,,,,,,,,,,,,Active,EDWARDS PACKAGE STORE,"1311 N Main St, Miami, OK, 74354",36.8903417,-94.8778059,POINT (-94.8778059 36.8903417),Yes,,Miami/Peoria,Miami/Peoria joint-use OTSA,,,New Retailer,Independent,,,N,1411829.0,1311 N MAIN ST,MIAMI,OK,74354,,OTTAWA,,,,,,,
2700,2700,,,310 FAIRVIEW AVE,,PONCA CITY,OK,74601,,,,,,,,,,,,Active,RTS FAMILY DISCOUNT PHARMACY,"310 Fairview Ave, Ponca City, OK, 74601",36.725821999999994,-97.06956,POINT (-97.06956 36.725822),Yes,,Kaw/Ponca,Kaw/Ponca joint-use OTSA,,,New Retailer,Independent,,,N,665927.0,310 FAIRVIEW AVE,PONCA CITY,OK,74601,,KAY,1900331933,"R.T.\'S FAMILY DISCOUNT PHARMACY, INC.",TROY SIMONS,,STILLWATER,OK,
2702,2702,,,2319 W EDISON ST,,TULSA,OK,74127,,,,,,,,,,,,Active,GILCREASE HILLS LIQUOR,"2319 W Edison St, Tulsa, OK, 74127",36.161278,-96.01867,POINT (-96.01867 36.161278),Yes,,Osage,Osage Reservation,,,New Retailer,Independent,,,N,1411852.0,2319 W EDISON ST,TULSA,OK,74127,,OSAGE,,,,,,,
2703,2703,,,201 E CENTRAL BLVD,,ANADARKO,OK,73005,,,,,,,,,,,,Active,GRIFFITHS PACKAGE STORE,"201 E Central Blvd, Anadarko, OK, 73005",35.0729338,-98.2417743,POINT (-98.2417743 35.0729338),Yes,,Kiowa-Comanche-Apache-Ft Sill Apache/Caddo-Wichita-Delaware,Kiowa-Comanche-Apache-Ft Sill Apache/Caddo-Wichita-Delaware joint-use OTSA,,,New Retailer,Independent,,,N,1411859.0,201 E CENTRAL BLVD,ANADARKO,OK,73005,,CADDO,,,,,,,
2704,2704,,,822 S 14TH ST,,PONCA CITY,OK,74601,,,,,,,,,,,,Active,SOUTH AVENUE LIQUOR,"822 S 14th St, Ponca City, OK, 74601",36.69536,-97.067482,POINT (-97.067482 36.69536),Yes,,Kaw/Ponca,Kaw/Ponca joint-use OTSA,,,New Retailer,Independent,,,N,7539401.0,822 S 14TH ST,PONCA CITY,OK,74601,,KAY,,,,,,,
2708,2708,,,808 W PETREE RD,,ANADARKO,OK,73005,,,,,,,,,,,,Active,BETTER SPIRITS,"808 W Petree Rd, Anadarko, OK, 73005",35.05788,-98.22495,POINT (-98.22495000000001 35.05788),Yes,,Kiowa-Comanche-Apache-Ft Sill Apache/Caddo-Wichita-Delaware,Kiowa-Comanche-Apache-Ft Sill Apache/Caddo-Wichita-Delaware joint-use OTSA,,,New Retailer,Independent,,,N,7437787.0,808 W PETREE RD,ANADARKO,OK,73005,,CADDO,3612310593,BETTER SPIRITS,,,,,
2710,2710,,,2005 N 14TH ST STE 105,,PONCA CITY,OK,74601,,,,,,,,,,,,Active,PLAZA WINE & SPIRITS,"2005 N 14th St Ste 105, Ponca City, OK, 74601",36.726288000000004,-97.06721,POINT (-97.06721 36.726288),Yes,,Kaw/Ponca,Kaw/Ponca joint-use OTSA,,,New Retailer,Independent,,,N,7435701.0,2005 N 14TH ST STE 105,PONCA CITY,OK,74601,,KAY,,,,,,,
2715,2715,,,512 E 1ST ST,,HOMINY,OK,74035,,,,,,,,,,,,Active,MARTINAS WINE & SPIRITS,"512 E 1st St, Hominy, OK, 74035",36.4144018,-96.3882136,POINT (-96.3882136 36.4144018),Yes,,Osage,Osage Reservation,,,New Retailer,Independent,,,N,7488274.0,512 E 1ST ST,HOMINY,OK,74035,,OSAGE,,,,,,,
2716,2716,,,1199 JOHN DAHL AVE,,PAWHUSKA,OK,74056,,,,,,,,,,,,Active,YE OLDE GROG SHOPPE,"1199 John Dahl Ave, Pawhuska, OK, 74056",36.669994700000004,-96.31461159999999,POINT (-96.31461160000001 36.6699947),Yes,,Osage,Osage Reservation,,,New Retailer,Independent,,,N,7488276.0,1199 JOHN DAHL AVE,PAWHUSKA,OK,74056,,OSAGE,,,,,,,
2717,2717,,,1900 N UNION ST,,PONCA CITY,OK,74601,,,,,,,,,,,,Active,OSCAR & ESSIES,"1900 N Union St, Ponca City, OK, 74601",36.724564,-97.085205,POINT (-97.085205 36.724564),Yes,,Kaw/Ponca,Kaw/Ponca joint-use OTSA,,,New Retailer,Independent,,,N,7488496.0,1900 N UNION ST,PONCA CITY,OK,74601,,KAY,4812278766,"OSCAR & ESSIE\'S, LLC",,,,,
2721,2721,,,43 COUNTY ROAD 2706,,BARTLESVILLE,OK,74003,,,,,,,,,,,,Active,HIGHWAY 123 SMOKE SHOP,"43 County Road 2706, Bartlesville, OK, 74003",36.7346226,-96.0043878,POINT (-96.0043878 36.7346226),Yes,,Osage,Osage Reservation,,,New Retailer,Independent,,,N,1977977.0,43 COUNTY ROAD 2706,BARTLESVILLE,OK,74003,,OSAGE,,,,,,,
2729,2729,,,702 E CENTRAL BLVD,,ANADARKO,OK,73005,,,,,,,,,,,,Active,JJS SMOKE SHOP,"702 E Central Blvd, Anadarko, OK, 73005",35.072403,-98.253204,POINT (-98.253204 35.072403),Yes,,Kiowa-Comanche-Apache-Ft Sill Apache/Caddo-Wichita-Delaware,Kiowa-Comanche-Apache-Ft Sill Apache/Caddo-Wichita-Delaware joint-use OTSA,,,New Retailer,Independent,,,N,984000.0,702 E CENTRAL BLVD,ANADARKO,OK,73005,,CADDO,,,,,,,
2731,2731,,,2300 N 14TH ST,,PONCA CITY,OK,74601,,,,,,,,,,,,Active,WALGREENS,"2300 N 14th St, Ponca City, OK, 74601",36.731476,-97.06724,POINT (-97.06724 36.731476),Yes,,Kaw/Ponca,Kaw/Ponca joint-use OTSA,,,New Retailer,Walgreens Co,Deerfield,IL,N,1767244.0,2300 N 14TH ST,PONCA CITY,OK,74601,,KAY,,,,,,,
2736,2736,,,1000 E PROSPECT AVE,,PONCA CITY,OK,74601,,,,,,,,,,,,Active,ALDI FOOD STORE,"1000 E Prospect Ave, Ponca City, OK, 74601",36.73875,-97.09438,POINT (-97.09438 36.73875),Yes,,Kaw/Ponca,Kaw/Ponca joint-use OTSA,,,New Retailer,Aldi Inc/Denton Div,Denton,TX,N,2159675.0,1000 E PROSPECT AVE,PONCA CITY,OK,74601,,KAY,,,,,,,
2740,2740,,,2323 W EDISON ST,,TULSA,OK,74127,,,,,,,,,,,,Active,WALGREENS,"2323 W Edison St, Tulsa, OK, 74127",36.161278,-96.01869,POINT (-96.01869000000001 36.161278),Yes,,Osage,Osage Reservation,,,New Retailer,Walgreens Co,Deerfield,IL,N,356183.0,2323 W EDISON ST,TULSA,OK,74127,,OSAGE,,,,,,,
2741,2741,,,24413 STATE HIGHWAY 20,,HOMINY,OK,74035,,,,,,,,,,,,Active,BIG DEER SMOKE SHOP,"24413 State Highway 20, Hominy, OK, 74035",36.4113783,-96.4157435,POINT (-96.4157435 36.4113783),Yes,,Osage,Osage Reservation,,,New Retailer,Independent,,,N,7400761.0,24413 STATE HIGHWAY 20,HOMINY,OK,74035,,OSAGE,3512292321,BIG DEER SMOKE SHOP LLC,TERESA SHADLOW,,HOMINY,OK,
2747,2747,,,2906 N 14TH ST,,PONCA CITY,OK,74601,,,,,,,,,,,,Active,HEALTH WORLD NATURAL FOODS,"2906 N 14th St, Ponca City, OK, 74601",36.737328000000005,-97.067276,POINT (-97.06727600000001 36.73732800000001),Yes,,Kaw/Ponca,Kaw/Ponca joint-use OTSA,,,New Retailer,Independent,,,N,2136938.0,2906 N 14TH ST,PONCA CITY,OK,74601,,KAY,,,,,,,
2763,2763,,,1443 N ROSEDALE AVE,,TULSA,OK,74127,,,,,,,,,,,,Active,FIREWALKER,"1443 N Rosedale Ave, Tulsa, OK, 74127",36.175404,-96.00771999999999,POINT (-96.00772000000001 36.175404),Yes,,Osage,Osage Reservation,,,New Retailer,Independent,,,N,1468074.0,1443 N ROSEDALE AVE,TULSA,OK,74127,,OSAGE,1900623469,"FIREWALKER, INC.",LINDA CARTER,,PAWHUSKA,OK,
2768,2768,,,15 W MAIN ST,,CARNEGIE,OK,73015,,,,,,,,,,,,Active,LIBERTY DRUG,"15 W Main St, Carnegie, OK, 73015",35.1063301,-98.60409659999999,POINT (-98.60409660000001 35.1063301),Yes,,Kiowa-Comanche-Apache-Ft Sill Apache/Caddo-Wichita-Delaware,Kiowa-Comanche-Apache-Ft Sill Apache/Caddo-Wichita-Delaware joint-use OTSA,,,New Retailer,Liberty Drug Inc,Chickasha,OK,N,655450.0,15 W MAIN ST,CARNEGIE,OK,73015,,CADDO,1900499797,"LIBERTY DRUG, INC.",JOSEPH D GREEN,,CHICKASHA,OK,
2773,2773,,,236 E MAIN ST,,PAWHUSKA,OK,74056,,,,,,,,,,,,Active,HOMETOWN FOODS,"236 E Main St, Pawhuska, OK, 74056",36.6626661,-96.336815,POINT (-96.336815 36.6626661),Yes,,Osage,Osage Reservation,,,New Retailer,CVM Inc,Van Buren,AR,N,98037.0,236 E MAIN ST,PAWHUSKA,OK,74056,,OSAGE,1912118331,HOMETOWN FOODS INC.,JEFF HOLLEY,,CRESCENT,OK,
2808,2808,,,1101 E PROSPECT AVE,,PONCA CITY,OK,74601,,,,,,,,,,,,Active,WALMART SUPERCENTER,"1101 E Prospect Ave, Ponca City, OK, 74601",36.738575,-97.07254,POINT (-97.07254 36.738575),Yes,,Kaw/Ponca,Kaw/Ponca joint-use OTSA,,,New Retailer,Walmart Supercenter,Bentonville,AR,N,377990.0,1101 E PROSPECT AVE,PONCA CITY,OK,74601,,KAY,3400676484,WAL-MART SUPERCENTER,THE CORPORATION COMPANY,,OKLAHOMA CITY,OK,
2819,2819,,,602 W CENTRAL BLVD,,ANADARKO,OK,73005,,,,,,,,,,,,Active,WILLIAMS,"602 W Central Blvd, Anadarko, OK, 73005",35.072122,-98.2521495,POINT (-98.2521495 35.072122),Yes,,Kiowa-Comanche-Apache-Ft Sill Apache/Caddo-Wichita-Delaware,Kiowa-Comanche-Apache-Ft Sill Apache/Caddo-Wichita-Delaware joint-use OTSA,,,New Retailer,WenJeSt Corp,Tuttle,OK,N,164684.0,602 W CENTRAL BLVD,ANADARKO,OK,73005,,CADDO,1900069956,WILLIAM\'S,,,,,
2820,2820,,,1201 W PETREE RD,,ANADARKO,OK,73005,,,,,,,,,,,,Active,WALMART SUPERCENTER,"1201 W Petree Rd, Anadarko, OK, 73005",35.060077899999996,-98.26215129999999,POINT (-98.2621513 35.0600779),Yes,,Kiowa-Comanche-Apache-Ft Sill Apache/Caddo-Wichita-Delaware,Kiowa-Comanche-Apache-Ft Sill Apache/Caddo-Wichita-Delaware joint-use OTSA,,,New Retailer,Walmart Supercenter,Bentonville,AR,N,885338.0,1201 W PETREE RD,ANADARKO,OK,73005,,CADDO,3400676484,WAL-MART SUPERCENTER,THE CORPORATION COMPANY,,OKLAHOMA CITY,OK,
2821,2821,,,110 E MAIN ST,,CARNEGIE,OK,73015,,,,,,,,,,,,Active,SUPER C MART,"110 E Main St, Carnegie, OK, 73015",35.105717,-98.600746,POINT (-98.600746 35.105717),Yes,,Kiowa-Comanche-Apache-Ft Sill Apache/Caddo-Wichita-Delaware,Kiowa-Comanche-Apache-Ft Sill Apache/Caddo-Wichita-Delaware joint-use OTSA,,,New Retailer,Super C Mart Inc,Noble,OK,N,245873.0,110 E MAIN ST,CARNEGIE,OK,73015,,CADDO,1900301537,"SUPER C MART, INC.",ROD CARVER,,NOBLE,OK,
2822,2822,,,904 S 4TH ST,,PONCA CITY,OK,74601,,,,,,,,,,,,Active,FOOD PYRAMID,"904 S 4th St, Ponca City, OK, 74601",36.6947847,-97.08072920000001,POINT (-97.08072919999999 36.6947847),Yes,,Kaw/Ponca,Kaw/Ponca joint-use OTSA,,,New Retailer,RPCS Inc,Rogersville,MO,N,98736.0,904 S 4TH ST,PONCA CITY,OK,74601,,KAY,2312146361,FOOD PYRAMID,THE CORPORATION COMPANY,,OKLAHOMA CITY,OK,
2826,2826,,,2415 N MAIN ST,,MIAMI,OK,74354,,,,,,,,,,,,Active,WALMART SUPERCENTER,"2415 N Main St, Miami, OK, 74354",36.904214200000006,-94.8789696,POINT (-94.8789696 36.90421420000001),Yes,,Miami/Peoria,Miami/Peoria joint-use OTSA,,,New Retailer,Walmart Supercenter,Bentonville,AR,N,1535730.0,2415 N MAIN ST,MIAMI,OK,74354,,OTTAWA,3400676484,WAL-MART SUPERCENTER,THE CORPORATION COMPANY,,OKLAHOMA CITY,OK,
2838,2838,,,2005 N 14TH ST STE 110,,PONCA CITY,OK,74601,,,,,,,,,,,,Active,FOOD PYRAMID,"2005 N 14th St Ste 110, Ponca City, OK, 74601",36.726288000000004,-97.06721,POINT (-97.06721 36.726288),Yes,,Kaw/Ponca,Kaw/Ponca joint-use OTSA,,,New Retailer,RPCS Inc,Rogersville,MO,N,515279.0,2005 N 14TH ST STE 110,PONCA CITY,OK,74601,,KAY,2312146361,FOOD PYRAMID,THE CORPORATION COMPANY,,OKLAHOMA CITY,OK,
2852,2852,,,2407 N MAIN ST,,MIAMI,OK,74354,,,,,,,,,,,,Active,MURPHY USA,"2407 N Main St, Miami, OK, 74354",36.9040438,-94.8779957,POINT (-94.8779957 36.9040438),Yes,,Miami/Peoria,Miami/Peoria joint-use OTSA,,,New Retailer,Murphy USA/Div 10430,El Dorado,AR,N,1730193.0,2407 N MAIN ST,MIAMI,OK,74354,,OTTAWA,2300518919,MURPHY USA,THE CORPORATION COMPANY,,OKLAHOMA CITY,OK,
2869,2869,,,604 E PROSPECT AVE,,PONCA CITY,OK,74601,,,,,,,,,,,,Active,J & K QUICK LUBE PHILLIPS 66,"604 E Prospect Ave, Ponca City, OK, 74601",36.738301899999996,-97.07654740000001,POINT (-97.0765474 36.7383019),Yes,,Kaw/Ponca,Kaw/Ponca joint-use OTSA,,,New Retailer,Independent,,,Y,2770322.0,604 E PROSPECT AVE,PONCA CITY,OK,74601,,KAY,,,,,,,
2875,2875,,,1115 E PROSPECT AVE,,PONCA CITY,OK,74601,,,,,,,,,,,,Active,MURPHY USA,"1115 E Prospect Ave, Ponca City, OK, 74601",36.73857,-97.0723,POINT (-97.0723 36.73857),Yes,,Kaw/Ponca,Kaw/Ponca joint-use OTSA,,,New Retailer,Murphy USA/Div 10430,El Dorado,AR,N,1522862.0,1115 E PROSPECT AVE,PONCA CITY,OK,74601,,KAY,2300518919,MURPHY USA,THE CORPORATION COMPANY,,OKLAHOMA CITY,OK,
2916,2916,,,2101 E MAIN ST,,PAWHUSKA,OK,74056,,,,,,,,,,,,Active,KUM & GO,"2101 E Main St, Pawhuska, OK, 74056",36.6694517,-96.3145485,POINT (-96.3145485 36.6694517),Yes,,Osage,Osage Reservation,,,New Retailer,Kum & Go LLC,West Des Moines,IA,N,1631404.0,2101 E MAIN ST,PAWHUSKA,OK,74056,,OSAGE,,,,,,,
2917,2917,,,2911 N UNION ST,,PONCA CITY,OK,74601,,,,,,,,,,,,Active,STOP N GO,"2911 N Union St, Ponca City, OK, 74601",36.738026,-97.085266,POINT (-97.085266 36.738026),Yes,,Kaw/Ponca,Kaw/Ponca joint-use OTSA,,,New Retailer,Independent,,,N,673242.0,2911 N UNION ST,PONCA CITY,OK,74601,,KAY,1900245587,"STOP N\' GO, INC.",WILLIAM S. MURPHY  JR,,OKLAHOMA CITY,OK,
2921,2921,,,301 E MAIN ST,,PAWHUSKA,OK,74056,,,,,,,,,,,,Active,PAWHUSKA SHORT STOP,"301 E Main St, Pawhuska, OK, 74056",36.6632406,-96.3354855,POINT (-96.3354855 36.6632406),Yes,,Osage,Osage Reservation,,,New Retailer,Independent,,,N,3352575.0,301 E MAIN ST,PAWHUSKA,OK,74056,,OSAGE,,,,,,,
2923,2923,,,2500 LAKE RD,,PONCA CITY,OK,74604,,,,,,,,,,,,Active,TRIPLE T QUICK STOP,"2500 Lake Rd, Ponca City, OK, 74604",36.70935,-97.05127,POINT (-97.05127 36.70935),Yes,,Kaw/Ponca,Kaw/Ponca joint-use OTSA,,,New Retailer,Thompson Oil Co,Ponca City,OK,N,907823.0,2500 LAKE RD,PONCA CITY,OK,74604,,KAY,3512283094,"TRIPLE T QUICK STOP, LLC",TOMMY HORTON,,THOMAS,OK,
2925,2925,,,109 W OSAGE ST,,WYNONA,OK,74084,,,,,,,,,,,,Active,WYNONA STOP BUY,"109 W Osage St, Wynona, OK, 74084",36.5461407,-96.32837070000001,POINT (-96.32837069999999 36.5461407),Yes,,Osage,Osage Reservation,,,New Retailer,Independent,,,N,685015.0,109 W OSAGE ST,WYNONA,OK,74084,,OSAGE,3512520416,"WYNONA STOP BUY, LLC",RENEE KENNEDY,,WYNONA,OK,
2926,2926,,,10 E 4TH ST,,CARNEGIE,OK,73015,,,,,,,,,,,,Active,DROVE THRU,"10 E 4th St, Carnegie, OK, 73015",35.1015536,-98.60286059999999,POINT (-98.6028606 35.1015536),Yes,,Kiowa-Comanche-Apache-Ft Sill Apache/Caddo-Wichita-Delaware,Kiowa-Comanche-Apache-Ft Sill Apache/Caddo-Wichita-Delaware joint-use OTSA,,,New Retailer,Independent,,,N,7517119.0,10 E 4TH ST,CARNEGIE,OK,73015,,CADDO,3512549640,DROVE THRU,"VANDELAY INDUSTRIES, LLC",,CARNEGIE,OK,
2933,2933,,,320 W GRAND AVE,,PONCA CITY,OK,74601,,,,,,,,,,,,Active,SHORT STOP,"320 W Grand Ave, Ponca City, OK, 74601",36.703576899999995,-97.08752679999999,POINT (-97.08752680000001 36.7035769),Yes,,Kaw/Ponca,Kaw/Ponca joint-use OTSA,,,New Retailer,Independent,,,N,1544499.0,320 W GRAND AVE,PONCA CITY,OK,74601,,KAY,1900319035,SHORT STOP,JAMES H. FERRIS,,TULSA,OK,
2937,2937,,,64470 US HIGHWAY 60,,PONCA CITY,OK,74604,,,,,,,,,,,,Active,OSAGE CASINO C STORE,"64470 Us Highway 60, Ponca City, OK, 74604",36.6805515,-97.0414442,POINT (-97.0414442 36.6805515),Yes,,Osage,Osage Reservation,,,New Retailer,Independent,,,N,7295257.0,64470 US HIGHWAY 60,PONCA CITY,OK,74604,,OSAGE,,,,,,,
2945,2945,,,1613 W SOUTH AVE,,PONCA CITY,OK,74601,,,,,,,,,,,,Active,ONCUE EXPRESS,"1613 W South Ave, Ponca City, OK, 74601",36.6956019,-97.1028828,POINT (-97.1028828 36.6956019),Yes,,Kaw/Ponca,Kaw/Ponca joint-use OTSA,,,New Retailer,OnCue Marketing LLC,Stillwater,OK,N,431934.0,1613 W SOUTH AVE,PONCA CITY,OK,74601,,KAY,,,,,,,
2948,2948,,,801 S 14TH ST,,PONCA CITY,OK,74601,,,,,,,,,,,,Active,STOP N GO,"801 S 14th St, Ponca City, OK, 74601",36.695777299999996,-97.0666928,POINT (-97.0666928 36.6957773),Yes,,Kaw/Ponca,Kaw/Ponca joint-use OTSA,,,New Retailer,Independent,,,N,2034859.0,801 S 14TH ST,PONCA CITY,OK,74601,,KAY,1900245587,"STOP N\' GO, INC.",WILLIAM S. MURPHY  JR,,OKLAHOMA CITY,OK,
2949,2949,,,1000 S PINE ST,,PONCA CITY,OK,74601,,,,,,,,,,,,Active,PHILLIPS 66,"1000 S Pine St, Ponca City, OK, 74601",36.693747200000004,-97.0919446,POINT (-97.09194460000001 36.6937472),Yes,,Kaw/Ponca,Kaw/Ponca joint-use OTSA,,,New Retailer,Independent,,,Y,712574.0,1000 S PINE ST,PONCA CITY,OK,74601,,KAY,,,,,,,
2951,2951,,,502 E CENTRAL BLVD,,ANADARKO,OK,73005,,,,,,,,,,,,Active,GAS MART,"502 E Central Blvd, Anadarko, OK, 73005",35.072118599999996,-98.2366969,POINT (-98.2366969 35.0721186),Yes,,Kiowa-Comanche-Apache-Ft Sill Apache/Caddo-Wichita-Delaware,Kiowa-Comanche-Apache-Ft Sill Apache/Caddo-Wichita-Delaware joint-use OTSA,,,New Retailer,Independent,,,N,96697.0,502 E CENTRAL BLVD,ANADARKO,OK,73005,,CADDO,,,,,,,
2953,2953,,,16457 STATE HIGHWAY 123,,BARTLESVILLE,OK,74003,,,,,,,,,,,,Active,OSAGE HILLS EXPRESS,"16457 State Highway 123, Bartlesville, OK, 74003",36.7328695,-96.0059247,POINT (-96.00592469999999 36.7328695),Yes,,Osage,Osage Reservation,,,New Retailer,Independent,,,N,473546.0,16457 STATE HIGHWAY 123,BARTLESVILLE,OK,74003,,OSAGE,1900426941,"OSAGE HILLS EXPRESS, INC.",LINDA THURMAN,,BARTLESVILLE,OK,
2955,2955,,,11249 HIGHWAY 56,,OKEMAH,OK,74859,,,,,,,,,,,,Active,VALERO,"11249 Highway 56, Okemah, OK, 74859",35.379073999999996,-96.459,POINT (-96.459 35.379074),Yes,,Creek/Seminole,Creek/Seminole joint-use OTSA,,,New Retailer,Independent,,,Y,7534019.0,11249 HIGHWAY 56,OKEMAH,OK,74859,,SEMINOLE,2300375411,VALERO MARKETING COMPANY,SECRETARY OF STATE,,OKC,OK,
2957,2957,,,2301F W EDISON ST,,TULSA,OK,74127,,,,,,,,,,,,Active,G & A STOP,"2301F W Edison St, Tulsa, OK, 74127",36.161278,-96.018555,POINT (-96.01855500000001 36.161278),Yes,,Osage,Osage Reservation,,,New Retailer,Independent,,,N,248646.0,2301F W EDISON ST,TULSA,OK,74127,,OSAGE,3512710011,G & S TRANSPORT  LLC,SHAWN TREAT,,ADA,OK,
2958,2958,,,3 W 4TH ST,,CARNEGIE,OK,73015,,,,,,,,,,,,Active,TEXACO SUPER QUICK STOP,"3 W 4th St, Carnegie, OK, 73015",35.10185,-98.60415,POINT (-98.60415 35.10185),Yes,,Kiowa-Comanche-Apache-Ft Sill Apache/Caddo-Wichita-Delaware,Kiowa-Comanche-Apache-Ft Sill Apache/Caddo-Wichita-Delaware joint-use OTSA,,,New Retailer,Independent,,,Y,1440639.0,3 W 4TH ST,CARNEGIE,OK,73015,,CADDO,,,,,,,
2963,2963,,,103 W CENTRAL BLVD,,ANADARKO,OK,73005,,,,,,,,,,,,Active,BIG DS II DRIVE THRU,"103 W Central Blvd, Anadarko, OK, 73005",35.072613,-98.243515,POINT (-98.243515 35.072613),Yes,,Kiowa-Comanche-Apache-Ft Sill Apache/Caddo-Wichita-Delaware,Kiowa-Comanche-Apache-Ft Sill Apache/Caddo-Wichita-Delaware joint-use OTSA,,,New Retailer,Independent,,,N,1649927.0,103 W CENTRAL BLVD,ANADARKO,OK,73005,,CADDO,,,,,,,
2964,2964,,,819 S MISSION ST,,ANADARKO,OK,73005,,,,,,,,,,,,Active,KIMS COUNTRY MART,"819 S Mission St, Anadarko, OK, 73005",35.0669,-98.2514,POINT (-98.2514 35.0669),Yes,,Kiowa-Comanche-Apache-Ft Sill Apache/Caddo-Wichita-Delaware,Kiowa-Comanche-Apache-Ft Sill Apache/Caddo-Wichita-Delaware joint-use OTSA,,,New Retailer,Independent,,,N,641182.0,819 S MISSION ST,ANADARKO,OK,73005,,CADDO,,,,,,,
2966,2966,,,421 E HARTFORD AVE,,PONCA CITY,OK,74601,,,,,,,,,,,,Active,CASEYS GENERAL STORE,"421 E Hartford Ave, Ponca City, OK, 74601",36.7244734,-97.079048,POINT (-97.079048 36.7244734),Yes,,Kaw/Ponca,Kaw/Ponca joint-use OTSA,,,New Retailer,Caseys Gen Stores/B Green,Ankeny,IA,N,7585645.0,421 E HARTFORD AVE,PONCA CITY,OK,74601,,KAY,2312292881,CASEY\'S GENERAL STORE,THE CORPORATION COMPANY,,OKLAHOMA CITY,OK,
2968,2968,,,415 E CENTRAL BLVD,,ANADARKO,OK,73005,,,,,,,,,,,,Active,BIG DS CORNER SPOT,"415 E Central Blvd, Anadarko, OK, 73005",35.0729658,-98.23741650000001,POINT (-98.23741649999999 35.0729658),Yes,,Kiowa-Comanche-Apache-Ft Sill Apache/Caddo-Wichita-Delaware,Kiowa-Comanche-Apache-Ft Sill Apache/Caddo-Wichita-Delaware joint-use OTSA,,,New Retailer,Independent,,,N,1820130.0,415 E CENTRAL BLVD,ANADARKO,OK,73005,,CADDO,3612111214,BIG D\'S CORNER SPOT,,,,,
2969,2969,,,512 E HIGHWAY 62,,VERDEN,OK,73092,,,,,,,,,,,,Active,BURTSCHIS CONOCO,"512 E Highway 62, Verden, OK, 73092",35.083195,-98.093994,POINT (-98.093994 35.083195),Yes,,Kiowa-Comanche-Apache-Ft Sill Apache/Caddo-Wichita-Delaware,Kiowa-Comanche-Apache-Ft Sill Apache/Caddo-Wichita-Delaware joint-use OTSA,,,New Retailer,Independent,,,Y,1951438.0,512 E HIGHWAY 62,VERDEN,OK,73092,,CADDO,,,,,,,
2970,2970,,,951 W ROGERS BLVD,,SKIATOOK,OK,74070,,,,,,,,,,,,Active,KUM & GO,"951 W Rogers Blvd, Skiatook, OK, 74070",36.36857,-96.013756,POINT (-96.013756 36.36857),Yes,,Osage,Osage Reservation,,,New Retailer,Kum & Go LLC,West Des Moines,IA,N,546372.0,951 W ROGERS BLVD,SKIATOOK,OK,74070,,OSAGE,,,,,,,
2971,2971,,,102 1ST ST,,VERDEN,OK,73092,,,,,,,,,,,,Active,ELLIS CORNER STORE,"102 1st St, Verden, OK, 73092",35.083393,-98.0856,POINT (-98.0856 35.083393),Yes,,Kiowa-Comanche-Apache-Ft Sill Apache/Caddo-Wichita-Delaware,Kiowa-Comanche-Apache-Ft Sill Apache/Caddo-Wichita-Delaware joint-use OTSA,,,New Retailer,Independent,,,N,950302.0,102 1ST ST,VERDEN,OK,73092,,GRADY,,,,,,,
2972,2972,,,11971 LAKE RD,,SPERRY,OK,74073,,,,,,,,,,,,Active,WILSON TALL CHIEF STORE,"11971 Lake Rd, Sperry, OK, 74073",36.325126399999995,-96.09393309999999,POINT (-96.0939331 36.3251264),Yes,,Osage,Osage Reservation,,,New Retailer,Independent,,,N,7513917.0,11971 LAKE RD,SPERRY,OK,74073,,OSAGE,,,,,,,
2973,2973,,,1901 N 14TH ST,,PONCA CITY,OK,74601,,,,,,,,,,,,Active,K & G STORES,"1901 N 14th St, Ponca City, OK, 74601",36.724194,-97.06723000000001,POINT (-97.06723 36.724194),Yes,,Kaw/Ponca,Kaw/Ponca joint-use OTSA,,,New Retailer,Independent,,,N,413859.0,1901 N 14TH ST,PONCA CITY,OK,74601,,KAY,2312035133,"K & G STORES, INC.",SECRETARY OF STATE,,OKLAHOMA CITY,OK,
2974,2974,,,10330 N 68TH WEST AVE,,SPERRY,OK,74073,,,,,,,,,,,,Active,BETTYS COUNTRY STORE & GRILL,"10330 N 68th West Ave, Sperry, OK, 74073",36.303902,-96.068,POINT (-96.068 36.303902),Yes,,Osage,Osage Reservation,,,New Retailer,Independent,,,N,1941619.0,10330 N 68TH WEST AVE,SPERRY,OK,74073,,OSAGE,3512034513,"BETTY\'S COUNTRY STORE & GRILL, L.L.C.",BETTY POLLOCK,,SPERRY,OK,
2976,2976,,,23939 PRUE RD,,PRUE,OK,74060,,,,,,,,,,,,Active,KENS C STORE & BAIT,"23939 Prue Rd, Prue, OK, 74060",36.2267891,-96.1987133,POINT (-96.19871329999999 36.2267891),Yes,,Osage,Osage Reservation,,,New Retailer,Independent,,,N,447863.0,23939  RD,PRUE,OK,74060,,OSAGE,,,,,,,
2977,2977,,,501 W HIGHLAND AVE,,PONCA CITY,OK,74601,,,,,,,,,,,,Active,STOP N GO,"501 W Highland Ave, Ponca City, OK, 74601",36.7100237,-97.0894721,POINT (-97.08947209999999 36.7100237),Yes,,Kaw/Ponca,Kaw/Ponca joint-use OTSA,,,New Retailer,Independent,,,N,161810.0,501 W HIGHLAND AVE,PONCA CITY,OK,74601,,KAY,1900245587,"STOP N\' GO, INC.",WILLIAM S. MURPHY  JR,,OKLAHOMA CITY,OK,
2978,2978,,,106 S BROADWAY ST,,CARNEGIE,OK,73015,,,,,,,,,,,,Active,FARMERS CO OP FARM,"106 S Broadway St, Carnegie, OK, 73015",35.108948,-98.604866,POINT (-98.604866 35.108948),Yes,,Kiowa-Comanche-Apache-Ft Sill Apache/Caddo-Wichita-Delaware,Kiowa-Comanche-Apache-Ft Sill Apache/Caddo-Wichita-Delaware joint-use OTSA,,,New Retailer,Independent,,,N,7552249.0,106 S BROADWAY ST,CARNEGIE,OK,73015,,CADDO,,,,,,,
2984,2984,,,3001 N 14TH ST,,PONCA CITY,OK,74601,,,,,,,,,,,,Active,JIFFY TRIP,"3001 N 14th St, Ponca City, OK, 74601",36.738879,-97.066686,POINT (-97.066686 36.738879),Yes,,Kaw/Ponca,Kaw/Ponca joint-use OTSA,,,New Retailer,Hammer Williams Co,Enid,OK,N,7611128.0,3001 N 14TH ST,PONCA CITY,OK,74601,,KAY,1900231466,JIFFY TRIP STORES INC.,LARRY HAMMER,,CHEROKEE,OK,
2989,2989,,,401 NE 1ST ST,,ANADARKO,OK,73005,,,,,,,,,,,,Active,STEP N FETCHUM,"401 NE 1st St, Anadarko, OK, 73005",35.078403,-98.24367,POINT (-98.24366999999999 35.078403),Yes,,Kiowa-Comanche-Apache-Ft Sill Apache/Caddo-Wichita-Delaware,Kiowa-Comanche-Apache-Ft Sill Apache/Caddo-Wichita-Delaware joint-use OTSA,,,New Retailer,Independent,,,N,172339.0,401 NE 1ST ST,ANADARKO,OK,73005,,CADDO,,,,,,,
2992,2992,,,1247 N OSAGE DR,,TULSA,OK,74106,,,,,,,,,,,,Active,CORNER CHECK OUT,"1247 N Osage Dr, Tulsa, OK, 74106",36.17279,-96.00191,POINT (-96.00191 36.17279),Yes,,Osage,Osage Reservation,,,New Retailer,Independent,,,N,653918.0,1247 N OSAGE DR,TULSA,OK,74106,,OSAGE,1912441359,"CORNER CHECK OUT, INC.",MD TANIMUL HAQ,,BROKEN ARROW,OK,
2994,2994,,,15179 STATE HIGHWAY 9,,ANADARKO,OK,73005,,,,,,,,,,,,Active,APACHE MARKET,"15179 State Highway 9, Anadarko, OK, 73005",35.045441,-98.3320144,POINT (-98.33201440000001 35.045441),Yes,,Kiowa-Comanche-Apache-Ft Sill Apache/Caddo-Wichita-Delaware,Kiowa-Comanche-Apache-Ft Sill Apache/Caddo-Wichita-Delaware joint-use OTSA,,,New Retailer,Independent,,,N,7588439.0,15179 STATE HIGHWAY 9,ANADARKO,OK,73005,,CADDO,,,,,,,
2999,2999,,,36625 HIGHWAY 270,,WEWOKA,OK,74884,,,,,,,,,,,,Active,SEMINOLE NATION TRADING POST,"36625 Highway 270, Wewoka, OK, 74884",35.121323,-96.47869,POINT (-96.47869 35.121323),Yes,,Creek/Seminole,Creek/Seminole joint-use OTSA,,,New Retailer,Independent,,,N,1522175.0,36625 HIGHWAY 270,WEWOKA,OK,74884,,SEMINOLE,,,,,,,
3000,3000,,,1101 JOHN DAHL AVE,,PAWHUSKA,OK,74056,,,,,,,,,,,,Active,CASEYS GENERAL STORE,"1101 John Dahl Ave, Pawhuska, OK, 74056",36.668592700000005,-96.3144738,POINT (-96.3144738 36.66859270000001),Yes,,Osage,Osage Reservation,,,New Retailer,Caseys Gen Stores/Wittenmyer,Ankeny,IA,N,7568652.0,1101 JOHN DAHL AVE,PAWHUSKA,OK,74056,,OSAGE,2312292881,CASEY\'S GENERAL STORE,THE CORPORATION COMPANY,,OKLAHOMA CITY,OK,
3001,3001,,,1840 N MAIN ST,,MIAMI,OK,74354,,,,,,,,,,,,Active,PETES,"1840 N Main St, Miami, OK, 74354",36.89591,-94.87749000000001,POINT (-94.87748999999999 36.89591),Yes,,Miami/Peoria,Miami/Peoria joint-use OTSA,,,New Retailer,Petes Corp,Parsons,KS,N,399077.0,1840 N MAIN ST,MIAMI,OK,74354,,OTTAWA,3612389794,PETES ROUND UP,,,,,
3002,3002,,,3305 N 14TH ST,,PONCA CITY,OK,74601,,,,,,,,,,,,Active,ONCUE EXPRESS,"3305 N 14th St, Ponca City, OK, 74601",36.7431695,-97.0669027,POINT (-97.0669027 36.7431695),Yes,,Kaw/Ponca,Kaw/Ponca joint-use OTSA,,,New Retailer,OnCue Marketing LLC,Stillwater,OK,N,1431689.0,3305 N 14TH ST,PONCA CITY,OK,74601,,KAY,,,,,,,
3003,3003,,,3150 E HIGHWAY 60,,PONCA CITY,OK,74604,,,,,,,,,,,,Active,TRIPLE T QUICK STOP,"3150 E Highway 60, Ponca City, OK, 74604",36.691868,-97.048454,POINT (-97.04845400000001 36.691868),Yes,,Osage,Osage Reservation,,,New Retailer,Thompson Oil Co,Ponca City,OK,N,290225.0,3150 E HIGHWAY 60,PONCA CITY,OK,74604,,OSAGE,3512283094,"TRIPLE T QUICK STOP, LLC",TOMMY HORTON,,THOMAS,OK,
3006,3006,,,10 GOODRICH BLVD,,MIAMI,OK,74354,,,,,,,,,,,,Active,PETES,"10 Goodrich Blvd, Miami, OK, 74354",36.888702,-94.87774,POINT (-94.87774 36.888702),Yes,,Miami/Peoria,Miami/Peoria joint-use OTSA,,,New Retailer,Petes Corp,Parsons,KS,N,208498.0,10 GOODRICH BLVD,MIAMI,OK,74354,,OTTAWA,3612389794,PETES ROUND UP,,,,,
3008,3008,,,101 S SHAWNEE AVE,,CROMWELL,OK,74837,,,,,,,,,,,,Active,CROMWELL GENERAL STORE,"101 S Shawnee Ave, Cromwell, OK, 74837",35.3404,-96.45904,POINT (-96.45904 35.3404),Yes,,Creek/Seminole,Creek/Seminole joint-use OTSA,,,New Retailer,Independent,,,N,473688.0,101 S SHAWNEE AVE,CROMWELL,OK,74837,,SEMINOLE,3512468335,"CROMWELL GENERAL STORE, LLC",JOHNATHAN RUSSELL,,OKLAHOMA CITY,OK,
3009,3009,,,425 S 14TH ST,,PONCA CITY,OK,74601,,,,,,,,,,,,Active,TRIPLE T QUICK STOP,"425 S 14th St, Ponca City, OK, 74601",36.69903660000001,-97.06702879999999,POINT (-97.0670288 36.69903660000001),Yes,,Kaw/Ponca,Kaw/Ponca joint-use OTSA,,,New Retailer,Thompson Oil Co,Ponca City,OK,N,473657.0,425 S 14TH ST,PONCA CITY,OK,74601,,KAY,3512283094,"TRIPLE T QUICK STOP, LLC",TOMMY HORTON,,THOMAS,OK,
3010,3010,,,12301 CROSSTIMERS DR,,SPERRY,OK,74073,,,,,,,,,,,,Active,THE DOCK SHOP,"12301 Crosstimers Dr, Sperry, OK, 74073",36.33295089999999,-96.1004855,POINT (-96.1004855 36.33295089999999),Yes,,Osage,Osage Reservation,,,New Retailer,Independent,,,N,3886889.0,12301 CROSSTIMERS DR,SPERRY,OK,74073,,OSAGE,,,,,,,
3011,3011,,,200 E HIGHLAND AVE,,PONCA CITY,OK,74601,,,,,,,,,,,,Active,SHORT STOP,"200 E Highland Ave, Ponca City, OK, 74601",36.7095065,-97.08196109999999,POINT (-97.0819611 36.7095065),Yes,,Kaw/Ponca,Kaw/Ponca joint-use OTSA,,,New Retailer,Independent,,,N,647203.0,200 E HIGHLAND AVE,PONCA CITY,OK,74601,,KAY,1900319035,SHORT STOP,JAMES H. FERRIS,,TULSA,OK,
3014,3014,,,1006 S MISSION ST,,ANADARKO,OK,73005,,,,,,,,,,,,Active,WATERING HOLE,"1006 S Mission St, Anadarko, OK, 73005",35.066517,-98.25142,POINT (-98.25142 35.066517),Yes,,Kiowa-Comanche-Apache-Ft Sill Apache/Caddo-Wichita-Delaware,Kiowa-Comanche-Apache-Ft Sill Apache/Caddo-Wichita-Delaware joint-use OTSA,,,New Retailer,Independent,,,N,1937618.0,1006 S MISSION ST,ANADARKO,OK,73005,,CADDO,1900295751,"THE WATERING HOLE, INC.",S. DANIEL GEORGE,,SALLISAW,OK,
3019,3019,,,201 W HARTFORD AVE,,PONCA CITY,OK,74601,,,,,,,,,,,,Active,TRIPLE T QUICK STOP,"201 W Hartford Ave, Ponca City, OK, 74601",36.7246373,-97.08579399999999,POINT (-97.08579400000001 36.7246373),Yes,,Kaw/Ponca,Kaw/Ponca joint-use OTSA,,,New Retailer,Thompson Oil Co,Ponca City,OK,N,166249.0,201 W HARTFORD AVE,PONCA CITY,OK,74601,,KAY,3512283094,"TRIPLE T QUICK STOP, LLC",TOMMY HORTON,,THOMAS,OK,
3022,3022,,,305 E 4TH ST,,CARNEGIE,OK,73015,,,,,,,,,,,,Active,HOP & SACK,"305 E 4th St, Carnegie, OK, 73015",35.10181,-98.598366,POINT (-98.598366 35.10181),Yes,,Kiowa-Comanche-Apache-Ft Sill Apache/Caddo-Wichita-Delaware,Kiowa-Comanche-Apache-Ft Sill Apache/Caddo-Wichita-Delaware joint-use OTSA,,,New Retailer,Hop & Sack Inc,Lawton,OK,N,96710.0,305 E 4TH ST,CARNEGIE,OK,73015,,CADDO,1900302066,"HOP & SACK, INC.",GARY L SUMNER,,MARLOW,OK,
3024,3024,,,400 E SOUTH AVE,,PONCA CITY,OK,74601,,,,,,,,,,,,Active,SHORT STOP,"400 E South Ave, Ponca City, OK, 74601",36.69523,-97.08015999999999,POINT (-97.08016000000001 36.69523),Yes,,Kaw/Ponca,Kaw/Ponca joint-use OTSA,,,New Retailer,Independent,,,N,1439952.0,400 E SOUTH AVE,PONCA CITY,OK,74601,,KAY,1900319035,SHORT STOP,JAMES H. FERRIS,,TULSA,OK,
3026,3026,,,9733 SHELL CREEK RD,,SAND SPRINGS,OK,74063,,,,,,,,,,,,Active,STOP N SAVE,"9733 Shell Creek Rd, Sand Springs, OK, 74063",36.194961,-96.10062909999999,POINT (-96.10062910000001 36.194961),Yes,,Osage,Osage Reservation,,,New Retailer,Independent,,,N,978185.0,9733 SHELL CREEK RD,SAND SPRINGS,OK,74063,,OSAGE,1912167645,STOP N SAVE,IRFAN CHAUDHRY,,TULSA,OK,
3028,3028,,,2309 LAKE RD,,PONCA CITY,OK,74604,,,,,,,,,,,,Active,D & K RED BARN,"2309 Lake Rd, Ponca City, OK, 74604",36.709472999999996,-97.05981,POINT (-97.05981 36.709473),Yes,,Kaw/Ponca,Kaw/Ponca joint-use OTSA,,,New Retailer,Independent,,,N,644582.0,2309 LAKE RD,PONCA CITY,OK,74604,,KAY,,,,,,,
3030,3030,,,2337 W EDISON ST,,TULSA,OK,74127,,,,,,,,,,,,Active,FAMILY DOLLAR,"2337 W Edison St, Tulsa, OK, 74127",36.161274,-96.018776,POINT (-96.018776 36.161274),Yes,,Osage,Osage Reservation,,,New Retailer,Family Dollar Stores Inc,Matthews,NC,N,1857488.0,2337 W EDISON ST,TULSA,OK,74127,,OSAGE,,,,,,,
3040,3040,,,106 W CENTRAL BLVD,,ANADARKO,OK,73005,,,,,,,,,,,,Active,FAMILY DOLLAR,"106 W Central Blvd, Anadarko, OK, 73005",35.07242,-98.24351999999999,POINT (-98.24352 35.07242),Yes,,Kiowa-Comanche-Apache-Ft Sill Apache/Caddo-Wichita-Delaware,Kiowa-Comanche-Apache-Ft Sill Apache/Caddo-Wichita-Delaware joint-use OTSA,,,New Retailer,Family Dollar Stores Inc,Matthews,NC,N,867443.0,106 W CENTRAL BLVD,ANADARKO,OK,73005,,CADDO,,,,,,,
3041,3041,,,42 OLD RIVER RD,,PONCA CITY,OK,74604,,,,,,,,,,,,Active,DOLLAR GENERAL,"42 Old River Rd, Ponca City, OK, 74604",36.6799239,-97.0500296,POINT (-97.0500296 36.6799239),Yes,,Osage,Osage Reservation,,,New Retailer,Dollar General/HQ,Goodlettsville,TN,N,7094041.0,42 OLD RIVER RD,PONCA CITY,OK,74604,,OSAGE,2300267776,DOLLAR GENERAL,CORPORATION SERVICE COMPANY,,OKLA CITY,OK,
3043,3043,,,716 W PETREE RD,,ANADARKO,OK,73005,,,,,,,,,,,,Active,DOLLAR TREE,"716 W Petree Rd, Anadarko, OK, 73005",35.0578961,-98.244709,POINT (-98.244709 35.0578961),Yes,,Kiowa-Comanche-Apache-Ft Sill Apache/Caddo-Wichita-Delaware,Kiowa-Comanche-Apache-Ft Sill Apache/Caddo-Wichita-Delaware joint-use OTSA,,,New Retailer,Dollar Tree/HQ,Chesapeake,VA,N,7456733.0,716 W PETREE RD,ANADARKO,OK,73005,,CADDO,,,,,,,
3052,3052,,,801 W GRAND AVE,,PONCA CITY,OK,74601,,,,,,,,,,,,Active,DOLLAR GENERAL,"801 W Grand Ave, Ponca City, OK, 74601",36.7045346,-97.09362519999999,POINT (-97.09362520000001 36.7045346),Yes,,Kaw/Ponca,Kaw/Ponca joint-use OTSA,,,New Retailer,Dollar General/HQ,Goodlettsville,TN,N,953370.0,801 W GRAND AVE,PONCA CITY,OK,74601,,KAY,2300267776,DOLLAR GENERAL,CORPORATION SERVICE COMPANY,,OKLA CITY,OK,
3055,3055,,,110 N CARNEGIE ST,,CARNEGIE,OK,73015,,,,,,,,,,,,Active,DOLLAR GENERAL,"110 N Carnegie St, Carnegie, OK, 73015",35.10741779999999,-98.60382829999999,POINT (-98.6038283 35.10741779999999),Yes,,Kiowa-Comanche-Apache-Ft Sill Apache/Caddo-Wichita-Delaware,Kiowa-Comanche-Apache-Ft Sill Apache/Caddo-Wichita-Delaware joint-use OTSA,,,New Retailer,Dollar General/HQ,Goodlettsville,TN,N,1868723.0,110 N  ST,CARNEGIE,OK,73015,,CADDO,2300267776,DOLLAR GENERAL,CORPORATION SERVICE COMPANY,,OKLA CITY,OK,
3063,3063,,,729 N 14TH ST,,PONCA CITY,OK,74601,,,,,,,,,,,,Active,DOLLAR GENERAL,"729 N 14th St, Ponca City, OK, 74601",36.711847600000006,-97.0665666,POINT (-97.0665666 36.71184760000001),Yes,,Kaw/Ponca,Kaw/Ponca joint-use OTSA,,,New Retailer,Dollar General/HQ,Goodlettsville,TN,N,2907768.0,729 N 14TH ST,PONCA CITY,OK,74601,,KAY,2300267776,DOLLAR GENERAL,CORPORATION SERVICE COMPANY,,OKLA CITY,OK,
3070,3070,,,110 W CENTRAL BLVD,,ANADARKO,OK,73005,,,,,,,,,,,,Active,DOLLAR GENERAL,"110 W Central Blvd, Anadarko, OK, 73005",35.07242,-98.2435,POINT (-98.2435 35.07242),Yes,,Kiowa-Comanche-Apache-Ft Sill Apache/Caddo-Wichita-Delaware,Kiowa-Comanche-Apache-Ft Sill Apache/Caddo-Wichita-Delaware joint-use OTSA,,,New Retailer,Dollar General/HQ,Goodlettsville,TN,N,906810.0,110 W CENTRAL BLVD,ANADARKO,OK,73005,,CADDO,2300267776,DOLLAR GENERAL,CORPORATION SERVICE COMPANY,,OKLA CITY,OK,
3077,3077,,,2616 N 14TH ST,,PONCA CITY,OK,74601,,,,,,,,,,,,Active,DOLLAR TREE,"2616 N 14th St, Ponca City, OK, 74601",36.73465,-97.06726,POINT (-97.06726 36.73465),Yes,,Kaw/Ponca,Kaw/Ponca joint-use OTSA,,,New Retailer,Dollar Tree/HQ,Chesapeake,VA,N,1988591.0,2616 N 14TH ST,PONCA CITY,OK,74601,,KAY,,,,,,,
3088,3088,,,2902 N 14TH ST,,PONCA CITY,OK,74601,,,,,,,,,,,,Active,DOLLAR GENERAL,"2902 N 14th St, Ponca City, OK, 74601",36.737293,-97.067276,POINT (-97.06727600000001 36.737293),Yes,,Kaw/Ponca,Kaw/Ponca joint-use OTSA,,,New Retailer,Dollar General/HQ,Goodlettsville,TN,N,944547.0,2902 N 14TH ST,PONCA CITY,OK,74601,,KAY,2300267776,DOLLAR GENERAL,CORPORATION SERVICE COMPANY,,OKLA CITY,OK,
3104,3104,,,3700 LAKE RD,,PONCA CITY,OK,74604,,,,,,,,,,,,Active,ODYS,"3700 Lake Rd, Ponca City, OK, 74604",36.70944,-97.032196,POINT (-97.032196 36.70944),Yes,,Kaw/Ponca,Kaw/Ponca joint-use OTSA,,,New Retailer,Independent,,,N,1936386.0,3700 LAKE RD,PONCA CITY,OK,74604,,KAY,,,,,,,
3130,3130,,,9445 STATE HIGHWAY 20,,SKIATOOK,OK,74070,,,,,,,,,,,,Active,CROSS ROADS,"9445 State Highway 20, Skiatook, OK, 74070",36.375278200000004,-96.0951007,POINT (-96.0951007 36.3752782),Yes,,Osage,Osage Reservation,,,New Retailer,Independent,,,N,7437808.0,9445 STATE HIGHWAY 20,SKIATOOK,OK,74070,,OSAGE,1910164119,"CROSS ROADS, INC.",CHARLES E PLUMMER,,TULSA,OK,
3133,3133,,,42820 STATE HIGHWAY 20,,RALSTON,OK,74650,,,,,,,,,,,,Active,B & B LOUNGE,"42820 State Highway 20, Ralston, OK, 74650",36.5063968,-96.7021315,POINT (-96.70213149999999 36.5063968),Yes,,Osage,Osage Reservation,,,New Retailer,Independent,,,N,7224433.0,42820 STATE HIGHWAY 20,RALSTON,OK,74650,,OSAGE,,,,,,,
3134,3134,,,37115 STATE HIGHWAY 8,,ANADARKO,OK,73005,,,,,,,,,,,,Active,CURRYS PLACE,"37115 State Highway 8, Anadarko, OK, 73005",35.01822,-98.2337,POINT (-98.2337 35.01822),Yes,,Kiowa-Comanche-Apache-Ft Sill Apache/Caddo-Wichita-Delaware,Kiowa-Comanche-Apache-Ft Sill Apache/Caddo-Wichita-Delaware joint-use OTSA,,,New Retailer,Independent,,,N,1939523.0,37115 STATE HIGHWAY 8,ANADARKO,OK,73005,,CADDO,,,,,,,
3135,3135,,,217 E GRAND AVE,,PONCA CITY,OK,74601,,,,,,,,,,,,Active,ASTORIA BLVD BISTRO & BAR,"217 E Grand Ave, Ponca City, OK, 74601",36.703952,-97.08165340000001,POINT (-97.08165339999999 36.703952),Yes,,Kaw/Ponca,Kaw/Ponca joint-use OTSA,,,New Retailer,Independent,,,N,3961541.0,217 E GRAND AVE,PONCA CITY,OK,74601,,KAY,3512519527,ASTORIA BLVD BISTRO & BAR,STACEY BEHEL,,PONCA CITY,OK,
3138,3138,,,601 W HIGHLAND AVE,,PONCA CITY,OK,74601,,,,,,,,,,,,Active,FRACK IT,"601 W Highland Ave, Ponca City, OK, 74601",36.7099585,-97.090565,POINT (-97.090565 36.7099585),Yes,,Kaw/Ponca,Kaw/Ponca joint-use OTSA,,,New Retailer,Independent,,,N,1917553.0,601 W HIGHLAND AVE,PONCA CITY,OK,74601,,KAY,3512474242,"FRACK IT, LLC",TAMMY DIAZ,,PONCA CITY,OK,
3145,3145,,,1006 S WAVERLY ST,,PONCA CITY,OK,74601,,,,,,,,,,,,Active,SPANKYS PUB,"1006 S Waverly St, Ponca City, OK, 74601",36.69317,-97.10359749999999,POINT (-97.10359750000001 36.69317),Yes,,Kaw/Ponca,Kaw/Ponca joint-use OTSA,,,New Retailer,Independent,,,N,1939351.0,1006 S WAVERLY ST,PONCA CITY,OK,74601,,KAY,4712420710,SPANKY\'S PUB,,,,,
3151,3151,,,1027 S EASTERN AVE,,HOMINY,OK,74035,,,,,,,,,,,,Active,TEPEE LOUNGE & GRILL,"1027 S Eastern Ave, Hominy, OK, 74035",36.40634,-96.38951999999999,POINT (-96.38952 36.40634),Yes,,Osage,Osage Reservation,,,New Retailer,Independent,,,N,1939159.0,1027 S EASTERN AVE,HOMINY,OK,74035,,OSAGE,,,,,,,
3155,3155,,,2215 N 14TH ST,,PONCA CITY,OK,74601,,,,,,,,,,,,Active,LOLAS BAR,"2215 N 14th St, Ponca City, OK, 74601",36.7297,-97.067215,POINT (-97.067215 36.7297),Yes,,Kaw/Ponca,Kaw/Ponca joint-use OTSA,,,New Retailer,Independent,,,N,7613388.0,2215 N 14TH ST,PONCA CITY,OK,74601,,KAY,,,,,,,
3156,3156,,,118 E BROADWAY ST,,ANADARKO,OK,73005,,,,,,,,,,,,Active,THE OFFICE,"118 E Broadway St, Anadarko, OK, 73005",35.07488,-98.24394000000001,POINT (-98.24393999999999 35.07488),Yes,,Kiowa-Comanche-Apache-Ft Sill Apache/Caddo-Wichita-Delaware,Kiowa-Comanche-Apache-Ft Sill Apache/Caddo-Wichita-Delaware joint-use OTSA,,,New Retailer,Independent,,,N,2587937.0,118 E BROADWAY ST,ANADARKO,OK,73005,,CADDO,1900619889,"THE OFFICE, INC.",WINSTON H CONNOR II,,MIAMI,OK,
3163,3163,,,29185 COUNTY STREET 2730,,VERDEN,OK,73092,,,,,,,,,,,,Active,LAKESIDE TRIO,"29185 County Street 2730, Verden, OK, 73092",35.075829399999996,-98.12822340000001,POINT (-98.1282234 35.0758294),Yes,,Kiowa-Comanche-Apache-Ft Sill Apache/Caddo-Wichita-Delaware,Kiowa-Comanche-Apache-Ft Sill Apache/Caddo-Wichita-Delaware joint-use OTSA,,,New Retailer,Independent,,,N,7472954.0,29185 COUNTY STREET 2730,VERDEN,OK,73092,,CADDO,3512546900,LAKESIDE TRIO LLC,CARI TAYLOR,,CHICKASHA,OK,
3167,3167,,,3212 LAKE RD,,PONCA CITY,OK,74604,,,,,,,,,,,,Active,WEBBS WORLD OF FUN,"3212 Lake Rd, Ponca City, OK, 74604",36.709393,-97.03990999999999,POINT (-97.03991000000001 36.709393),Yes,,Kaw/Ponca,Kaw/Ponca joint-use OTSA,,,New Retailer,Independent,,,N,2134036.0,3212 LAKE RD,PONCA CITY,OK,74604,,KAY,,,,,,,
3171,3171,,,1801 N 4TH ST,,PONCA CITY,OK,74601,,,,,,,,,,,,Active,THE FOX,"1801 N 4th St, Ponca City, OK, 74601",36.725218299999995,-97.0799264,POINT (-97.07992640000001 36.7252183),Yes,,Kaw/Ponca,Kaw/Ponca joint-use OTSA,,,New Retailer,Independent,,,N,1916925.0,1801 N 4TH ST,PONCA CITY,OK,74601,,KAY,,,,,,,
3183,3183,,,546 IMPERIAL BLVD,,SAND SPRINGS,OK,74063,,,,,,,,,,,,Active,ELKS LODGE,"546 Imperial Blvd, Sand Springs, OK, 74063",36.2064606,-96.20933620000001,POINT (-96.2093362 36.2064606),Yes,,Osage,Osage Reservation,,,New Retailer,Independent,,,Y,1947284.0,546 IMPERIAL BLVD,SAND SPRINGS,OK,74063,,OSAGE,,,,,,,
3193,3193,,,3151 HIGHWAY 60,,PONCA CITY,OK,74604,,,,,,,,,,,,Active,SADIES,"3151 Highway 60, Ponca City, OK, 74604",36.6811314,-97.0468132,POINT (-97.0468132 36.6811314),Yes,,Osage,Osage Reservation,,,New Retailer,Independent,,,N,1804579.0,3151 HIGHWAY 60,PONCA CITY,OK,74604,,OSAGE,3512544361,SADIES ACADEMY LLC,VIRGINIA STEWARD,,TULSA,OK,
3200,3200,,,803 N CARNEGIE ST,,CARNEGIE,OK,73015,,,,,,,,,,,,Active,THE DAM BAR,"803 N Carnegie St, Carnegie, OK, 73015",35.09478,-98.603424,POINT (-98.603424 35.09478),Yes,,Kiowa-Comanche-Apache-Ft Sill Apache/Caddo-Wichita-Delaware,Kiowa-Comanche-Apache-Ft Sill Apache/Caddo-Wichita-Delaware joint-use OTSA,,,New Retailer,Independent,,,N,7448314.0,803 N  ST,CARNEGIE,OK,73015,,CADDO,4712269405,THE DAM BAR,,,,,
3202,3202,,,500 W PROSPECT AVE,,PONCA CITY,OK,74601,,,,,,,,,,,,Active,MOOSE LODGE,"500 W Prospect Ave, Ponca City, OK, 74601",36.7376888,-97.0893039,POINT (-97.0893039 36.7376888),Yes,,Kaw/Ponca,Kaw/Ponca joint-use OTSA,,,New Retailer,Independent,,,Y,1767790.0,500 W PROSPECT AVE,PONCA CITY,OK,74601,,KAY,,,,,,,
3205,3205,,,2542 ELKS LODGE DR,,PAWHUSKA,OK,74056,,,,,,,,,,,,Active,ELKS LODGE,"2542 Elks Lodge Dr, Pawhuska, OK, 74056",36.666973999999996,-96.363794,POINT (-96.363794 36.666974),Yes,,Osage,Osage Reservation,,,New Retailer,Independent,,,Y,1767520.0,2542 ELKS LODGE DR,PAWHUSKA,OK,74056,,OSAGE,,,,,,,
3207,3207,,,407 W SOUTH AVE,,PONCA CITY,OK,74601,,,,,,,,,,,,Active,AMERICAN LEGION,"407 W South Ave, Ponca City, OK, 74601",36.6956061,-97.0887575,POINT (-97.0887575 36.6956061),Yes,,Kaw/Ponca,Kaw/Ponca joint-use OTSA,,,New Retailer,Independent,,,Y,1772504.0,407 W SOUTH AVE,PONCA CITY,OK,74601,,KAY,,,,,,,
3217,3217,,,2217 N 14TH ST,,PONCA CITY,OK,74601,,,,,,,,,,,,Active,FRAZIERS SPORTS BAR & GRILL,"2217 N 14th St, Ponca City, OK, 74601",36.729713000000004,-97.067215,POINT (-97.067215 36.729713),Yes,,Kaw/Ponca,Kaw/Ponca joint-use OTSA,,,New Retailer,Independent,,,N,1916926.0,2217 N 14TH ST,PONCA CITY,OK,74601,,KAY,3512295047,"FRAZIER\'S SPORTS BAR & GRILL, L.L.C.",GARY SISCO,,PONCA CITY,OK,
3218,3218,,,3612 LAKE RD,,PONCA CITY,OK,74604,,,,,,,,,,,,Active,ELKS LODGE,"3612 Lake Rd, Ponca City, OK, 74604",36.709427000000005,-97.03256999999999,POINT (-97.03257000000001 36.70942700000001),Yes,,Kaw/Ponca,Kaw/Ponca joint-use OTSA,,,New Retailer,Independent,,,Y,1790196.0,3612 LAKE RD,PONCA CITY,OK,74604,,KAY,,,,,,,
3221,3221,,,2200 E COLEMAN RD,,PONCA CITY,OK,74604,,,,,,,,,,,,Active,ROCKIN HORSE,"2200 E Coleman Rd, Ponca City, OK, 74604",36.767246,-97.05311,POINT (-97.05311 36.767246),Yes,,Kaw/Ponca,Kaw/Ponca joint-use OTSA,,,New Retailer,Independent,,,N,1906935.0,2200 E COLEMAN RD,PONCA CITY,OK,74604,,KAY,1900611520,"ROCKIN HORSE, INC.",MARK MAAHS,,ALTUS,OK,
3272,3272,,,951 W 36TH ST N,,TULSA,OK,74127,,,,,,,,,,,,Active,OSAGE CASINO,"951 W 36th St N, Tulsa, OK, 74127",36.205383000000005,-96.010284,POINT (-96.010284 36.20538300000001),Yes,,Osage,Osage Reservation,,,New Retailer,Independent,,,N,1921391.0,951 W 36TH ST N,TULSA,OK,74127,,OSAGE,3512530183,OSAGE COMPANIES LLC,AARON ELMORE,,CLEVELAND,OK,
3276,3276,,,2000 LAKE RD,,PONCA CITY,OK,74604,,,,,,,,,,,,Active,PONCA BOWLING ALLEY,"2000 Lake Rd, Ponca City, OK, 74604",36.709423,-97.05713,POINT (-97.05713 36.709423),Yes,,Kaw/Ponca,Kaw/Ponca joint-use OTSA,,,New Retailer,Independent,,,N,1951601.0,2000 LAKE RD,PONCA CITY,OK,74604,,KAY,,,,,,,
3279,3279,,,73 N CITY VIEW RD,,PONCA CITY,OK,74604,,,,,,,,,,,,Active,OSAGE CASINO,"73 N City View Rd, Ponca City, OK, 74604",36.68173,-97.04135620000001,POINT (-97.0413562 36.68173),Yes,,Osage,Osage Reservation,,,New Retailer,Independent,,,N,2485977.0,73 N CITY VIEW RD,PONCA CITY,OK,74604,,OSAGE,3512530183,OSAGE COMPANIES LLC,AARON ELMORE,,CLEVELAND,OK,
3281,3281,,,514 ST HWY 9,,CARNEGIE,OK,73015,,,,,,,,,,,,Active,KIOWA CASINO,"514 St Hwy 9, Carnegie, OK, 73015",35.101776,-98.59589,POINT (-98.59589 35.101776),Yes,,Kiowa-Comanche-Apache-Ft Sill Apache/Caddo-Wichita-Delaware,Kiowa-Comanche-Apache-Ft Sill Apache/Caddo-Wichita-Delaware joint-use OTSA,,,New Retailer,Independent,,,N,7581242.0,514 ST HWY 9,CARNEGIE,OK,73015,,CADDO,2100283437,KIOWA HISTORICAL AND RESEARCH SOCIETY,LINN PAUAHTY,,CARNEGIE,OK,
3293,3293,,,39 DEER AVE,,HOMINY,OK,74035,,,,,,,,,,,,Active,OSAGE CASINO,"39 Deer Ave, Hominy, OK, 74035",36.4636643,-96.3940276,POINT (-96.3940276 36.4636643),Yes,,Osage,Osage Reservation,,,New Retailer,Independent,,,N,7613528.0,39 DEER AVE,HOMINY,OK,74035,,OSAGE,3512530183,OSAGE COMPANIES LLC,AARON ELMORE,,CLEVELAND,OK,
3296,3296,,,13239 HWY 99,,HOMINY,OK,74035,,,,,,,,,,,,Active,OSAGE HOMINY MILLION DOLLAR,"13239 Hwy 99, Hominy, OK, 74035",36.5070165,-96.35817709999999,POINT (-96.35817710000001 36.5070165),Yes,,Osage,Osage Reservation,,,New Retailer,Independent,,,N,2008821.0,13239 HWY 99,HOMINY,OK,74035,,OSAGE,,,,,,,
3305,3305,,,2928 L A CANN DR,,PONCA CITY,OK,74604,,,,,,,,,,,,Active,LEW WENTZ GOLF COURSE,"2928 L A Cann Dr, Ponca City, OK, 74604",36.7370885,-97.0217149,POINT (-97.02171490000001 36.7370885),Yes,,Kaw/Ponca,Kaw/Ponca joint-use OTSA,,,New Retailer,Independent,,,N,1939353.0,2928 L A CANN DR,PONCA CITY,OK,74604,,KAY,,,,,,,
3308,3308,,,222 ALLEN RD,,BARTLESVILLE,OK,74003,,,,,,,,,,,,Active,OSAGE CASINO,"222 Allen Rd, Bartlesville, OK, 74003",36.700446,-96.0592328,POINT (-96.0592328 36.700446),Yes,,Osage,Osage Reservation,,,New Retailer,Independent,,,N,2160398.0,222 ALLEN RD,BARTLESVILLE,OK,74003,,OSAGE,3512530183,OSAGE COMPANIES LLC,AARON ELMORE,,CLEVELAND,OK,
3318,3318,,,1101 N PECAN RD,,PONCA CITY,OK,74604,,,,,,,,,,,,Active,PONCA CITY COUNTRY CLUB,"1101 N Pecan Rd, Ponca City, OK, 74604",36.720397999999996,-97.04918,POINT (-97.04918000000001 36.720398),Yes,,Kaw/Ponca,Kaw/Ponca joint-use OTSA,,,New Retailer,Independent,,,N,1945625.0,1101 N PECAN RD,PONCA CITY,OK,74604,,KAY,1900115725,PONCA CITY COUNTRY CLUB,JOHN VEST,,PONCA CITY,OK,
