,Unnamed: 0,IMPAQ_ID,DBA Name,DBA Name_changes,DBA Name_update,Address Line 1,Address Line 1_changes,Address Line 1_update,City,City_changes,City_update,State,State_changes,State_update,Zip,Zip_changes,Zip_update,Latitude,Latitude_changes,Latitude_update,Longitude,Longitude_changes,Longitude_update,Full Address,Full Address_changes,Full Address_update,County,County_changes,County_update,Address Line 2,matchsource,est_id,found_pic,Manual Result,biz_status,Coordinates,On Tribe Land,Miles to Nearest Tribe,Assoc Tribe,Assoc Res,Nearest Tribe,Nearest Res,ori_flg,Owner Name,Owner City,Owner State,Non-Corporate Owned,Niel_id,match_id,SoS_record,entity,agent_name,agent_address,agent_city,agent_state,agent_zip
0,1655,1655,INDUSTRIAL WAY FOOD MART,Correct,INDUSTRIAL WAY FOOD MART,1161 INDUSTRIAL WAY,Correct,1161 INDUSTRIAL WAY,LONGVIEW,Correct,LONGVIEW,WA,Correct,WA,98632,Correct,98632.0,46.11528819,Correct,46.11528819,-122.9431049,Correct,-122.9431049,"1161 INDUSTRIAL WAY  LONGVIEW, WA 98632",Correct,"1161 INDUSTRIAL WAY LONGVIEW, WA 98632",COWLITZ,Correct,COWLITZ,,Original,1655.0,,,Active,POINT (-122.9431049 46.11528819),No,22.68706176847197,,,Cowlitz,Cowlitz Reservation,From Original List,,,,,,,,,,,,,
1,1656,1656,EMERALD DOWNS,Correct,EMERALD DOWNS,2300 EMERALD DOWNS DRIVE,2300 RON CROCKETT DR,2300 RON CROCKETT DR,AUBURN,Correct,AUBURN,WA,Correct,WA,98001,Correct,98001.0,47.32830259,47.3282377,47.3282377,-122.2374696,-122.2373605,-122.2373605,"2300 EMERALD DOWNS DRIVE  AUBURN, WA 98001","2300 Ron Crockett Dr, Auburn, WA 98001, USA","2300 Ron Crockett Dr, Auburn, WA 98001, USA",KING,Correct,KING,,Original,1656.0,,,Active,POINT (-122.2373605 47.3282377),No,2.6105376619525686,,,Muckleshoot,Muckleshoot Reservation,From Original List,,,,,,,,,,,,,
2,1657,1657,TURTTLES SMOKE SHOP,TURTLES SMOKE SHOP,TURTLES SMOKE SHOP,3114 RIVER RD E,Correct,3114 RIVER RD E,TACOMA,Correct,TACOMA,WA,Correct,WA,98443,Correct,98443.0,47.23290460000001,Correct,47.23290460000001,-122.387862,Correct,-122.387862,"3114 RIVER RD E  TACOMA, WA 98443",Correct,"3114 RIVER RD E TACOMA, WA 98443",PIERCE,Correct,PIERCE,,Original,1657.0,1.0,yes,Active,POINT (-122.387862 47.23290460000001),Yes,0.0,Puyallup,Puyallup Reservation,,,From Original List,,,,,,,,,,,,,
3,1658,1658,CHICKIE'S SMOKE SMOKE DBA RIVERSIDE SMOKE SHOP,Correct,CHICKIE'S SMOKE SMOKE DBA RIVERSIDE SMOKE SHOP,7324 RIVER RD E,Correct,7324 RIVER RD E,PUYALLUP,Correct,PUYALLUP,WA,Correct,WA,98371,Correct,98371.0,47.20891968,Correct,47.20891968,-122.3314026,Correct,-122.3314026,"7324 RIVER RD E  PUYALLUP, WA 98371",Correct,"7324 RIVER RD E PUYALLUP, WA 98371",PIERCE,Correct,PIERCE,,Original,1658.0,,,Active,POINT (-122.3314026 47.20891968),Yes,0.0,Puyallup,Puyallup Reservation,,,From Original List,,,,,,,,,,,,,
4,1659,1659,FIFE 76/TAHOMA,Correct,FIFE 76/TAHOMA,2002 54TH AVE E,Correct,2002 54TH AVE E,FIFE,Correct,FIFE,WA,Correct,WA,98424,Correct,98424.0,47.23870316,Correct,47.23870316,-122.3575921,Correct,-122.3575921,"2002 54TH AVE E  FIFE, WA 98424",Correct,"2002 54TH AVE E FIFE, WA 98424",PIERCE,Correct,PIERCE,,Original,1659.0,1.0,yes,Active,POINT (-122.3575921 47.23870316),Yes,0.0,Puyallup,Puyallup Reservation,,,From Original List,,,,,,,601475034,"FIFE 319, INC.",CLAY  PATTERSON,3010 96TH ST S  ,LAKEWOOD,WA,98499
5,1660,1660,BOW HILL GAS & FOOD MART,Correct,BOW HILL GAS & FOOD MART,18520 BOW HILL RD,Correct,18520 BOW HILL RD,BOW,Correct,BOW,WA,Correct,WA,98232,Correct,98232.0,48.55642777,Correct,48.55642777,-122.3439568,Correct,-122.3439568,"18520 BOW HILL RD  BOW, WA 98232",Correct,"18520 BOW HILL RD BOW, WA 98232",SKAGIT,Correct,SKAGIT,,Original,1660.0,1.0,no,Active,POINT (-122.3439568 48.55642777),No,0.004782704399613045,,,Upper Skagit,Upper Skagit Off-Reservation Trust Land,From Original List,,,,,,,,,,,,,
6,1661,1661,MOUNTAIN LOOP COUNTRY STORE,Correct,MOUNTAIN LOOP COUNTRY STORE,1000 EMENS AVE N,Correct,1000 EMENS AVE N,DARRINGTON,Correct,DARRINGTON,WA,Correct,WA,98241,Correct,98241.0,48.2554855,Correct,48.2554855,-121.6013611,Correct,-121.6013611,"1000 EMENS AVE N  DARRINGTON, WA 98241",Correct,"1000 EMENS AVE N DARRINGTON, WA 98241",SNOHOMISH,Correct,SNOHOMISH,,Original,1661.0,,,Active,POINT (-121.6013611 48.2554855),No,4.235144587561293,,,Sauk-Suiattle,Sauk-Suiattle Reservation,From Original List,,,,,,,,,,,,,
7,1662,1662,WHITE RIVER AMPHITHEATER,WHITE RIVER AMPHITHEATRE,WHITE RIVER AMPHITHEATRE,40601 AUBURN ENUMCLAW RD SE,Correct,40601 AUBURN ENUMCLAW RD SE,AUBURN,Correct,AUBURN,WA,Correct,WA,98092,Correct,98092.0,47.23681455,Correct,47.23681455,-122.1080303,Correct,-122.1080303,"40601 AUBURN ENUMCLAW RD SE  AUBURN, WA 98092",Correct,"40601 AUBURN ENUMCLAW RD SE AUBURN, WA 98092",KING,Correct,KING,,Original,1662.0,0.0,,Active,POINT (-122.1080303 47.23681455),Yes,0.0,Muckleshoot,Muckleshoot Reservation,,,From Original List,,,,,,,,,,,,,
8,1663,1663,WHITE RIVER AMPHITHEATER,Correct,WHITE RIVER AMPHITHEATER,40601 AUBURN ENUMCLAW RD SE,Correct,40601 AUBURN ENUMCLAW RD SE,AUBURN,Correct,AUBURN,WA,Correct,WA,98092,Correct,98092.0,47.23681455,Correct,47.23681455,-122.1080303,Correct,-122.1080303,"40601 AUBURN ENUMCLAW RD SE  AUBURN, WA 98092",Correct,"40601 AUBURN ENUMCLAW RD SE AUBURN, WA 98092",KING,Correct,KING,,Original,1663.0,0.0,,Active,POINT (-122.1080303 47.23681455),Yes,0.0,Muckleshoot,Muckleshoot Reservation,,,From Original List,,,,,,,,,,,,,
9,1664,1664,LATINO MARKET AND TACO SHOP,Can't Validate,LATINO MARKET AND TACO SHOP,502 W 1ST AVE,Can't Validate,502 W 1ST AVE,TOPPENISH,Can't Validate,TOPPENISH,WA,Can't Validate,WA,98948,Can't Validate,98948.0,46.37497819,Can't Validate,46.37497819,-120.3157976,Can't Validate,-120.3157976,"502 W 1ST AVE  TOPPENISH, WA 98948",Can't Validate,"502 W 1ST AVE TOPPENISH, WA 98948",YAKIMA,Can't Validate,YAKIMA,,Original,1664.0,,,Can't Validate,POINT (-120.3157976 46.37497819),Yes,0.0,Yakama Nation,Yakama Nation Reservation,,,From Original List,,,,,,,,,,,,,
10,1665,1665,LITTLE BROWN SMOKE SHACK,LIL BROWN SMOKE SHACK,LIL BROWN SMOKE SHACK,3201 GOODMAN RD,Correct,3201 GOODMAN RD,YAKIMA,Correct,YAKIMA,WA,Correct,WA,98903,Correct,98903.0,46.54548966,Correct,46.54548966,-120.5002574,Correct,-120.5002574,"3201 GOODMAN RD  YAKIMA, WA 98903",Correct,"3201 GOODMAN RD YAKIMA, WA 98903",YAKIMA,Correct,YAKIMA,,Original,1665.0,1.0,yes,Active,POINT (-120.5002574 46.54548966),Yes,0.0,Yakama Nation,Yakama Nation Reservation,,,From Original List,,,,,,,603075751,"LITTLE BROWN SMOKE SHACK, INC.",BRENDA  FISHER,7204 HEATHERS WAY  ,YAKIMA,WA,98903
11,1666,1666,MARKET PLACE,Correct,MARKET PLACE,109 W 1ST ST,Correct,109 W 1ST ST,WAPATO,Correct,WAPATO,WA,Correct,WA,98951,Correct,98951.0,46.44768838,Correct,46.44768838,-120.4202718,Correct,-120.4202718,"109 W 1ST ST  WAPATO, WA 98951",Correct,"109 W 1ST ST WAPATO, WA 98951",YAKIMA,Correct,YAKIMA,,Original,1666.0,1.0,yes,Active,POINT (-120.4202718 46.44768838),Yes,0.0,Yakama Nation,Yakama Nation Reservation,,,From Original List,,,,,,,,,,,,,
12,1667,1667,RIVER ROCK SMOKE SHOP,Correct,RIVER ROCK SMOKE SHOP,21125 SMOKEY POINT BLVD,Correct,21125 SMOKEY POINT BLVD,ARLINGTON,Correct,ARLINGTON,WA,Correct,WA,98223,Correct,98223.0,48.18620387,Correct,48.18620387,-122.1935992,Correct,-122.1935992,"21125 SMOKEY POINT BLVD  ARLINGTON, WA 98223",Correct,"21125 SMOKEY POINT BLVD ARLINGTON, WA 98223",SNOHOMISH,Correct,SNOHOMISH,,Original,1667.0,,,Active,POINT (-122.1935992 48.18620387),No,9.412411928533574e-05,,,Stillaguamish,Stillaguamish Off-Reservation Trust Land,From Original List,,,,,,,,,,,,,
13,1668,1668,RIVER ROCK SMOKE SHOP,Correct,RIVER ROCK SMOKE SHOP,3438 STOLUCKQUAMISH LANE,21125 SMOKEY POINT BLVD,21125 SMOKEY POINT BLVD,ARLINGTON,Correct,ARLINGTON,WA,Correct,WA,98223,Correct,98223.0,48.21517103,48.187524700000004,48.187524700000004,-122.1841024,-122.19398819999999,-122.19398819999999,"3438 STOLUCKQUAMISH LANE  ARLINGTON, WA 98223","21125 Smokey Point Blvd, Arlington, WA 98223, USA","21125 Smokey Point Blvd, Arlington, WA 98223, USA",SNOHOMISH,Correct,SNOHOMISH,,Original,1668.0,,,Active,POINT (-122.1939882 48.1875247),Yes,0.0,Stillaguamish,Stillaguamish Off-Reservation Trust Land,,,From Original List,,,,,,,,,,,,,
14,1669,1669,NISQUALLY EXPRESS,Correct,NISQUALLY EXPRESS,10324 MARTIN WAY E,Correct,10324 MARTIN WAY E,OLYMPIA,Correct,OLYMPIA,WA,Correct,WA,98516,Correct,98516.0,47.06627619,Correct,47.06627619,-122.7200818,Correct,-122.7200818,"10324 MARTIN WAY E  OLYMPIA, WA 98516",Correct,"10324 MARTIN WAY E OLYMPIA, WA 98516",THURSTON,Correct,THURSTON,,Original,1669.0,,,Active,POINT (-122.7200818 47.06627619),No,2.263722450125357,,,Nisqually,Nisqually Reservation,From Original List,,,,,,,602955863,"NISQUALLY COMMERCIAL PARK, LLC",DONNALEE  ELWESS,  ,,,
15,1670,1670,NISQUALLY MARKET,NISQUALLY MARKETS,NISQUALLY MARKETS,11741 PACIFIC HWY SW,Correct,11741 PACIFIC HWY SW,LAKEWOOD,Correct,LAKEWOOD,WA,Correct,WA,98499,Correct,98499.0,47.15008605,Correct,47.15008605,-122.5021838,Correct,-122.5021838,"11741 PACIFIC HWY SW  LAKEWOOD, WA 98499",Correct,"11741 PACIFIC HWY SW LAKEWOOD, WA 98499",PIERCE,Correct,PIERCE,,Original,1670.0,,,Active,POINT (-122.5021838 47.15008605),No,7.25125957924233,,,Puyallup,Puyallup Reservation,From Original List,,,,,,,,,,,,,
16,1671,1671,TWO BEARS TRADING LLC,Correct,TWO BEARS TRADING LLC,4715 GAY RD E,Correct,4715 GAY RD E,TACOMA,Correct,TACOMA,WA,Correct,WA,98443,Correct,98443.0,47.22428703,Correct,47.22428703,-122.367008,Correct,-122.367008,"4715 GAY RD E  TACOMA, WA 98443",Correct,"4715 GAY RD E TACOMA, WA 98443",PIERCE,Correct,PIERCE,,Original,1671.0,,,Active,POINT (-122.367008 47.22428703),Yes,0.0,Puyallup,Puyallup Reservation,,,From Original List,,,,,,,,,,,,,
17,1672,1672,STEAMBOAT TRADING POST,Correct,STEAMBOAT TRADING POST,6610 SEXTON RD NW,6610 SEXTON DR NW,6610 SEXTON DR NW,OLYMPIA,Correct,OLYMPIA,WA,Correct,WA,98502,Correct,98502.0,47.07952324,47.0795565,47.0795565,-123.0207971,-123.02088140000001,-123.02088140000001,"6610 SEXTON RD NW  OLYMPIA, WA 98502","6610 Sexton Dr NW, Olympia, WA 98502, USA","6610 Sexton Dr NW, Olympia, WA 98502, USA",THURSTON,Correct,THURSTON,,Original,1672.0,,,Active,POINT (-123.0208814 47.0795565),No,4.016052365985533,,,Squaxin Island,Squaxin Island Off-Reservation Trust Land,From Original List,,,,,,,602725565,"STEAMBOAT ISLAND, LLC",EDWARD  DICKEY,4923 69TH AVE NW  ,OLYMPIA,WA,98502
18,1673,1673,NISQUALLY MARKETS REZ,Correct,NISQUALLY MARKETS REZ,12827 YELM HWY SE,Correct,12827 YELM HWY SE,OLYMPIA,Correct,OLYMPIA,WA,Correct,WA,98513,Correct,98513.0,47.000894,Correct,47.000894,-122.6677,Correct,-122.6677,"12827 YELM HWY SE  OLYMPIA, WA 98513",Correct,"12827 YELM HWY SE OLYMPIA, WA 98513",THURSTON,Correct,THURSTON,,Original,1673.0,,,Active,POINT (-122.6677 47.000894),Yes,0.0,Nisqually,Nisqually Reservation,,,From Original List,,,,,,,602955863,"NISQUALLY COMMERCIAL PARK, LLC",DONNALEE  ELWESS,  ,,,
19,1674,1674,SI DISTRIBUTION LLC,Can't Validate,SI DISTRIBUTION LLC,1045 W STATE ROUTE 108,Can't Validate,1045 W STATE ROUTE 108,SHELTON,Can't Validate,SHELTON,WA,Can't Validate,WA,98584,Can't Validate,98584.0,47.122483,Can't Validate,47.122483,-123.1152,Can't Validate,-123.1152,"1045 W STATE ROUTE 108  SHELTON, WA 98584",Can't Validate,"1045 W STATE ROUTE 108 SHELTON, WA 98584",MASON,Can't Validate,MASON,,Original,1674.0,,,Can't Validate,POINT (-123.1152 47.122483),No,0.011937006337833293,,,Squaxin Island,Squaxin Island Off-Reservation Trust Land,From Original List,,,,,,,603322820,SI DISTRIBUTION LLC,*  ISLAND ENTERPRISES INC,3591 SE OLD OLYMPIC HWY  ,SHELTON,WA,98584
20,1675,1675,CARNICERIA LOS AMIGOS,Correct,CARNICERIA LOS AMIGOS,205 S WAPATO AVE,Correct,205 S WAPATO AVE,WAPATO,Correct,WAPATO,WA,Correct,WA,98951,Correct,98951.0,46.446711,Correct,46.446711,-120.4193,Correct,-120.4193,"205 S WAPATO AVE  WAPATO, WA 98951",Correct,"205 S WAPATO AVE WAPATO, WA 98951",YAKIMA,Correct,YAKIMA,,Original,1675.0,,,Active,POINT (-120.4193 46.446711),Yes,0.0,Yakama Nation,Yakama Nation Reservation,,,From Original List,,,,,,,,,,,,,
21,1676,1676,CROSS ROAD MARKET,CROSSROAD MARKET,CROSSROAD MARKET,4641 N TRACK RD,4621 N TRACK RD,4621 N TRACK RD,WAPATO,Correct,WAPATO,WA,Correct,WA,98951,Correct,98951.0,46.449326,46.448899100000006,46.44889910000001,-120.4176,-120.4171649,-120.4171649,"4641 N TRACK RD  WAPATO, WA 98951","4621 N Track Rd, Wapato, WA 98951, USA","4621 N Track Rd, Wapato, WA 98951, USA",YAKIMA,Correct,YAKIMA,,Original,1676.0,1.0,maybe,Active,POINT (-120.4171649 46.44889910000001),Yes,0.0,Yakama Nation,Yakama Nation Reservation,,,From Original List,,,,,,,,,,,,,
22,1677,1677,COULEE TOBACCO AND MORE,GALAXY NATIVE SMOKES,GALAXY NATIVE SMOKES,500 RIVER DR,Correct,500 RIVER DR,COULEE DAM,Correct,COULEE DAM,WA,Correct,WA,99116,Correct,99116.0,47.9678662,Correct,47.9678662,-118.9798,Correct,-118.9798,"500 RIVER DR  COULEE DAM, WA 99116",Correct,"500 RIVER DR COULEE DAM, WA 99116",OKANOGAN,Correct,OKANOGAN,,Original,1677.0,1.0,yes,Active,POINT (-118.9798 47.9678662),Yes,0.0,Colville,Colville Reservation,,,From Original List,,,,,,,,,,,,,
23,1678,1678,PAPPY'S LORNER,Correct,PAPPY'S LORNER,6394 W END RD,Correct,6394 W END RD,FRUITLAND,Correct,FRUITLAND,WA,Correct,WA,99129,Correct,99129.0,47.96484,Correct,47.96484,-118.2331,Correct,-118.2331,"6394 W END RD  FRUITLAND, WA 99129",Correct,"6394 W END RD FRUITLAND, WA 99129",STEVENS,Correct,STEVENS,,Original,1678.0,1.0,yes,Active,POINT (-118.2331 47.96484),Yes,0.0,Spokane,Spokane Reservation,,,From Original List,,,,,,,,,,,,,
24,1679,1679,TIENDA DE ABARROTES LOS AMIGOS,Correct,TIENDA DE ABARROTES LOS AMIGOS,209 S WAPATO AVE,Correct,209 S WAPATO AVE,WAPATO,Correct,WAPATO,WA,Correct,WA,98951,Correct,98951.0,46.44674000000001,Correct,46.44674000000001,-120.4198,Correct,-120.4198,"209 S WAPATO AVE  WAPATO, WA 98951",Correct,"209 S WAPATO AVE WAPATO, WA 98951",YAKIMA,Correct,YAKIMA,,Original,1679.0,,,Active,POINT (-120.4198 46.44674000000001),Yes,0.0,Yakama Nation,Yakama Nation Reservation,,,From Original List,,,,,,,603468480,"TIENDA DE ABARROTES LOS AMIGOS, LLC",MELESIO  RIOS,  ,,,
25,1680,1680,MILL BAY CASINO,Correct,MILL BAY CASINO,455 WAPATO LAKE RD.,Correct,455 WAPATO LAKE RD.,MANSON,Correct,MANSON,WA,Correct,WA,98831,Correct,98831.0,47.882035,Correct,47.882035,-120.129603,Correct,-120.129603,"455 WAPATO LAKE RD.  MANSON, WA 98831",Correct,"455 WAPATO LAKE RD. MANSON, WA 98831",,Correct,CHELAN,,Original,1680.0,,,Active,POINT (-120.129603 47.88203499999999),Yes,0.0,Colville,Colville Off-Reservation Trust Land,,,From Original List,,,,,,,,,,,,,
26,1681,1681,MNB SMOKES,Correct,MNB SMOKES,70 RODEO TRAIL,70 RODEO TRAIL RD,70 RODEO TRAIL RD,OKANOGAN,Correct,OKANOGAN,WA,Correct,WA,98840,Correct,98840.0,48.369353,48.366194899999996,48.366194899999996,-119.563566,-119.5696611,-119.5696611,"70 RODEO TRAIL  OKANOGAN, WA 98840","70 Rodeo Trail Rd, Okanogan, WA 98840, USA","70 Rodeo Trail Rd, Okanogan, WA 98840, USA",,Correct,OKANOGAN,,Original,1681.0,,,Active,POINT (-119.5696611 48.3661949),Yes,0.0,Colville,Colville Reservation,,,From Original List,,,,,,,,,,,,,
27,1682,1682,OKANAGAN BINGO CASINO,Correct,OKANAGAN BINGO CASINO,41 APPLEWAY,Correct,41 APPLEWAY,OKANOGAN,Correct,OKANOGAN,WA,Correct,WA,98840,Correct,98840.0,48.351018,Correct,48.351018,-119.589697,Correct,-119.589697,"41 APPLEWAY  OKANOGAN, WA 98840",Correct,"41 APPLEWAY OKANOGAN, WA 98840",,Correct,OKANOGAN,,Original,1682.0,,,Closed,POINT (-119.589697 48.351018),Yes,0.0,Colville,Colville Reservation,,,From Original List,,,,,,,,,,,,,
28,1683,1683,OMAK MARKET,Correct,OMAK MARKET,602 S JACKSON ST,1 N MAIN ST,1 N MAIN ST,OMAK,Correct,OMAK,WA,Correct,WA,98841,Correct,98841.0,48.402989,48.4110008,48.4110008,-119.512419,-119.5286072,-119.5286072,"602 S JACKSON ST  OMAK, WA 98841","1 N Main St, Omak, WA 98841, USA","1 N Main St, Omak, WA 98841, USA",,Correct,OKANOGAN,,Original,1683.0,1.0,yes,Active,POINT (-119.5286072 48.4110008),No,0.11455223816530467,,,Colville,Colville Reservation,From Original List,,,,,,,603581404,OMAK FOREST PRODUCTS LLC,nan nan nan,,,,
29,1684,1684,SHORT STOP CONVENIENCE STORE,Correct,SHORT STOP CONVENIENCE STORE,3032 BRIDGE CREEK RD.,Correct,3032 BRIDGE CREEK RD.,INCHELIUM,Correct,INCHELIUM,WA,Correct,WA,99138,Correct,99138.0,48.29566,Correct,48.29566,-118.210964,Correct,-118.210964,"3032 BRIDGE CREEK RD.  INCHELIUM, WA 99138",Correct,"3032 BRIDGE CREEK RD. INCHELIUM, WA 99138",,Correct,FERRY,,Original,1684.0,,,Active,POINT (-118.210964 48.29566),Yes,0.0,Colville,Colville Reservation,,,From Original List,,,,,,,,,,,,,
30,1685,1685,SPELEM SMOKE SHOP,Can't Validate,SPELEM SMOKE SHOP,3 LAKE AVE,Can't Validate,3 LAKE AVE,NESPELEM,Can't Validate,NESPELEM,WA,Can't Validate,WA,99155,Can't Validate,99155.0,48.131,Can't Validate,48.131,-118.9749,Can't Validate,-118.9749,"3 LAKE AVE  NESPELEM, WA 99155",Can't Validate,"3 LAKE AVE NESPELEM, WA 99155",,Can't Validate,OKANOGAN,,Original,1685.0,,,Can't Validate,POINT (-118.9749 48.131),Yes,0.0,Colville,Colville Reservation,,,From Original List,,,,,,,,,,,,,
31,1686,1686,STOGIE SHOP INC.,Correct,STOGIE SHOP INC.,875 OMAK AVE.,Correct,875 OMAK AVE.,OMAK,Correct,OMAK,WA,Correct,WA,98841,Correct,98841.0,48.410825,Correct,48.410825,-119.527598,Correct,-119.527598,"875 OMAK AVE.  OMAK, WA 98841",Correct,"875 OMAK AVE. OMAK, WA 98841",,Correct,OKANOGAN,,Original,1686.0,,,Active,POINT (-119.527598 48.410825),No,0.04766132898508119,,,Colville,Colville Reservation,From Original List,,,,,,,,,,,,,
32,1687,1687,THE TRADING POST,COLVILLE TRIBES TRADING POST,COLVILLE TRIBES TRADING POST,HWY. 155,Correct,HWY. 155,NESPELEM,Correct,NESPELEM,WA,Correct,WA,99155,Correct,99155.0,48.16575,Correct,48.16575,-118.9794,Correct,-118.9794,"HWY. 155  NESPELEM, WA 99155",Correct,"HWY. 155 NESPELEM, WA 99155",,Correct,OKANOGAN,,Original,1687.0,1.0,yes,Active,POINT (-118.9794 48.16575),Yes,0.0,Colville,Colville Reservation,,,From Original List,,,,,,,,,,,,,
33,1688,1688,TRIBAL TRAILS TRUCK STOP,Correct,TRIBAL TRAILS TRUCK STOP,29078 US-97,Correct,29078 US-97,OMAK,Correct,OMAK,WA,Correct,WA,98841,Correct,98841.0,48.39873,Correct,48.39873,-119.5244,Correct,-119.5244,"29078 US-97  OMAK, WA 98841",Correct,"29078 US-97 OMAK, WA 98841",,Correct,OKANOGAN,,Original,1688.0,,,Active,POINT (-119.5244 48.39873),Yes,0.0,Colville,Colville Reservation,,,From Original List,,,,,,,,,,,,,
34,1689,1689,7-ELEVEN,Correct,7-ELEVEN,611 W 1ST AVE.,Correct,611 W 1ST AVE.,TOPPENISH,Correct,TOPPENISH,WA,Correct,WA,98948,Correct,98948.0,46.375086,Correct,46.375086,-120.319315,Correct,-120.319315,"611 W 1ST AVE.  TOPPENISH, WA 98948",Correct,"611 W 1ST AVE. TOPPENISH, WA 98948",,Correct,YAKIMA,,Original,1689.0,,,Active,POINT (-120.319315 46.375086),Yes,0.0,Yakama Nation,Yakama Nation Reservation,,,From Original List,,,,,,,,,,,,,
35,1690,1690,ALLEN'S MARKET,Correct,ALLEN'S MARKET,160 S WAPATO RD.,Correct,160 S WAPATO RD.,WAPATO,Correct,WAPATO,WA,Correct,WA,98951,Correct,98951.0,46.430792,Correct,46.430792,-120.417421,Correct,-120.417421,"160 S WAPATO RD.  WAPATO, WA 98951",Correct,"160 S WAPATO RD. WAPATO, WA 98951",,Correct,YAKIMA,,Original,1690.0,,,Active,POINT (-120.417421 46.430792),Yes,0.0,Yakama Nation,Yakama Nation Reservation,,,From Original List,,,,,,,,,,,,,
36,1691,1691,BLUE SKY MARKET,Correct,BLUE SKY MARKET,116 CEHEHALIS AVE.,116 CHEHALIS AVE,116 CHEHALIS AVE,TOPPENISH,Correct,TOPPENISH,WA,Correct,WA,98948,Correct,98948.0,46.380266,46.38024100000001,46.38024100000001,-120.308487,-120.3090719,-120.3090719,"116 CEHEHALIS AVE.  TOPPENISH, WA 98948","116 Chehalis Ave, Toppenish, WA 98948, USA","116 Chehalis Ave, Toppenish, WA 98948, USA",,Correct,YAKIMA,,Original,1691.0,,,Active,POINT (-120.3090719 46.38024100000001),Yes,0.0,Yakama Nation,Yakama Nation Reservation,,,From Original List,,,,,,,,,,,,,
37,1692,1692,CHEVRON,Correct,CHEVRON,907 W 1ST AVE.,Correct,907 W 1ST AVE.,TOPPENISH,Correct,TOPPENISH,WA,Correct,WA,98948,Correct,98948.0,46.375059,Correct,46.375059,-120.327539,Correct,-120.327539,"907 W 1ST AVE.  TOPPENISH, WA 98948",Correct,"907 W 1ST AVE. TOPPENISH, WA 98948",,Correct,YAKIMA,,Original,1692.0,,,Closed,POINT (-120.327539 46.375059),Yes,0.0,Yakama Nation,Yakama Nation Reservation,,,From Original List,,,,,,,,,,,,,
38,1693,1693,CROSSROAD MARKET,Correct,CROSSROAD MARKET,4621 N TRACK RD.,Correct,4621 N TRACK RD.,WAPATO,Correct,WAPATO,WA,Correct,WA,98951,Correct,98951.0,46.449692,Correct,46.449692,-120.418335,Correct,-120.418335,"4621 N TRACK RD.  WAPATO, WA 98951",Correct,"4621 N TRACK RD. WAPATO, WA 98951",,Correct,YAKIMA,,Original,1693.0,,,Active,POINT (-120.418335 46.449692),Yes,0.0,Yakama Nation,Yakama Nation Reservation,,,From Original List,,,,,,,,,,,,,
39,1694,1694,DA STORE AT LILLIES' CORNER,Correct,DA STORE AT LILLIES' CORNER,50 W WAPATO RD.,Correct,50 W WAPATO RD.,WAPATO,Correct,WAPATO,WA,Correct,WA,98951,Correct,98951.0,46.447919,Correct,46.447919,-120.431414,Correct,-120.431414,"50 W WAPATO RD.  WAPATO, WA 98951",Correct,"50 W WAPATO RD. WAPATO, WA 98951",,Correct,YAKIMA,,Original,1694.0,1.0,yes,Active,POINT (-120.431414 46.447919),Yes,0.0,Yakama Nation,Yakama Nation Reservation,,,From Original List,,,,,,,,,,,,,
40,1695,1695,GENERAL STORE (CONOCO),Correct,GENERAL STORE (CONOCO),505 W 1ST AVE.,Correct,505 W 1ST AVE.,TOPPENISH,Correct,TOPPENISH,WA,Correct,WA,98948,Correct,98948.0,46.375094,Correct,46.375094,-120.317755,Correct,-120.317755,"505 W 1ST AVE.  TOPPENISH, WA 98948",Correct,"505 W 1ST AVE. TOPPENISH, WA 98948",,Correct,YAKIMA,,Original,1695.0,,,Active,POINT (-120.317755 46.375094),Yes,0.0,Yakama Nation,Yakama Nation Reservation,,,From Original List,,,,,,,,,,,,,
41,1696,1696,HAROLD'S GENERAL MERCHANDISE,Correct,HAROLD'S GENERAL MERCHANDISE,4080 HARRAH RD.,4080  RD,4080  RD,HARRAH,Correct,HARRAH,WA,Correct,WA,98951,98933,98933.0,46.403399,46.4037935,46.4037935,-120.544206,-120.5443913,-120.5443913,"4080 HARRAH RD.  HARRAH, WA 98951","4080 Harrah Rd, Harrah, WA 98933, USA","4080 Harrah Rd, Harrah, WA 98933, USA",,Correct,YAKIMA,,Original,1696.0,,,Active,POINT (-120.5443913 46.4037935),Yes,0.0,Yakama Nation,Yakama Nation Reservation,,,From Original List,,,,,,,,,,,,,
42,1697,1697,INTERNATIONAL MARKET,Correct,INTERNATIONAL MARKET,512 W 1ST ST.,Correct,512 W 1ST ST.,WAPATO,Correct,WAPATO,WA,Correct,WA,98951,Correct,98951.0,46.447861,Correct,46.447861,-120.425867,Correct,-120.425867,"512 W 1ST ST.  WAPATO, WA 98951",Correct,"512 W 1ST ST. WAPATO, WA 98951",,Correct,YAKIMA,,Original,1697.0,,,Active,POINT (-120.425867 46.447861),Yes,0.0,Yakama Nation,Yakama Nation Reservation,,,From Original List,,,,,,,,,,,,,
43,1698,1698,KILE'S KORNER,Correct,KILE'S KORNER,2421 W WAPATO RD.,Correct,2421 W WAPATO RD.,WAPATO,Correct,WAPATO,WA,Correct,WA,98951,Correct,98951.0,46.448067,Correct,46.448067,-120.480359,Correct,-120.480359,"2421 W WAPATO RD.  WAPATO, WA 98951",Correct,"2421 W WAPATO RD. WAPATO, WA 98951",,Correct,YAKIMA,,Original,1698.0,1.0,yes,Active,POINT (-120.480359 46.448067),Yes,0.0,Yakama Nation,Yakama Nation Reservation,,,From Original List,,,,,,,,,,,,,
44,1699,1699,LA VILLA MARKET,Can't Validate,LA VILLA MARKET,218 S WAPATO AVE.,Can't Validate,218 S WAPATO AVE.,WAPATO,Can't Validate,WAPATO,WA,Can't Validate,WA,98951,Can't Validate,98951.0,46.446263,Can't Validate,46.446263,-120.419904,Can't Validate,-120.419904,"218 S WAPATO AVE.  WAPATO, WA 98951",Can't Validate,"218 S WAPATO AVE. WAPATO, WA 98951",,Can't Validate,YAKIMA,,Original,1699.0,,,Can't Validate,POINT (-120.419904 46.446263),Yes,0.0,Yakama Nation,Yakama Nation Reservation,,,From Original List,,,,,,,,,,,,,
45,1700,1700,ROADRUNNER,Correct,ROADRUNNER,705 W 1ST ST.,Correct,705 W 1ST ST.,WAPATO,Correct,WAPATO,WA,Correct,WA,98951,Correct,98951.0,46.447834,Correct,46.447834,-120.428047,Correct,-120.428047,"705 W 1ST ST.  WAPATO, WA 98951",Correct,"705 W 1ST ST. WAPATO, WA 98951",,Correct,YAKIMA,,Original,1700.0,,,Active,POINT (-120.428047 46.447834),Yes,0.0,Yakama Nation,Yakama Nation Reservation,,,From Original List,,,,,,,,,,,,,
46,1701,1701,SAFEWAY,Correct,SAFEWAY,711 W 1ST AVE.,Correct,711 W 1ST AVE.,TOPPENISH,Correct,TOPPENISH,WA,Correct,WA,98948,Correct,98948.0,46.375082,Correct,46.375082,-120.32141,Correct,-120.32141,"711 W 1ST AVE.  TOPPENISH, WA 98948",Correct,"711 W 1ST AVE. TOPPENISH, WA 98948",,Correct,YAKIMA,,Original,1701.0,,,Active,POINT (-120.32141 46.375082),Yes,0.0,Yakama Nation,Yakama Nation Reservation,,,From Original List,,,,,,,,,,,,,
47,1702,1702,TOPP STOP TEXACO,Correct,TOPP STOP TEXACO,321 S ELM ST,Correct,321 S ELM ST,TOPPENISH,Correct,TOPPENISH,WA,Correct,WA,98948,Correct,98948.0,46.375307,Correct,46.375307,-120.319741,Correct,-120.319741,"321 S ELM ST  TOPPENISH, WA 98948",Correct,"321 S ELM ST TOPPENISH, WA 98948",,Correct,YAKIMA,,Original,1702.0,,,Active,POINT (-120.319741 46.375307),Yes,0.0,Yakama Nation,Yakama Nation Reservation,,,From Original List,,,,,,,602591606,"TOPP TECHNICAL SERVICES, INC.",BENIGNO A ALONSO,  ,TOPPENISH,WA,     
48,1703,1703,TOPPENISH MARKET PLACE,Correct,TOPPENISH MARKET PLACE,512 W 1ST AVE.,802 W 1ST AVE,802 W 1ST AVE,TOPPENISH,Correct,TOPPENISH,WA,Correct,WA,98948,Correct,98948.0,46.375044,46.374595,46.374595,-120.316906,-120.3237,-120.3237,"512 W 1ST AVE.  TOPPENISH, WA 98948","802 W 1st Ave, Toppenish, WA 98948, USA","802 W 1st Ave, Toppenish, WA 98948, USA",,Correct,YAKIMA,,Original,1703.0,1.0,yes,Active,POINT (-120.3237 46.374595),Yes,0.0,Yakama Nation,Yakama Nation Reservation,,,From Original List,,,,,,,604031957,"TOPPENISH THERAPEUTIC MASSAGE, INC.",DOLORES  MARTINEZ,3 S TOPPENISH AVE #B5  ,TOPPENISH,WA,98948
49,1704,1704,WOLF DEN TEXACO,Correct,WOLF DEN TEXACO,61 W WAPATO RD.,Correct,61 W WAPATO RD.,WAPATO,Correct,WAPATO,WA,Correct,WA,98951,Correct,98951.0,46.447916,Correct,46.447916,-120.431053,Correct,-120.431053,"61 W WAPATO RD.  WAPATO, WA 98951",Correct,"61 W WAPATO RD. WAPATO, WA 98951",,Correct,YAKIMA,,Original,1704.0,,,Active,POINT (-120.431053 46.447916),Yes,0.0,Yakama Nation,Yakama Nation Reservation,,,From Original List,,,,,,,604207278,WOLF DEN INC,KIP  RAMSEY,  ,,,
50,1705,1705,YAKAMA NATION LEGENDS CASINO,LEGENDS CASINO HOTEL,LEGENDS CASINO HOTEL,580 FORT RD.,Correct,580 FORT RD.,TOPPENISH,Correct,TOPPENISH,WA,Correct,WA,98948,Correct,98948.0,46.375031,Correct,46.375031,-120.339646,Correct,-120.339646,"580 FORT RD.  TOPPENISH, WA 98948",Correct,"580 FORT RD. TOPPENISH, WA 98948",,Correct,YAKIMA,,Original,1705.0,,,Active,POINT (-120.339646 46.375031),Yes,0.0,Yakama Nation,Yakama Nation Reservation,,,From Original List,,,,,,,,,,,,,
51,1706,1706,YAKAMART,Correct,YAKAMART,111 FORT RD.,Correct,111 FORT RD.,TOPPENISH,Correct,TOPPENISH,WA,Correct,WA,98948,Correct,98948.0,46.375031,Correct,46.375031,-120.333269,Correct,-120.333269,"111 FORT RD.  TOPPENISH, WA 98948",Correct,"111 FORT RD. TOPPENISH, WA 98948",,Correct,YAKIMA,,Original,1706.0,,,Active,POINT (-120.333269 46.375031),Yes,0.0,Yakama Nation,Yakama Nation Reservation,,,From Original List,,,,,,,,,,,,,
52,1707,1707,END OF THE TRAIL STORES,Correct,END OF THE TRAIL STORES,18101 ANDERSON RD. SW,Correct,18101 ANDERSON RD. SW,OAKVILLE,Correct,OAKVILLE,WA,Correct,WA,98568,Correct,98568.0,46.826303,Correct,46.826303,-123.160568,Correct,-123.160568,"18101 ANDERSON RD. SW  OAKVILLE, WA 98568",Correct,"18101 ANDERSON RD. SW OAKVILLE, WA 98568",,Correct,GRAYS HARBOR,,Original,1707.0,,,Active,POINT (-123.160568 46.826303),Yes,0.0,Chehalis,Chehalis Off-Reservation Trust Land,,,From Original List,,,,,,,,,,,,,
53,1708,1708,LUCKY EAGLE CASINO,Correct,LUCKY EAGLE CASINO,12888 188TH AVE.,Correct,12888 188TH AVE.,ROCHESTER,Correct,ROCHESTER,WA,Correct,WA,98579,Correct,98579.0,46.815264,Correct,46.815264,-123.154765,Correct,-123.154765,"12888 188TH AVE.  ROCHESTER, WA 98579",Correct,"12888 188TH AVE. ROCHESTER, WA 98579",,Correct,THURSTON,,Original,1708.0,0.0,,Active,POINT (-123.154765 46.815264),Yes,0.0,Chehalis,Chehalis Reservation,,,From Original List,,,,,,,,,,,,,
54,1709,1709,CHIEF JOSEPH SMOKE SHOP,Correct,CHIEF JOSEPH SMOKE SHOP,50 CASSIMER BAR RD.,Correct,50 CASSIMER BAR RD.,BREWSTER,Correct,BREWSTER,WA,Correct,WA,98812,Correct,98812.0,48.095984,Correct,48.095984,-119.693376,Correct,-119.693376,"50 CASSIMER BAR RD.  BREWSTER, WA 98812",Correct,"50 CASSIMER BAR RD. BREWSTER, WA 98812",,Correct,OKANOGAN,,Original,1709.0,,,Active,POINT (-119.693376 48.095984),Yes,0.0,Colville,Colville Reservation,,,From Original List,,,,,,,,,,,,,
55,1710,1710,COULEE DAM CASINO,Correct,COULEE DAM CASINO,515 BIRCH ST.,Correct,515 BIRCH ST.,COULEE DAM,Correct,COULEE DAM,WA,Correct,WA,99116,Correct,99116.0,47.970011,Correct,47.970011,-118.977818,Correct,-118.977818,"515 BIRCH ST.  COULEE DAM, WA 99116",Correct,"515 BIRCH ST. COULEE DAM, WA 99116",,Correct,OKANOGAN,,Original,1710.0,,,Active,POINT (-118.977818 47.970011),Yes,0.0,Colville,Colville Reservation,,,From Original List,,,,,,,601597745,GRAND COULEE DAM EDUCATION ASSOCIATION,PAM  JOHNSON,503 CREST DRIVE  ,GRAND COULEE,WA,99133
56,1711,1711,GREEN'S,Correct,GREEN'S,2318 INCHELIUM HWY.,Correct,2318 INCHELIUM HWY.,INCHELIUM,Correct,INCHELIUM,WA,Correct,WA,99138,Correct,99138.0,48.466372,Correct,48.466372,-118.219763,Correct,-118.219763,"2318 INCHELIUM HWY.  INCHELIUM, WA 99138",Correct,"2318 INCHELIUM HWY. INCHELIUM, WA 99138",,Correct,FERRY,,Original,1711.0,,,Active,POINT (-118.219763 48.466372),Yes,0.0,Colville,Colville Reservation,,,From Original List,,,,,,,,,,,,,
57,1712,1712,HARTMANS' LOG CABIN RESORT,Correct,HARTMANS' LOG CABIN RESORT,178 TWIN LAKES RD,Correct,178 TWIN LAKES RD,INCHELIUM,Correct,INCHELIUM,WA,Correct,WA,99138,Correct,99138.0,48.296255,Correct,48.296255,-118.18504,Correct,-118.18504,"178 TWIN LAKES RD  INCHELIUM, WA 99138",Correct,"178 TWIN LAKES RD INCHELIUM, WA 99138",,Correct,FERRY,,Original,1712.0,,,Active,POINT (-118.18504 48.296255),Yes,0.0,Colville,Colville Reservation,,,From Original List,,,,,,,,,,,,,
58,1713,1713,INCHELIUM COMMUNITY STORE,Correct,INCHELIUM COMMUNITY STORE,BRIDGE CREEK RD.,Correct,BRIDGE CREEK RD.,INCHELIUM,Correct,INCHELIUM,WA,Correct,WA,99138,Correct,99138.0,48.28882,Correct,48.28882,-118.2711,Correct,-118.2711,"BRIDGE CREEK RD.  INCHELIUM, WA 99138",Correct,"BRIDGE CREEK RD. INCHELIUM, WA 99138",,Correct,FERRY,,Original,1713.0,,,Active,POINT (-118.2711 48.28882),Yes,0.0,Colville,Colville Reservation,,,From Original List,,,,,,,601591906,THE INCHELIUM COMMUNITY CHURCH,RAY  LAWRENCE,  ,,,
59,1714,1714,J & J SMOKE SHOP,Correct,J & J SMOKE SHOP,17 CROWDER RDN,Correct,17 CROWDER RDN,OKANOGAN,Correct,OKANOGAN,WA,Correct,WA,98840,Correct,98840.0,48.347097,Correct,48.347097,-119.594854,Correct,-119.594854,"17 CROWDER RDN  OKANOGAN, WA 98840",Correct,"17 CROWDER RDN OKANOGAN, WA 98840",,Correct,OKANOGAN,,Original,1714.0,1.0,yes,Active,POINT (-119.594854 48.347097),Yes,0.0,Colville,Colville Reservation,,,From Original List,,,,,,,,,,,,,
60,1715,1715,JACKSON'S CHEVRON SERVICE,Correct,JACKSON'S CHEVRON SERVICE,4440 HWY. 155,4440 -155,4440 -155,NESPELEM,Correct,NESPELEM,WA,Correct,WA,99155,Correct,99155.0,48.16697,48.164205200000005,48.16420520000001,-118.9816,-118.97860800000001,-118.97860800000001,"4440 HWY. 155  NESPELEM, WA 99155","4440 WA-155, Nespelem, WA 99155, USA","4440 WA-155, Nespelem, WA 99155, USA",,Correct,OKANOGAN,,Original,1715.0,,,Active,POINT (-118.978608 48.16420520000001),Yes,0.0,Colville,Colville Reservation,,,From Original List,,,,,,,,,,,,,
61,1716,1716,KELLER COMMUNITY STORE,Correct,KELLER COMMUNITY STORE,11611 S HWY. 21,11611 -21,11611 -21,KELLER,Correct,KELLER,WA,Correct,WA,99140,Correct,99140.0,48.09379600000001,48.0774661,48.0774661,-118.691973,-118.68373899999999,-118.68373899999999,"11611 S HWY. 21  KELLER, WA 99140","11611 WA-21, Keller, WA 99140, USA","11611 WA-21, Keller, WA 99140, USA",,Correct,FERRY,,Original,1716.0,,,Active,POINT (-118.683739 48.0774661),Yes,0.0,Colville,Colville Reservation,,,From Original List,,,,,,,,,,,,,
62,1717,1717,76/MY GOODS MARKET,Correct,76/MY GOODS MARKET,2002 54TH AVE. E.,Correct,2002 54TH AVE. E.,TACOMA,Correct,TACOMA,WA,Correct,WA,98424,Correct,98424.0,47.238662,Correct,47.238662,-122.35716,Correct,-122.35716,"2002 54TH AVE. E.  TACOMA, WA 98424",Correct,"2002 54TH AVE. E. TACOMA, WA 98424",,Correct,PIERCE,,Original,1717.0,1.0,yes,Active,POINT (-122.35716 47.238662),Yes,0.0,Puyallup,Puyallup Reservation,,,From Original List,,,,,,,,,,,,,
63,1718,1718,EMERALD QUEEN CASINO (I-5),Correct,EMERALD QUEEN CASINO (I-5),2024 E. 29TH ST.,Correct,2024 E. 29TH ST.,TACOMA,Correct,TACOMA,WA,Correct,WA,98404,Correct,98404.0,47.238422,Correct,47.238422,-122.403113,Correct,-122.403113,"2024 E. 29TH ST.  TACOMA, WA 98404",Correct,"2024 E. 29TH ST. TACOMA, WA 98404",,Correct,PIERCE,,Original,1718.0,,,Active,POINT (-122.403113 47.238422),Yes,0.0,Puyallup,Puyallup Reservation,,,From Original List,,,,,,,604009740,EMERALD WORLD LLC,JENNIFER H PAK,  ,,FO,     
64,1719,1719,EMERALD QUEEN CASINO & HOTEL,Correct,EMERALD QUEEN CASINO & HOTEL,5700 PACIFIC HIGHWAY EAST,Correct,5700 PACIFIC HIGHWAY EAST,FIFE,Correct,FIFE,WA,Correct,WA,98424,Correct,98424.0,47.242991,Correct,47.242991,-122.352699,Correct,-122.352699,"5700 PACIFIC HIGHWAY EAST  FIFE, WA 98424",Correct,"5700 PACIFIC HIGHWAY EAST FIFE, WA 98424",,Correct,PIERCE,,Original,1719.0,,,Active,POINT (-122.352699 47.242991),Yes,0.0,Puyallup,Puyallup Reservation,,,From Original List,,,,,,,,,,,,,
65,1720,1720,GRUMA MISSION FOODS,Correct,GRUMA MISSION FOODS,6611 VALLEY AVE. E.,Correct,6611 VALLEY AVE. E.,FIFE,Correct,FIFE,WA,Correct,WA,98424,Correct,98424.0,47.22797,Correct,47.22797,-122.34018,Correct,-122.34018,"6611 VALLEY AVE. E.  FIFE, WA 98424",Correct,"6611 VALLEY AVE. E. FIFE, WA 98424",,Correct,PIERCE,,Original,1720.0,,,Active,POINT (-122.34018 47.22797),Yes,0.0,Puyallup,Puyallup Reservation,,,From Original List,,,,,,,,,,,,,
66,1721,1721,NORPOINT SHELL,Correct,NORPOINT SHELL,208 NORPOINT WAY N.E.,Correct,208 NORPOINT WAY N.E.,TACOMA,Correct,TACOMA,WA,Correct,WA,98422,Correct,98422.0,47.283122,Correct,47.283122,-122.367296,Correct,-122.367296,"208 NORPOINT WAY N.E.  TACOMA, WA 98422",Correct,"208 NORPOINT WAY N.E. TACOMA, WA 98422",,Correct,PIERCE,,Original,1721.0,1.0,yes,Active,POINT (-122.367296 47.283122),Yes,0.0,Puyallup,Puyallup Reservation,,,From Original List,,,,,,,603543170,"1605 NORPOINT, LLC",  1605 NORPOINT TRUST,  ,,,
67,1722,1722,NORTH POINT SMOKE SHOP,Correct,NORTH POINT SMOKE SHOP,6210 29TH ST. N.E.,Correct,6210 29TH ST. N.E.,TACOMA,Correct,TACOMA,WA,Correct,WA,98422,Correct,98422.0,47.282738,Correct,47.282738,-122.364368,Correct,-122.364368,"6210 29TH ST. N.E.  TACOMA, WA 98422",Correct,"6210 29TH ST. N.E. TACOMA, WA 98422",,Correct,PIERCE,,Original,1722.0,,,Closed,POINT (-122.364368 47.282738),Yes,0.0,Puyallup,Puyallup Reservation,,,From Original List,,,,,,,602756681,NORTH POINT SMOKE SHOP INC.,WILLIAM  MANZANARES IV,  ,,,
68,1723,1723,TAHOMA EXPRESS,Correct,TAHOMA EXPRESS,3408 A PACIFIC HWY. E.,Correct,3408 A PACIFIC HWY. E.,FIFE,Correct,FIFE,WA,Correct,WA,98424,Correct,98424.0,47.24313,Correct,47.24313,-122.383325,Correct,-122.383325,"3408 A PACIFIC HWY. E.  FIFE, WA 98424",Correct,"3408 A PACIFIC HWY. E. FIFE, WA 98424",,Correct,PIERCE,,Original,1723.0,,,Active,POINT (-122.383325 47.24313),Yes,0.0,Puyallup,Puyallup Reservation,,,From Original List,,,,,,,,,,,,,
69,1724,1724,PIONEER SHELL,Correct,PIONEER SHELL,103 PIONEER WAY,103 PIONEER WAY E,103 PIONEER WAY E,TACOMA,Correct,TACOMA,WA,Correct,WA,98434,98404,98404.0,47.237628,47.236241799999995,47.236241799999995,-122.397284,-122.39688079999999,-122.39688079999999,"103 PIONEER WAY  TACOMA, WA 98434","103 Pioneer Way E, Tacoma, WA 98404, USA","103 Pioneer Way E, Tacoma, WA 98404, USA",,Correct,PIERCE,,Original,1724.0,,,Closed,POINT (-122.3968808 47.2362418),Yes,0.0,Puyallup,Puyallup Reservation,,,From Original List,,,,,,,603617467,1707 PIONEER LLC,LISA  JONES,1707 PIONEER ST  ,PUYALLUP,WA,98371
70,1725,1725,PORTLAND SHELL,Correct,PORTLAND SHELL,2802 PORTLAND AVE.,Correct,2802 PORTLAND AVE.,TACOMA,Correct,TACOMA,WA,Correct,WA,98404,Correct,98404.0,47.238731,Correct,47.238731,-122.410531,Correct,-122.410531,"2802 PORTLAND AVE.  TACOMA, WA 98404",Correct,"2802 PORTLAND AVE. TACOMA, WA 98404",,Correct,PIERCE,,Original,1725.0,,,Closed,POINT (-122.410531 47.238731),Yes,0.0,Puyallup,Puyallup Reservation,,,From Original List,,,,,,,,,,,,,
71,1726,1726,RESERVATION OUTPOST,Correct,RESERVATION OUTPOST,321 54TH AVE. E.,Correct,321 54TH AVE. E.,FIFE,Correct,FIFE,WA,Correct,WA,98424,Correct,98424.0,47.254703000000006,Correct,47.254703000000006,-122.356754,Correct,-122.356754,"321 54TH AVE. E.  FIFE, WA 98424",Correct,"321 54TH AVE. E. FIFE, WA 98424",,Correct,PIERCE,,Original,1726.0,,,Active,POINT (-122.356754 47.25470300000001),Yes,0.0,Puyallup,Puyallup Reservation,,,From Original List,,,,,,,,,,,,,
72,1727,1727,SMOKIN WILLEY'S #2,Can't Validate,SMOKIN WILLEY'S #2,6212 29TH ST. N.E.,Can't Validate,6212 29TH ST. N.E.,TACOMA,Can't Validate,TACOMA,WA,Can't Validate,WA,98422,Can't Validate,98422.0,47.282738,Can't Validate,47.282738,-122.363902,Can't Validate,-122.363902,"6212 29TH ST. N.E.  TACOMA, WA 98422",Can't Validate,"6212 29TH ST. N.E. TACOMA, WA 98422",,Can't Validate,PIERCE,,Original,1727.0,,,Can't Validate,POINT (-122.363902 47.282738),Yes,0.0,Puyallup,Puyallup Reservation,,,From Original List,,,,,,,,,,,,,
73,1728,1728,SMOKIN' WILLY'S DRIVE-THRU SMOKE SHOP,Correct,SMOKIN' WILLY'S DRIVE-THRU SMOKE SHOP,3008 72ND ST. E.,Correct,3008 72ND ST. E.,TACOMA,Correct,TACOMA,WA,Correct,WA,98443,Correct,98443.0,47.19175,Correct,47.19175,-122.388361,Correct,-122.388361,"3008 72ND ST. E.  TACOMA, WA 98443",Correct,"3008 72ND ST. E. TACOMA, WA 98443",,Correct,PIERCE,,Original,1728.0,,,Active,POINT (-122.388361 47.19175),Yes,0.0,Puyallup,Puyallup Reservation,,,From Original List,,,,,,,602545924,DRIVE-THRU PROPERTIES LLC,ZACH  MILLER,711 CT A ST STE 103  ,TACOMA,WA,98402
74,1729,1729,TAHOMA MARKET/SHELL,Correct,TAHOMA MARKET/SHELL,6006 PACIFIC HWY. E.,6006 PACIFIC HWY E,6006 PACIFIC HWY E,FIFE,Correct,FIFE,WA,Correct,WA,98404,98424,98424.0,47.242981,47.2420525,47.2420525,-122.348938,-122.34795159999999,-122.34795159999999,"6006 PACIFIC HWY. E.  FIFE, WA 98404","6006 Pacific Hwy E, Fife, WA 98424, USA","6006 Pacific Hwy E, Fife, WA 98424, USA",,Correct,PIERCE,,Original,1729.0,,,Active,POINT (-122.3479516 47.2420525),Yes,0.0,Puyallup,Puyallup Reservation,,,From Original List,,,,,,,,,,,,,
75,1730,1730,VALERO GASOLINE,Correct,VALERO GASOLINE,2125 SW 356TH ST.,Correct,2125 SW 356TH ST.,FEDERAL WAY,Correct,FEDERAL WAY,WA,Correct,WA,98023,Correct,98023.0,47.282687,Correct,47.282687,-122.361594,Correct,-122.361594,"2125 SW 356TH ST.  FEDERAL WAY, WA 98023",Correct,"2125 SW 356TH ST. FEDERAL WAY, WA 98023",,Correct,KING,,Original,1730.0,,,Active,POINT (-122.361594 47.282687),No,0.01612131094348496,,,Puyallup,Puyallup Reservation,From Original List,,,,,,,,,,,,,
76,1731,1731,LONESOME CREEK STORE,Correct,LONESOME CREEK STORE,490 OCEAN DR.,Correct,490 OCEAN DR.,LA PUSH,Correct,LA PUSH,WA,Correct,WA,98350,Correct,98350.0,47.90472000000001,Correct,47.90472000000001,-124.6301,Correct,-124.6301,"490 OCEAN DR.  LA PUSH, WA 98350",Correct,"490 OCEAN DR. LA PUSH, WA 98350",,Correct,CLALLAM,,Original,1731.0,1.0,yes,Active,POINT (-124.6301 47.90472000000001),Yes,0.0,Quileute,Quileute Reservation,,,From Original List,,,,,,,,,,,,,
77,1732,1732,QUEETS TRADING POST,Correct,QUEETS TRADING POST,402 JACKSON HEIGHTS DR.,Correct,402 JACKSON HEIGHTS DR.,FORKS,Correct,FORKS,WA,Correct,WA,98331,Correct,98331.0,47.538974,Correct,47.538974,-124.33218,Correct,-124.33218,"402 JACKSON HEIGHTS DR.  FORKS, WA 98331",Correct,"402 JACKSON HEIGHTS DR. FORKS, WA 98331",,Correct,JEFFERSON,,Original,1732.0,,,Active,POINT (-124.33218 47.538974),Yes,0.0,Quinault,Quinault Reservation,,,From Original List,,,,,,,,,,,,,
78,1733,1733,QUINAULT BEACH RESORT AND CASINO,Correct,QUINAULT BEACH RESORT AND CASINO,78 WA 115,78 -115,78 -115,OCEAN SHORES,Correct,OCEAN SHORES,WA,Correct,WA,98569,Correct,98569.0,47.040317,47.0432466,47.0432466,-124.158331,-124.17129709999999,-124.17129709999999,"78 WA 115  OCEAN SHORES, WA 98569","78 WA-115, Ocean Shores, WA 98569, USA","78 WA-115, Ocean Shores, WA 98569, USA",,Correct,GRAYS HARBOR,,Original,1733.0,,,Active,POINT (-124.1712971 47.0432466),No,13.140462326827947,,,Quinault,Quinault Reservation,From Original List,,,,,,,603477519,"QUINAULT SWEET GRASS HOTEL, LLC",  QUINAULT BEACH RESORT & CASINO,78 ST RT 115 PO BOX 2107 ,OCEAN SHORES,WA,985692107
79,1734,1734,FIDALGO BAY RESORT GIFT SHOP,Correct,FIDALGO BAY RESORT GIFT SHOP,4701 FIDALGO BAY RD.,Correct,4701 FIDALGO BAY RD.,ANACORTES,Correct,ANACORTES,WA,Correct,WA,98221,Correct,98221.0,48.482044,Correct,48.482044,-122.593807,Correct,-122.593807,"4701 FIDALGO BAY RD.  ANACORTES, WA 98221",Correct,"4701 FIDALGO BAY RD. ANACORTES, WA 98221",,Correct,SKAGIT,,Original,1734.0,,,Active,POINT (-122.593807 48.482044),No,3.4914646064351214,,,Swinomish,Swinomish Reservation,From Original List,,,,,,,602419080,"FIDALGO BAY CIGAR COMPANY, LLC",MARVIN C WILBUR,10043 S MARCH POINT RD  ,ANACORTES,WA,98221
80,1735,1735,TWO RIVERS SMOKE SHOP,Correct,TWO RIVERS SMOKE SHOP,5318 CHIEF BROWN LN.,22705 -530,22705 -530,DARRINGTON,Correct,DARRINGTON,WA,Correct,WA,98241,Correct,98241.0,48.320625,48.32170039999999,48.32170039999999,-121.554056,-121.55310800000001,-121.55310800000001,"5318 CHIEF BROWN LN.  DARRINGTON, WA 98241","22705 WA-530, Darrington, WA 98241, USA","22705 WA-530, Darrington, WA 98241, USA",,Correct,SKAGIT,,Original,1735.0,,,Active,POINT (-121.553108 48.32170039999999),No,0.003256003193452402,,,Sauk-Suiattle,Sauk-Suiattle Reservation,From Original List,,,,,,,,,,,,,
81,1736,1736,CHIEF LIGHTHOUSE CHARLEY'S,Correct,CHIEF LIGHTHOUSE CHARLEY'S,4020 HWY. 105,4020 -105,4020 -105,TOKELANE,TOKELAND,TOKELAND,WA,Correct,WA,98590,Correct,98590.0,46.728366,46.7283999,46.7283999,-124.038886,-124.0352315,-124.0352315,"4020 HWY. 105  TOKELANE, WA 98590","4020 WA-105, Tokeland, WA 98590, USA","4020 WA-105, Tokeland, WA 98590, USA",,Correct,PACIFIC,,Original,1736.0,,,Active,POINT (-124.0352315 46.7283999),Yes,0.0,Shoalwater Bay,Shoalwater Bay Indian Reservation,,,From Original List,,,,,,,602564473,CHIEF LIGHTHOUSE CHARLEY'S LLC,MONTY CARL BAKER,  ,,,
82,1737,1737,GEORGETOWN STATION,Correct,GEORGETOWN STATION,4115 S.R. HWY. 105,4115 -105,4115 -105,TOKELAND,Correct,TOKELAND,WA,Correct,WA,98590,Correct,98590.0,46.72752,46.7243946,46.7243946,-124.0513,-124.02126170000001,-124.02126170000001,"4115 S.R. HWY. 105  TOKELAND, WA 98590","4115 WA-105, Tokeland, WA 98590, USA","4115 WA-105, Tokeland, WA 98590, USA",,Correct,PACIFIC,,Original,1737.0,,,Active,POINT (-124.0212617 46.7243946),Yes,0.0,Shoalwater Bay,Shoalwater Bay Indian Reservation,,,From Original List,,,,,,,,,,,,,
83,1738,1738,SHOALWATER BAY CASINO,Correct,SHOALWATER BAY CASINO,4112 S.R. 105,4112 -105,4112 -105,TOKELAND,Correct,TOKELAND,WA,Correct,WA,98590,Correct,98590.0,46.7298,46.725016499999995,46.725016499999995,-123.9972,-124.02067079999999,-124.02067079999999,"4112 S.R. 105  TOKELAND, WA 98590","4112 WA-105, Tokeland, WA 98590, USA","4112 WA-105, Tokeland, WA 98590, USA",,Correct,PACIFIC,,Original,1738.0,,,Active,POINT (-124.0206708 46.7250165),Yes,0.0,Shoalwater Bay,Shoalwater Bay Indian Reservation,,,From Original List,,,,,,,,,,,,,
84,1739,1739,LUCKY DOG CASINO,Correct,LUCKY DOG CASINO,19330 U.S. 101,19330 US-101,19330 US-101,SKOKOMISH,Correct,SKOKOMISH,WA,Correct,WA,98584,Correct,98584.0,47.328968,47.337602200000006,47.337602200000006,-123.164271,-123.1602923,-123.1602923,"19330 U.S. 101  SKOKOMISH, WA 98584","19330 US-101, Skokomish, WA 98584, USA","19330 US-101, Skokomish, WA 98584, USA",,Correct,MASON,,Original,1739.0,,,Active,POINT (-123.1602923 47.33760220000001),Yes,0.0,Skokomish,Skokomish Reservation,,,From Original List,,,,,,,,,,,,,
85,1740,1740,TWIN TOTEMS GROCERY AND DELI,Correct,TWIN TOTEMS GROCERY AND DELI,19390 U.S. 101,19390 US-101,19390 US-101,SKOKOMISH,Correct,SKOKOMISH,WA,Correct,WA,98584,Correct,98584.0,47.329515,47.33823899999999,47.33823899999999,-123.16393899999998,-123.160269,-123.160269,"19390 U.S. 101  SKOKOMISH, WA 98584","19390 US-101, Skokomish, WA 98584, USA","19390 US-101, Skokomish, WA 98584, USA",,Correct,MASON,,Original,1740.0,,,Active,POINT (-123.160269 47.33823899999999),Yes,0.0,Skokomish,Skokomish Reservation,,,From Original List,,,,,,,,,,,,,
86,1741,1741,SNOQUALMIE CASINO,Correct,SNOQUALMIE CASINO,37500 S.E. NORTH BEND WAY,Correct,37500 S.E. NORTH BEND WAY,SNOQUALMIE,Correct,SNOQUALMIE,WA,Correct,WA,98065,Correct,98065.0,47.516855,Correct,47.516855,-121.841078,Correct,-121.841078,"37500 S.E. NORTH BEND WAY  SNOQUALMIE, WA 98065",Correct,"37500 S.E. NORTH BEND WAY SNOQUALMIE, WA 98065",,Correct,KING,,Original,1741.0,,,Active,POINT (-121.841078 47.516855),Yes,0.0,Snoqualmie,Snoqualmie Reservation,,,From Original List,,,,,,,602775879,SNOQUALMIE PROPERTIES LLC,JOHN D RADEMACHER,35905 SE SANDALEE CT  ,SNOQUALMIE,WA,98065
87,1742,1742,SNOQUALMIE TOBACCO COMPANY AND LIQUOR STORE,CRESCENT MARKET,CRESCENT MARKET,37500 B S.E. NORTH BEND WAY,Correct,37500 B S.E. NORTH BEND WAY,SNOQUALMIE,Correct,SNOQUALMIE,WA,Correct,WA,98065,Correct,98065.0,47.51416500000001,Correct,47.51416500000001,-121.848166,Correct,-121.848166,"37500 B S.E. NORTH BEND WAY  SNOQUALMIE, WA 98065",Correct,"37500 B S.E. NORTH BEND WAY SNOQUALMIE, WA 98065",,Correct,KING,,Original,1742.0,0.0,,Active,POINT (-121.848166 47.51416500000001),No,0.2707057980510402,,,Snoqualmie,Snoqualmie Reservation,From Original List,,,,,,,,,,,,,
88,1743,1743,CHEWELAH CASINO,CHEWELAH CASINO MISTEQUA CAFE,CHEWELAH CASINO MISTEQUA CAFE,2555 SMITH RD.,Correct,2555 SMITH RD.,CHEWELAH,Correct,CHEWELAH,WA,Correct,WA,99109,Correct,99109.0,48.237332,Correct,48.237332,-117.710775,Correct,-117.710775,"2555 SMITH RD.  CHEWELAH, WA 99109",Correct,"2555 SMITH RD. CHEWELAH, WA 99109",,Correct,STEVENS,,Original,1743.0,1.0,yes,Active,POINT (-117.710775 48.237332),No,0.005590806920609033,,,Spokane,Spokane Off-Reservation Trust Land,From Original List,,,,,,,,,,,,,
89,1744,1744,CHEWELAH SPOKO FUEL STATION,Correct,CHEWELAH SPOKO FUEL STATION,2509 U.S. 395,2509 US-395,2509 US-395,CHEWELAH,Correct,CHEWELAH,WA,Correct,WA,99109,Correct,99109.0,48.243918,48.24150089999999,48.24150089999999,-117.715207,-117.71460060000001,-117.71460060000001,"2509 U.S. 395  CHEWELAH, WA 99109","2509 US-395, Chewelah, WA 99109, USA","2509 US-395, Chewelah, WA 99109, USA",,Correct,STEVENS,,Original,1744.0,,,Active,POINT (-117.7146006 48.24150089999999),Yes,0.0,Spokane,Spokane Off-Reservation Trust Land,,,From Original List,,,,,,,,,,,,,
90,1745,1745,NUMBER ONE STORE,Correct,NUMBER ONE STORE,5243 FORD-WELLPINIT RD.,Correct,5243 FORD-WELLPINIT RD.,FORD,Correct,FORD,WA,Correct,WA,99013,Correct,99013.0,47.908711,Correct,47.908711,-117.809031,Correct,-117.809031,"5243 FORD-WELLPINIT RD.  FORD, WA 99013",Correct,"5243 FORD-WELLPINIT RD. FORD, WA 99013",,Correct,STEVENS,,Original,1745.0,,,Active,POINT (-117.809031 47.908711),Yes,0.0,Spokane,Spokane Reservation,,,From Original List,,,,,,,,,,,,,
91,1746,1746,PAPPY'S KORNER,Correct,PAPPY'S KORNER,6394 WEST END RD.,Correct,6394 WEST END RD.,FRUITLAND,Correct,FRUITLAND,WA,Correct,WA,99129,Correct,99129.0,47.968274,Correct,47.968274,-118.22423700000002,Correct,-118.22423700000002,"6394 WEST END RD.  FRUITLAND, WA 99129",Correct,"6394 WEST END RD. FRUITLAND, WA 99129",,Correct,STEVENS,,Original,1746.0,,,Active,POINT (-118.224237 47.968274),Yes,0.0,Spokane,Spokane Reservation,,,From Original List,,,,,,,,,,,,,
92,1747,1747,TWO RIVERS CASINO,Correct,TWO RIVERS CASINO,6828 B HWY. 25 S.,6828 B -25,6828 B -25,DAVENPORT,Correct,DAVENPORT,WA,Correct,WA,99122,Correct,99122.0,47.90601,47.9060088,47.9060088,-118.3266,-118.3265764,-118.3265764,"6828 B HWY. 25 S.  DAVENPORT, WA 99122","6828 B WA-25, Davenport, WA 99122, USA","6828 B WA-25, Davenport, WA 99122, USA",,Correct,STEVENS,,Original,1747.0,1.0,no,Active,POINT (-118.3265764 47.9060088),Yes,0.0,Spokane,Spokane Reservation,,,From Original List,,,,,,,,,,,,,
93,1748,1748,TWO RIVERS SPOKO FUEL STATION,Correct,TWO RIVERS SPOKO FUEL STATION,6828 HWY. 25 S.,Correct,6828 HWY. 25 S.,DAVENPORT,Correct,DAVENPORT,WA,Correct,WA,99122,Correct,99122.0,47.90601,Correct,47.90601,-118.3266,Correct,-118.3266,"6828 HWY. 25 S.  DAVENPORT, WA 99122",Correct,"6828 HWY. 25 S. DAVENPORT, WA 99122",,Correct,STEVENS,,Original,1748.0,1.0,yes,Active,POINT (-118.3266 47.90600999999999),Yes,0.0,Spokane,Spokane Reservation,,,From Original List,,,,,,,,,,,,,
94,1749,1749,WELLPINIT TRADING POST,Correct,WELLPINIT TRADING POST,6206 FORD-WELLPINIT RD.,Correct,6206 FORD-WELLPINIT RD.,WELLPINIT,Correct,WELLPINIT,WA,Correct,WA,99040,Correct,99040.0,47.888801,Correct,47.888801,-117.989597,Correct,-117.989597,"6206 FORD-WELLPINIT RD.  WELLPINIT, WA 99040",Correct,"6206 FORD-WELLPINIT RD. WELLPINIT, WA 99040",,Correct,STEVENS,,Original,1749.0,,,Active,POINT (-117.989597 47.888801),Yes,0.0,Spokane,Spokane Reservation,,,From Original List,,,,,,,,,,,,,
95,1750,1750,WEST PLAINS SPOKO FUEL STATION,Correct,WEST PLAINS SPOKO FUEL STATION,14212 U.S. 2,14212 US-2,14212 US-2,MEDICAL LAKE,Correct,MEDICAL LAKE,WA,Correct,WA,99022,Correct,99022.0,47.643014,47.6436256,47.6436256,-117.606664,-117.61243059999998,-117.61243059999998,"14212 U.S. 2  MEDICAL LAKE, WA 99022","14212 US-2, Medical Lake, WA 99022, USA","14212 US-2, Medical Lake, WA 99022, USA",,Correct,SPOKANE,,Original,1750.0,,,Active,POINT (-117.6124306 47.6436256),Yes,0.0,Spokane,Spokane Off-Reservation Trust Land,,,From Original List,,,,,,,,,,,,,
96,1751,1751,FRANK'S LANDING,Correct,FRANK'S LANDING,11117 CONINE AVE. S.E.,Correct,11117 CONINE AVE. S.E.,OLYMPIA,Correct,OLYMPIA,WA,Correct,WA,98513,Correct,98513.0,47.066748,Correct,47.066748,-122.704118,Correct,-122.704118,"11117 CONINE AVE. S.E.  OLYMPIA, WA 98513",Correct,"11117 CONINE AVE. S.E. OLYMPIA, WA 98513",,Correct,THURSTON,,Original,1751.0,,,Closed,POINT (-122.704118 47.066748),No,1.7743059578197398,,,Nisqually,Nisqually Reservation,From Original List,,,,,,,,,,,,,
97,1752,1752,KAMILCHE TRADING POST,Correct,KAMILCHE TRADING POST,61 W. HWY. 108,Correct,61 W. HWY. 108,SHELTON,Correct,SHELTON,WA,Correct,WA,98584,Correct,98584.0,47.130383,Correct,47.130383,-123.101727,Correct,-123.101727,"61 W. HWY. 108  SHELTON, WA 98584",Correct,"61 W. HWY. 108 SHELTON, WA 98584",,Correct,MASON,,Original,1752.0,,,Active,POINT (-123.101727 47.130383),Yes,0.0,Squaxin Island,Squaxin Island Off-Reservation Trust Land,,,From Original List,,,,,,,,,,,,,
98,1753,1753,KAMILCHE TRADING POST EXPRESS DRIVE-THRU,Correct,KAMILCHE TRADING POST EXPRESS DRIVE-THRU,3850 OLD OLYMPIC HWY.,Correct,3850 OLD OLYMPIC HWY.,SHELTON,Correct,SHELTON,WA,Correct,WA,98584,Correct,98584.0,47.127685,Correct,47.127685,-123.095421,Correct,-123.095421,"3850 OLD OLYMPIC HWY.  SHELTON, WA 98584",Correct,"3850 OLD OLYMPIC HWY. SHELTON, WA 98584",,Correct,MASON,,Original,1753.0,,,Active,POINT (-123.095421 47.127685),No,0.13555170921256282,,,Squaxin Island,Squaxin Island Off-Reservation Trust Land,From Original List,,,,,,,,,,,,,
99,1754,1754,LITTLE CREEK CASINO RESORT,Correct,LITTLE CREEK CASINO RESORT,91 W. S.R. 108,91 -108,91 -108,SHELTON,Correct,SHELTON,WA,Correct,WA,98584,Correct,98584.0,47.20366,47.12798129999999,47.12798129999999,-123.1649,-123.10098119999999,-123.10098119999999,"91 W. S.R. 108  SHELTON, WA 98584","91 WA-108, Shelton, WA 98584, USA","91 WA-108, Shelton, WA 98584, USA",,Correct,MASON,,Original,1754.0,,,Active,POINT (-123.1009812 47.12798129999999),Yes,0.0,Squaxin Island,Squaxin Island Reservation,,,From Original List,,,,,,,,,,,,,
100,1755,1755,SKOOKUM SPIRIT CIGAR AND WINE LOUNGE,Correct,SKOOKUM SPIRIT CIGAR AND WINE LOUNGE,91 W. S.R. 108,91 -108,91 -108,SHELTON,Correct,SHELTON,WA,Correct,WA,98584,Correct,98584.0,47.20366,47.1278193,47.1278193,-123.1649,-123.1014632,-123.1014632,"91 W. S.R. 108  SHELTON, WA 98584","91 WA-108, Shelton, WA 98584, USA","91 WA-108, Shelton, WA 98584, USA",,Correct,MASON,,Original,1755.0,,,Active,POINT (-123.1014632 47.1278193),Yes,0.0,Squaxin Island,Squaxin Island Reservation,,,From Original List,,,,,,,602667989,"SKOOKUM SOLAR ENERGY, LLC.",JEREMIE  WALLS,101 T-PEEKSIN LN  ,SHELTON,WA,98584
101,1756,1756,STEAMBOAT ISLAND ROAD DRIVE-THRU,Can't Validate,STEAMBOAT ISLAND ROAD DRIVE-THRU,6233 STEAMBOAT ISLAND RD.,Can't Validate,6233 STEAMBOAT ISLAND RD.,OLYMPIA,Can't Validate,OLYMPIA,WA,Can't Validate,WA,98502,Can't Validate,98502.0,47.122612,Can't Validate,47.122612,-123.003094,Can't Validate,-123.003094,"6233 STEAMBOAT ISLAND RD.  OLYMPIA, WA 98502",Can't Validate,"6233 STEAMBOAT ISLAND RD. OLYMPIA, WA 98502",,Can't Validate,THURSTON,,Original,1756.0,,,Can't Validate,POINT (-123.003094 47.122612),No,4.125618104678123,,,Squaxin Island,Squaxin Island Off-Reservation Trust Land,From Original List,,,,,,,602725565,"STEAMBOAT ISLAND, LLC",EDWARD  DICKEY,4923 69TH AVE NW  ,OLYMPIA,WA,98502
102,1757,1757,STEAMBOAT TRADING POST,Correct,STEAMBOAT TRADING POST,6610 SEXTON RD. N.W.,6610 SEXTON DR NW,6610 SEXTON DR NW,OLYMPIA,Correct,OLYMPIA,WA,Correct,WA,98502,Correct,98502.0,47.079477,47.0795565,47.0795565,-123.021262,-123.02088140000001,-123.02088140000001,"6610 SEXTON RD. N.W.  OLYMPIA, WA 98502","6610 Sexton Dr NW, Olympia, WA 98502, USA","6610 Sexton Dr NW, Olympia, WA 98502, USA",,Correct,THURSTON,,Original,1757.0,,,Active,POINT (-123.0208814 47.0795565),No,4.016052365985533,,,Squaxin Island,Squaxin Island Off-Reservation Trust Land,From Original List,,,,,,,602725565,"STEAMBOAT ISLAND, LLC",EDWARD  DICKEY,4923 69TH AVE NW  ,OLYMPIA,WA,98502
103,1758,1758,ANGEL OF THE WINDS CASINO,ANGEL OF THE WINDS CASINO RESORT,ANGEL OF THE WINDS CASINO RESORT,3438 STOLUCKQUAMISH LN.,Correct,3438 STOLUCKQUAMISH LN.,ARLINGTON,Correct,ARLINGTON,WA,Correct,WA,98223,Correct,98223.0,48.21431,Correct,48.21431,-122.18459,Correct,-122.18459,"3438 STOLUCKQUAMISH LN.  ARLINGTON, WA 98223",Correct,"3438 STOLUCKQUAMISH LN. ARLINGTON, WA 98223",,Correct,SNOHOMISH,,Original,1758.0,1.0,yes,Active,POINT (-122.18459 48.21431),Yes,0.0,Stillaguamish,Stillaguamish Reservation,,,From Original List,,,,,,,,,,,,,
104,1759,1759,RIVER ROCK SMOKE SHOP,Correct,RIVER ROCK SMOKE SHOP,21125 Smokey Point Blvd,Correct,21125 Smokey Point Blvd,Arlington,Correct,Arlington,WA,Correct,WA,98223,Correct,98223.0,48.187845,Correct,48.187845,-122.192972,Correct,-122.192972,"21125 Smokey Point Blvd  Arlington, WA 98223",Correct,"21125 Smokey Point Blvd Arlington, WA 98223",,Correct,SNOHOMISH,,Original,1759.0,,,Active,POINT (-122.192972 48.187845),No,0.0020405831462942483,,,Stillaguamish,Stillaguamish Off-Reservation Trust Land,From Original List,,,,,,,,,,,,,
105,1760,1760,RIVER ROCK TOBACCO & FUEL,Correct,RIVER ROCK TOBACCO & FUEL,23704 13TH AVE. N.E.,Correct,23704 13TH AVE. N.E.,ARLINGTON,Correct,ARLINGTON,WA,Correct,WA,98223,Correct,98223.0,48.21197,Correct,48.21197,-122.213045,Correct,-122.213045,"23704 13TH AVE. N.E.  ARLINGTON, WA 98223",Correct,"23704 13TH AVE. N.E. ARLINGTON, WA 98223",,Correct,SNOHOMISH,,Original,1760.0,,,Active,POINT (-122.213045 48.21197),Yes,0.0,Stillaguamish,Stillaguamish Off-Reservation Trust Land,,,From Original List,,,,,,,603330392,"EARTH & HOME, LLC",DIXIE  SMITH,5011 234TH ST NE  ,ARLINGTON,WA,98223
106,1761,1761,CLEARWATER CASINO RESORT,SUQUAMISH CLEARWATER CASINO RESORT,SUQUAMISH CLEARWATER CASINO RESORT,15347 SUQUAMISH WAY N.E.,Correct,15347 SUQUAMISH WAY N.E.,SUQUAMISH,Correct,SUQUAMISH,WA,Correct,WA,98392,Correct,98392.0,47.713077,Correct,47.713077,-122.571063,Correct,-122.571063,"15347 SUQUAMISH WAY N.E.  SUQUAMISH, WA 98392",Correct,"15347 SUQUAMISH WAY N.E. SUQUAMISH, WA 98392",,Correct,KITSAP,,Original,1761.0,1.0,yes,Active,POINT (-122.571063 47.713077),Yes,0.0,Port Madison,Port Madison Reservation,,,From Original List,,,,,,,602654399,SUQUAMISH ENVIRONMENTAL EDUCATION,TERI  MCDANIEL,18950 PARK AVE  ,SUQUAMISH,WA,98392
107,1762,1762,LONGHOUSE TEXACO,Correct,LONGHOUSE TEXACO,15915 WA 305 N.E.,15915 -305,15915 -305,POULSBO,Correct,POULSBO,WA,Correct,WA,98370,Correct,98370.0,47.71123400000001,47.711528200000004,47.711528200000004,-122.578713,-122.57909850000001,-122.57909850000001,"15915 WA 305 N.E.  POULSBO, WA 98370","15915 WA-305, Poulsbo, WA 98370, USA","15915 WA-305, Poulsbo, WA 98370, USA",,Correct,KITSAP,,Original,1762.0,,,Active,POINT (-122.5790985 47.7115282),Yes,0.0,Port Madison,Port Madison Reservation,,,From Original List,,,,,,,,,,,,,
108,1763,1763,SHELL/MASI SHOP,Correct,SHELL/MASI SHOP,16281 WA 305 N.E.,16281 -305,16281 -305,POULSBO,Correct,POULSBO,WA,Correct,WA,98370,Correct,98370.0,47.708205,47.708039899999996,47.708039899999996,-122.584346,-122.58317530000001,-122.58317530000001,"16281 WA 305 N.E.  POULSBO, WA 98370","16281 WA-305, Poulsbo, WA 98370, USA","16281 WA-305, Poulsbo, WA 98370, USA",,Correct,KITSAP,,Original,1763.0,1.0,yes,Active,POINT (-122.5831753 47.7080399),Yes,0.0,Port Madison,Port Madison Reservation,,,From Original List,,,,,,,,,,,,,
109,1764,1764,SUQUAMISH VILLAGE SHELL,Correct,SUQUAMISH VILLAGE SHELL,18480 SUQUAMISH WAY N.E.,Correct,18480 SUQUAMISH WAY N.E.,SUQUAMISH,Correct,SUQUAMISH,WA,Correct,WA,98392,Correct,98392.0,47.728613,Correct,47.728613,-122.560061,Correct,-122.560061,"18480 SUQUAMISH WAY N.E.  SUQUAMISH, WA 98392",Correct,"18480 SUQUAMISH WAY N.E. SUQUAMISH, WA 98392",,Correct,KITSAP,,Original,1764.0,,,Active,POINT (-122.560061 47.728613),Yes,0.0,Port Madison,Port Madison Reservation,,,From Original List,,,,,,,602654399,SUQUAMISH ENVIRONMENTAL EDUCATION,TERI  MCDANIEL,18950 PARK AVE  ,SUQUAMISH,WA,98392
110,1765,1765,NORTHERN LIGHTS CHEVRON,CHEVRON ANACORTES,CHEVRON ANACORTES,12939 CASINO DR.,Correct,12939 CASINO DR.,ANACORTES,Correct,ANACORTES,WA,Correct,WA,98221,Correct,98221.0,48.456282,Correct,48.456282,-122.518631,Correct,-122.518631,"12939 CASINO DR.  ANACORTES, WA 98221",Correct,"12939 CASINO DR. ANACORTES, WA 98221",,Correct,SKAGIT,,Original,1765.0,0.0,,Active,POINT (-122.518631 48.456282),Yes,0.0,Swinomish,Swinomish Reservation,,,From Original List,,,,,,,601601748,FRIENDS OF THE ANACORTES PUBLIC LIBRARY,KAY  O CONNELL,  ,,,
111,1766,1766,SWINOMISH CASINO & LODGE,Correct,SWINOMISH CASINO & LODGE,12885 CASINO DR.,Correct,12885 CASINO DR.,ANACORTES,Correct,ANACORTES,WA,Correct,WA,98221,Correct,98221.0,48.457571,Correct,48.457571,-122.523734,Correct,-122.523734,"12885 CASINO DR.  ANACORTES, WA 98221",Correct,"12885 CASINO DR. ANACORTES, WA 98221",,Correct,SKAGIT,,Original,1766.0,,,Active,POINT (-122.523734 48.457571),Yes,0.0,Swinomish,Swinomish Reservation,,,From Original List,,,,,,,,,,,,,
112,1767,1767,THE VILLAGE CHEVRON,Correct,THE VILLAGE CHEVRON,17599 FRONT ST.,Correct,17599 FRONT ST.,LA CONNER,Correct,LA CONNER,WA,Correct,WA,98257,Correct,98257.0,48.390427,Correct,48.390427,-122.501724,Correct,-122.501724,"17599 FRONT ST.  LA CONNER, WA 98257",Correct,"17599 FRONT ST. LA CONNER, WA 98257",,Correct,SKAGIT,,Original,1767.0,,,Active,POINT (-122.501724 48.390427),Yes,0.0,Swinomish,Swinomish Reservation,,,From Original List,,,,,,,,,,,,,
113,1768,1768,TRADING POST,PACIFIC BLANKET TRADING POST,PACIFIC BLANKET TRADING POST,10045 S. MARCH POINT RD.,Correct,10045 S. MARCH POINT RD.,ANACORTES,Correct,ANACORTES,WA,Correct,WA,98221,Correct,98221.0,48.461106,Correct,48.461106,-122.528611,Correct,-122.528611,"10045 S. MARCH POINT RD.  ANACORTES, WA 98221",Correct,"10045 S. MARCH POINT RD. ANACORTES, WA 98221",,Correct,SKAGIT,,Original,1768.0,0.0,,Active,POINT (-122.528611 48.461106),No,0.061420661693727875,,,Swinomish,Swinomish Reservation,From Original List,,,,,,,,,,,,,
114,1769,1769,7 CEDARS CASINO,Correct,7 CEDARS CASINO,270756 HWY. 101,270756 US-101,270756 US-101,SEQUIM,Correct,SEQUIM,WA,Correct,WA,98382,Correct,98382.0,48.020567,48.0219508,48.0219508,-123.003357,-123.01077120000001,-123.01077120000001,"270756 HWY. 101  SEQUIM, WA 98382","270756 US-101, Sequim, WA 98382, USA","270756 US-101, Sequim, WA 98382, USA",,Correct,CLALLAM,,Original,1769.0,,,Active,POINT (-123.0107712 48.0219508),Yes,0.0,Jamestown S'Klallam,Jamestown S'Klallam Reservation,,,From Original List,,,,,,,,,,,,,
115,1770,1770,CHEVRON,Correct,CHEVRON,271022 HWY. 101,Correct,271022 HWY. 101,SEQUIM,Correct,SEQUIM,WA,Correct,WA,98382,Correct,98382.0,48.020567,Correct,48.020567,-123.003357,Correct,-123.003357,"271022 HWY. 101  SEQUIM, WA 98382",Correct,"271022 HWY. 101 SEQUIM, WA 98382",,Correct,CLALLAM,,Original,1770.0,1.0,yes,Active,POINT (-123.003357 48.020567),Yes,0.0,Jamestown S'Klallam,Jamestown S'Klallam Off-Reservation Trust Land,,,From Original List,,,,,,,,,,,,,
116,1771,1771,LONGHOUSE MARKET AND DELI,Correct,LONGHOUSE MARKET AND DELI,272010 HWY. 101,271020 US-101,271020 US-101,SEQUIM,Correct,SEQUIM,WA,Correct,WA,98382,Correct,98382.0,48.023073,48.020086299999996,48.020086299999996,-123.010547,-123.0032514,-123.0032514,"272010 HWY. 101  SEQUIM, WA 98382","271020 US-101, Sequim, WA 98382, USA","271020 US-101, Sequim, WA 98382, USA",,Correct,CLALLAM,,Original,1771.0,1.0,yes,Active,POINT (-123.0032514 48.0200863),Yes,0.0,Jamestown S'Klallam,Jamestown S'Klallam Off-Reservation Trust Land,,,From Original List,,,,,,,,,,,,,
117,1772,1772,CHEVRON,KALISPEL MARKET CHEVRON,KALISPEL MARKET CHEVRON,100 N. HAYFORD RD.,220 S HAYFORD RD,220 S HAYFORD RD,AIRWAY HEIGHTS,Correct,AIRWAY HEIGHTS,WA,Correct,WA,99001,Correct,99001.0,47.656524,47.6535859,47.6535859,-117.560951,-117.56153300000001,-117.56153300000001,"100 N. HAYFORD RD.  AIRWAY HEIGHTS, WA 99001","220 S Hayford Rd, Airway Heights, WA 99001, USA","220 S Hayford Rd, Airway Heights, WA 99001, USA",,Correct,SPOKANE,,Original,1772.0,1.0,yes,Active,POINT (-117.561533 47.6535859),Yes,0.0,Kalispel,Kalispel Off-Reservation Trust Land,,,From Original List,,,,,,,,,,,,,
118,1773,1773,LEGENDS OF FIRE,Correct,LEGENDS OF FIRE,100 N. HAYFORD RD.,Correct,100 N. HAYFORD RD.,AIRWAY HEIGHTS,Correct,AIRWAY HEIGHTS,WA,Correct,WA,99001,Correct,99001.0,47.656524,Correct,47.656524,-117.560951,Correct,-117.560951,"100 N. HAYFORD RD.  AIRWAY HEIGHTS, WA 99001",Correct,"100 N. HAYFORD RD. AIRWAY HEIGHTS, WA 99001",,Correct,SPOKANE,,Original,1773.0,,,Active,POINT (-117.560951 47.656524),Yes,0.0,Kalispel,Kalispel Off-Reservation Trust Land,,,From Original List,,,,,,,,,,,,,
119,1774,1774,NORTHERN QUEST CASINO,Correct,NORTHERN QUEST CASINO,100 N. HAYFORD RD.,Correct,100 N. HAYFORD RD.,AIRWAY HEIGHTS,Correct,AIRWAY HEIGHTS,WA,Correct,WA,99001,Correct,99001.0,47.656524,Correct,47.656524,-117.560951,Correct,-117.560951,"100 N. HAYFORD RD.  AIRWAY HEIGHTS, WA 99001",Correct,"100 N. HAYFORD RD. AIRWAY HEIGHTS, WA 99001",,Correct,SPOKANE,,Original,1774.0,0.0,,Active,POINT (-117.560951 47.656524),Yes,0.0,Kalispel,Kalispel Off-Reservation Trust Land,,,From Original List,,,,,,,,,,,,,
120,1775,1775,ELWHA RIVER CASINO,Correct,ELWHA RIVER CASINO,631 STRATTON RD.,Correct,631 STRATTON RD.,PORT ANGELES,Correct,PORT ANGELES,WA,Correct,WA,98362,Correct,98362.0,48.135549,Correct,48.135549,-123.546831,Correct,-123.546831,"631 STRATTON RD.  PORT ANGELES, WA 98362",Correct,"631 STRATTON RD. PORT ANGELES, WA 98362",,Correct,CLALLAM,,Original,1775.0,,,Active,POINT (-123.546831 48.135549),Yes,0.0,Lower Elwha,Lower Elwha Off-Reservation Trust Land,,,From Original List,,,,,,,602941859,ELWHA VALLEY SERVICES INC,JESSE  OTTERSTETTER,1111 SOUTH N ST  ,PORT ANGELES,WA,98363
121,1776,1776,LOWER ELWHA TRIBAL SMOKE SHOP,Correct,LOWER ELWHA TRIBAL SMOKE SHOP,2851 LOWER ELWHA RD.,Correct,2851 LOWER ELWHA RD.,PORT ANGELES,Correct,PORT ANGELES,WA,Correct,WA,98363,Correct,98363.0,48.144222,Correct,48.144222,-123.552894,Correct,-123.552894,"2851 LOWER ELWHA RD.  PORT ANGELES, WA 98363",Correct,"2851 LOWER ELWHA RD. PORT ANGELES, WA 98363",,Correct,CLALLAM,,Original,1776.0,,,Active,POINT (-123.552894 48.144222),Yes,0.0,Lower Elwha,Lower Elwha Reservation,,,From Original List,,,,,,,602941859,ELWHA VALLEY SERVICES INC,JESSE  OTTERSTETTER,1111 SOUTH N ST  ,PORT ANGELES,WA,98363
122,1777,1777,260 TOBACCO & FINE SPIRITS  L.C.C.,Correct,260 TOBACCO & FINE SPIRITS  L.C.C.,4940 RURAL AVE.,Correct,4940 RURAL AVE.,FERNDALE,Correct,FERNDALE,WA,Correct,WA,98248,Correct,98248.0,48.817553,Correct,48.817553,-122.554651,Correct,-122.554651,"4940 RURAL AVE.  FERNDALE, WA 98248",Correct,"4940 RURAL AVE. FERNDALE, WA 98248",,Correct,WHATCOM,,Original,1777.0,,,Active,POINT (-122.554651 48.817553),No,2.639994993874029,,,Lummi,Lummi Reservation,From Original List,,,,,,,602401253,"A & A, INC.",ALEXANDER  ELIZAVETSKY,6177 PACIFIC HEIGHTS DR  ,FERNDALE,WA,98248
123,1778,1778,LUMMI MINI MART,Correct,LUMMI MINI MART,4884 HAXTON WAY,Correct,4884 HAXTON WAY,FERNDALE,Correct,FERNDALE,WA,Correct,WA,98248,Correct,98248.0,48.817275,Correct,48.817275,-122.627762,Correct,-122.627762,"4884 HAXTON WAY  FERNDALE, WA 98248",Correct,"4884 HAXTON WAY FERNDALE, WA 98248",,Correct,WHATCOM,,Original,1778.0,,,Active,POINT (-122.627762 48.817275),Yes,0.0,Lummi,Lummi Reservation,,,From Original List,,,,,,,,,,,,,
124,1779,1779,SILVER REEF CASINO,SILVER REEF HOTEL CASINO SPA,SILVER REEF HOTEL CASINO SPA,4876 HAXTON WAY,Correct,4876 HAXTON WAY,FERNDALE,Correct,FERNDALE,WA,Correct,WA,98248,Correct,98248.0,48.816967,Correct,48.816967,-122.627762,Correct,-122.627762,"4876 HAXTON WAY  FERNDALE, WA 98248",Correct,"4876 HAXTON WAY FERNDALE, WA 98248",,Correct,WHATCOM,,Original,1779.0,0.0,,Active,POINT (-122.627762 48.816967),Yes,0.0,Lummi,Lummi Reservation,,,From Original List,,,,,,,,,,,,,
125,1780,1780,MAKAH MINI MART & FUEL FACILITY,Correct,MAKAH MINI MART & FUEL FACILITY,931 BAYVIEW AVE.,Correct,931 BAYVIEW AVE.,NEAH BAY,Correct,NEAH BAY,WA,Correct,WA,98357,Correct,98357.0,48.36624000000001,Correct,48.36624000000001,-124.6168,Correct,-124.6168,"931 BAYVIEW AVE.  NEAH BAY, WA 98357",Correct,"931 BAYVIEW AVE. NEAH BAY, WA 98357",,Correct,CLALLAM,,Original,1780.0,,,Active,POINT (-124.6168 48.36624000000001),Yes,0.0,Makah,Makah Indian Reservation,,,From Original List,,,,,,,602742274,MAKAH NORTHWEST GENERAL CONTRACTOR LLC,JODDIE JOHNSON RAY,  ,NEAH BAY,WA,     
126,1781,1781,WASHBURN GENERAL STORE,Correct,WASHBURN GENERAL STORE,1450 BAYVIEW AVE.,Correct,1450 BAYVIEW AVE.,NEAH BAY,Correct,NEAH BAY,WA,Correct,WA,98357,Correct,98357.0,48.36558,Correct,48.36558,-124.6078,Correct,-124.6078,"1450 BAYVIEW AVE.  NEAH BAY, WA 98357",Correct,"1450 BAYVIEW AVE. NEAH BAY, WA 98357",,Correct,CLALLAM,,Original,1781.0,,,Active,POINT (-124.6078 48.36558),Yes,0.0,Makah,Makah Indian Reservation,,,From Original List,,,,,,,,,,,,,
127,1782,1782,MUCKLESHOOT CASINO,Correct,MUCKLESHOOT CASINO,2402 AUBURN WAY SOUTH,Correct,2402 AUBURN WAY SOUTH,AUBURN,Correct,AUBURN,WA,Correct,WA,98002,Correct,98002.0,47.291644,Correct,47.291644,-122.207043,Correct,-122.207043,"2402 AUBURN WAY SOUTH  AUBURN, WA 98002",Correct,"2402 AUBURN WAY SOUTH AUBURN, WA 98002",,Correct,KING,,Original,1782.0,,,Active,POINT (-122.207043 47.291644),Yes,0.0,Muckleshoot,Muckleshoot Reservation,,,From Original List,,,,,,,,,,,,,
128,1783,1783,MUCKLESHOOT BINGO / SMOKE SHOP,Correct,MUCKLESHOOT BINGO / SMOKE SHOP,2117 AUBURN WAY SOUTH,Correct,2117 AUBURN WAY SOUTH,AUBURN,Correct,AUBURN,WA,Correct,WA,98002,Correct,98002.0,47.292265,Correct,47.292265,-122.209615,Correct,-122.209615,"2117 AUBURN WAY SOUTH  AUBURN, WA 98002",Correct,"2117 AUBURN WAY SOUTH AUBURN, WA 98002",,Correct,KING,,Original,1783.0,,,Active,POINT (-122.209615 47.292265),No,0.10286573367134494,,,Muckleshoot,Muckleshoot Reservation,From Original List,,,,,,,603499226,HIGHER 8  LLC,WILLIE  HUGHES,1402 AUBURN WAY N #116  ,AUBURN,WA,98002
129,1784,1784,MUCKLESHOOT DELI/SHELL,Correct,MUCKLESHOOT DELI/SHELL,2802 AUBURN WAY S.,Correct,2802 AUBURN WAY S.,AUBURN,Correct,AUBURN,WA,Correct,WA,98002,Correct,98002.0,47.332401,Correct,47.332401,-122.221563,Correct,-122.221563,"2802 AUBURN WAY S.  AUBURN, WA 98002",Correct,"2802 AUBURN WAY S. AUBURN, WA 98002",,Correct,KING,,Original,1784.0,,,Active,POINT (-122.221563 47.332401),No,2.2302131812134305,,,Muckleshoot,Muckleshoot Reservation,From Original List,,,,,,,,,,,,,
130,1785,1785,MUCKLESHOOT SMOKE SHOP,Correct,MUCKLESHOOT SMOKE SHOP,2115 AUBURN WAY SOUTH,Correct,2115 AUBURN WAY SOUTH,AUBURN,Correct,AUBURN,WA,Correct,WA,98002,Correct,98002.0,47.29218,Correct,47.29218,-122.209325,Correct,-122.209325,"2115 AUBURN WAY SOUTH  AUBURN, WA 98002",Correct,"2115 AUBURN WAY SOUTH AUBURN, WA 98002",,Correct,KING,,Original,1785.0,,,Active,POINT (-122.209325 47.29218),No,0.08396996757267082,,,Muckleshoot,Muckleshoot Reservation,From Original List,,,,,,,,,,,,,
131,1786,1786,SALISH LODGE,Correct,SALISH LODGE,6501 RAILROAD AVE. S.E.,Correct,6501 RAILROAD AVE. S.E.,SNOQUALMIE,Correct,SNOQUALMIE,WA,Correct,WA,98065,Correct,98065.0,47.546979,Correct,47.546979,-121.836194,Correct,-121.836194,"6501 RAILROAD AVE. S.E.  SNOQUALMIE, WA 98065",Correct,"6501 RAILROAD AVE. S.E. SNOQUALMIE, WA 98065",,Correct,KING,,Original,1786.0,1.0,yes,Active,POINT (-121.836194 47.546979),No,1.6180086095733954,,,Snoqualmie,Snoqualmie Reservation,From Original List,,,,,,,602767166,SALISH LODGE LLC,INC  BS&G,1191 2ND AVE #1800  ,SEATTLE,WA,981012939
132,1787,1787,NISQUALLY EXPRESS ESPRESSO & TOBACCO,Correct,NISQUALLY EXPRESS ESPRESSO & TOBACCO,10324 MARTIN WAY E.,Correct,10324 MARTIN WAY E.,OLYMPIA,Correct,OLYMPIA,WA,Correct,WA,98516,Correct,98516.0,47.066003,Correct,47.066003,-122.720034,Correct,-122.720034,"10324 MARTIN WAY E.  OLYMPIA, WA 98516",Correct,"10324 MARTIN WAY E. OLYMPIA, WA 98516",,Correct,THURSTON,,Original,1787.0,,,Active,POINT (-122.720034 47.066003),No,2.248416478018103,,,Nisqually,Nisqually Reservation,From Original List,,,,,,,602955863,"NISQUALLY COMMERCIAL PARK, LLC",DONNALEE  ELWESS,  ,,,
133,1788,1788,NISQUALLY MARKETS,Correct,NISQUALLY MARKETS,11741 PACIFIC HWY. S.W.,Correct,11741 PACIFIC HWY. S.W.,LAKEWOOD,Correct,LAKEWOOD,WA,Correct,WA,98499,Correct,98499.0,47.150331,Correct,47.150331,-122.502625,Correct,-122.502625,"11741 PACIFIC HWY. S.W.  LAKEWOOD, WA 98499",Correct,"11741 PACIFIC HWY. S.W. LAKEWOOD, WA 98499",,Correct,PIERCE,,Original,1788.0,,,Active,POINT (-122.502625 47.150331),No,7.263700388960331,,,Puyallup,Puyallup Reservation,From Original List,,,,,,,,,,,,,
134,1789,1789,NISQUALLY REZ MART,Correct,NISQUALLY REZ MART,12827 YELM HWY. S.E.,Correct,12827 YELM HWY. S.E.,OLYMPIA,Correct,OLYMPIA,WA,Correct,WA,98513,Correct,98513.0,47.001417,Correct,47.001417,-122.668994,Correct,-122.668994,"12827 YELM HWY. S.E.  OLYMPIA, WA 98513",Correct,"12827 YELM HWY. S.E. OLYMPIA, WA 98513",,Correct,THURSTON,,Original,1789.0,,,Active,POINT (-122.668994 47.001417),Yes,0.0,Nisqually,Nisqually Reservation,,,From Original List,,,,,,,602955863,"NISQUALLY COMMERCIAL PARK, LLC",DONNALEE  ELWESS,  ,,,
135,1790,1790,RED WIND CASINO,NISQUALLY RED WIND CASINO,NISQUALLY RED WIND CASINO,12819 YELM HWY. S.E.,Correct,12819 YELM HWY. S.E.,OLYMPIA,Correct,OLYMPIA,WA,Correct,WA,98513,Correct,98513.0,47.001266,Correct,47.001266,-122.668576,Correct,-122.668576,"12819 YELM HWY. S.E.  OLYMPIA, WA 98513",Correct,"12819 YELM HWY. S.E. OLYMPIA, WA 98513",,Correct,THURSTON,,Original,1790.0,1.0,yes,Active,POINT (-122.668576 47.00126599999999),Yes,0.0,Nisqually,Nisqually Reservation,,,From Original List,,,,,,,602955863,"NISQUALLY COMMERCIAL PARK, LLC",DONNALEE  ELWESS,  ,,,
136,1791,1791,LESCHI'S BEST,Correct,LESCHI'S BEST,13209 LESCHI CIR.,Correct,13209 LESCHI CIR.,OLYMPIA,Correct,OLYMPIA,WA,Correct,WA,98513,Correct,98513.0,46.996962,Correct,46.996962,-122.660757,Correct,-122.660757,"13209 LESCHI CIR.  OLYMPIA, WA 98513",Correct,"13209 LESCHI CIR. OLYMPIA, WA 98513",,Correct,THURSTON,,Original,1791.0,,,Active,POINT (-122.660757 46.996962),No,0.057474965775359724,,,Nisqually,Nisqually Reservation,From Original List,,,,,,,,,,,,,
137,1792,1792,NOOKSACK MARKET CENTRE/CHEVRON,Correct,NOOKSACK MARKET CENTRE/CHEVRON,5047 Mt Baker Hwy,Correct,5047 Mt Baker Hwy,Deming,Correct,Deming,WA,Correct,WA,98244,Correct,98244.0,48.8264,Correct,48.8264,-122.21711,Correct,-122.21711,"5047 Mt Baker Hwy  Deming, WA 98244",Correct,"5047 Mt Baker Hwy Deming, WA 98244",,Correct,WHATCOM,,Original,1792.0,,,Active,POINT (-122.21711 48.8264),No,0.10615336963197512,,,Nooksack,Nooksack Off-Reservation Trust Land,From Original List,,,,,,,602572366,NOOKSACK HOUSING LIMITED PARTNERSHIP #3,BURT  CUEVA,  ,,,
138,1793,1793,NOOKSACK RIVER CASINO,Correct,NOOKSACK RIVER CASINO,5048 MOUNT BAKER HWY.,Correct,5048 MOUNT BAKER HWY.,DEMING,Correct,DEMING,WA,Correct,WA,98244,Correct,98244.0,48.8264,Correct,48.8264,-122.21711,Correct,-122.21711,"5048 MOUNT BAKER HWY.  DEMING, WA 98244",Correct,"5048 MOUNT BAKER HWY. DEMING, WA 98244",,Correct,WHATCOM,,Original,1793.0,,,Closed,POINT (-122.21711 48.8264),No,0.10615336963197512,,,Nooksack,Nooksack Off-Reservation Trust Land,From Original List,,,,,,,602572366,NOOKSACK HOUSING LIMITED PARTNERSHIP #3,BURT  CUEVA,  ,,,
139,1794,1794,NORTHWOOD CASINO,NOOKSACK NORTHWOOD CASINO,NOOKSACK NORTHWOOD CASINO,9750 NORTHWOOD RD.,Correct,9750 NORTHWOOD RD.,LYNDEN,Correct,LYNDEN,WA,Correct,WA,98264,Correct,98264.0,48.99514,Correct,48.99514,-122.40766399999998,Correct,-122.40766399999998,"9750 NORTHWOOD RD.  LYNDEN, WA 98264",Correct,"9750 NORTHWOOD RD. LYNDEN, WA 98264",,Correct,WHATCOM,,Original,1794.0,0.0,,Active,POINT (-122.407664 48.99514),Yes,0.0,Nooksack,Nooksack Off-Reservation Trust Land,,,From Original List,,,,,,,603594244,NOOKSACK VALLEY RIDERS ASSOCIATION,JENNIFER  SNIDER,  ,,,
140,1795,1795,GLIDING EAGLE MARKETPLACE (SHELL),Correct,GLIDING EAGLE MARKETPLACE (SHELL),8000 LITTLE BOSTON RD.,Correct,8000 LITTLE BOSTON RD.,KINGSTON,Correct,KINGSTON,WA,Correct,WA,98346,Correct,98346.0,47.838768,Correct,47.838768,-122.542584,Correct,-122.542584,"8000 LITTLE BOSTON RD.  KINGSTON, WA 98346",Correct,"8000 LITTLE BOSTON RD. KINGSTON, WA 98346",,Correct,KITSAP,,Original,1795.0,1.0,yes,Active,POINT (-122.542584 47.838768),Yes,0.0,Port Gamble,Port Gamble Reservation,,,From Original List,,,,,,,,,,,,,
141,1796,1796,THE POINT CASINO,Correct,THE POINT CASINO,7989 SALISH LN. N.E.,Correct,7989 SALISH LN. N.E.,KINGSTON,Correct,KINGSTON,WA,Correct,WA,98346,Correct,98346.0,47.84418400000001,Correct,47.84418400000001,-122.541562,Correct,-122.541562,"7989 SALISH LN. N.E.  KINGSTON, WA 98346",Correct,"7989 SALISH LN. N.E. KINGSTON, WA 98346",,Correct,KITSAP,,Original,1796.0,1.0,yes,Active,POINT (-122.541562 47.84418400000001),Yes,0.0,Port Gamble,Port Gamble Reservation,,,From Original List,,,,,,,,,,,,,
142,1797,1797,QUIL CEDA CREEK CASINO,Correct,QUIL CEDA CREEK CASINO,6410 33RD AVENUE NORTHEAST.,Correct,6410 33RD AVENUE NORTHEAST.,TULALIP,Correct,TULALIP,WA,Correct,WA,98271,Correct,98271.0,48.053885,Correct,48.053885,-122.18727,Correct,-122.18727,"6410 33RD AVENUE NORTHEAST.  TULALIP, WA 98271",Correct,"6410 33RD AVENUE NORTHEAST. TULALIP, WA 98271",,Correct,SNOHOMISH,,Original,1797.0,,,Active,POINT (-122.18727 48.053885),Yes,0.0,Tulalip,Tulalip Reservation,,,From Original List,,,,,,,603043044,QUIL CEDA CREEK LLC,NICOLE  HATCH,7011 115TH ST NW  ,TULALIP,WA,98271
143,1798,1798,TULALIP RESORT CASINO,Correct,TULALIP RESORT CASINO,10200 QUIL CEDA BOULEVARD,Correct,10200 QUIL CEDA BOULEVARD,QUIL CEDA VILLAGE,Correct,QUIL CEDA VILLAGE,WA,Correct,WA,98271,Correct,98271.0,48.088279,Correct,48.088279,-122.186055,Correct,-122.186055,"10200 QUIL CEDA BOULEVARD  QUIL CEDA VILLAGE, WA 98271",Correct,"10200 QUIL CEDA BOULEVARD QUIL CEDA VILLAGE, WA 98271",,Correct,SNOHOMISH,,Original,1798.0,,,Active,POINT (-122.186055 48.088279),Yes,0.0,Tulalip,Tulalip Reservation,,,From Original List,,,,,,,604102042,TULALIP LITTLE LEAGUE,MARLIN  FRYBERG JR,  ,,,
144,1799,1799,TULALIP LIQUOR STORE & SMOKE SHOP,Correct,TULALIP LIQUOR STORE & SMOKE SHOP,6326 33RD AVE. N.E.,Correct,6326 33RD AVE. N.E.,TULALIP,Correct,TULALIP,WA,Correct,WA,98271,Correct,98271.0,48.05308,Correct,48.05308,-122.187269,Correct,-122.187269,"6326 33RD AVE. N.E.  TULALIP, WA 98271",Correct,"6326 33RD AVE. N.E. TULALIP, WA 98271",,Correct,SNOHOMISH,,Original,1799.0,,,Active,POINT (-122.187269 48.05308),Yes,0.0,Tulalip,Tulalip Reservation,,,From Original List,,,,,,,604102042,TULALIP LITTLE LEAGUE,MARLIN  FRYBERG JR,  ,,,
145,1800,1800,TULALIP LIQUOR STORE & SMOKE SHOP - QUIL CEDA,Correct,TULALIP LIQUOR STORE & SMOKE SHOP - QUIL CEDA,8825 34TH AVE. N.E.,Correct,8825 34TH AVE. N.E.,TULALIP,Correct,TULALIP,WA,Correct,WA,98271,Correct,98271.0,48.096425,Correct,48.096425,-122.190368,Correct,-122.190368,"8825 34TH AVE. N.E.  TULALIP, WA 98271",Correct,"8825 34TH AVE. N.E. TULALIP, WA 98271",,Correct,SNOHOMISH,,Original,1800.0,,,Active,POINT (-122.190368 48.096425),Yes,0.0,Tulalip,Tulalip Reservation,,,From Original List,,,,,,,604102042,TULALIP LITTLE LEAGUE,MARLIN  FRYBERG JR,  ,,,
146,1801,1801,THE SKAGIT,Can't Validate,THE SKAGIT,5984 NORTH DARRK LANE,Can't Validate,5984 NORTH DARRK LANE,BOW,Can't Validate,BOW,WA,Can't Validate,WA,98232,Can't Validate,98232.0,48.560914,Can't Validate,48.560914,-122.346154,Can't Validate,-122.346154,"5984 NORTH DARRK LANE  BOW, WA 98232",Can't Validate,"5984 NORTH DARRK LANE BOW, WA 98232",,Can't Validate,SKAGIT,,Original,1801.0,,,Can't Validate,POINT (-122.346154 48.560914),Yes,0.0,Upper Skagit,Upper Skagit Reservation,,,From Original List,,,,,,,602340546,SKAGIT HEIGHTS COMMUNITY CLUB,MATT  CARRIGG,17094 BOW HILL RD  ,BOW,WA,98232
147,1802,1802,THE SKAGIT BOW HILL FOOD & GAS MARKET,Correct,THE SKAGIT BOW HILL FOOD & GAS MARKET,18520 BOW HILL RD.,Correct,18520 BOW HILL RD.,BOW,Correct,BOW,WA,Correct,WA,98232,Correct,98232.0,48.556507,Correct,48.556507,-122.34444,Correct,-122.34444,"18520 BOW HILL RD.  BOW, WA 98232",Correct,"18520 BOW HILL RD. BOW, WA 98232",,Correct,SKAGIT,,Original,1802.0,,,Active,POINT (-122.34444 48.556507),No,0.0004795959380691131,,,Upper Skagit,Upper Skagit Off-Reservation Trust Land,From Original List,,,,,,,602340546,SKAGIT HEIGHTS COMMUNITY CLUB,MATT  CARRIGG,17094 BOW HILL RD  ,BOW,WA,98232
148,1803,1803,UPPER SKAGIT INDIAN TRIBE DRIVE-THRU TOBACCO SHOP,Correct,UPPER SKAGIT INDIAN TRIBE DRIVE-THRU TOBACCO SHOP,5984 NORTH DARRK LANE,Correct,5984 NORTH DARRK LANE,Bow,Correct,Bow,WA,Correct,WA,98232,Correct,98232.0,48.560914,Correct,48.560914,-122.346154,Correct,-122.346154,"5984 NORTH DARRK LANE  Bow, WA 98232",Correct,"5984 NORTH DARRK LANE Bow, WA 98232",,Correct,SKAGIT,,Original,1803.0,,,Active,POINT (-122.346154 48.560914),Yes,0.0,Upper Skagit,Upper Skagit Reservation,,,From Original List,,,,,,,602340546,SKAGIT HEIGHTS COMMUNITY CLUB,MATT  CARRIGG,17094 BOW HILL RD  ,BOW,WA,98232
149,1804,1804,WAREHOUSE DIRECT FOODS,Correct,WAREHOUSE DIRECT FOODS,9029 CHUCKANUT DR.,Correct,9029 CHUCKANUT DR.,BOW,Correct,BOW,WA,Correct,WA,98232,Correct,98232.0,48.515115,Correct,48.515115,-122.376863,Correct,-122.376863,"9029 CHUCKANUT DR.  BOW, WA 98232",Correct,"9029 CHUCKANUT DR. BOW, WA 98232",,Correct,SKAGIT,,Original,1804.0,1.0,yes,Active,POINT (-122.376863 48.515115),No,2.723404379420951,,,Upper Skagit,Upper Skagit Off-Reservation Trust Land,From Original List,,,,,,,,,,,,,
150,1805,1805,BARON ENTERPRISES LLC,Can't Validate,BARON ENTERPRISES LLC,1406 54TH AVE E STE G,Can't Validate,1406 54TH AVE E STE G,FIFE,Can't Validate,FIFE,WA,Can't Validate,WA,98424,Can't Validate,98424.0,47.244822,Can't Validate,47.244822,-122.356948,Can't Validate,-122.356948,"1406 54TH AVE E STE G  FIFE, WA 98424",Can't Validate,"1406 54TH AVE E STE G FIFE, WA 98424",,Can't Validate,PIERCE,,Original,1805.0,,,Can't Validate,POINT (-122.356948 47.244822),Yes,0.0,Puyallup,Puyallup Reservation,,,From Original List,,,,,,,,,,,,,
151,1806,1806,CIGAR ZONE,Correct,CIGAR ZONE,15304 88TH AVENUE CT E,Correct,15304 88TH AVENUE CT E,PUYALLUP,Correct,PUYALLUP,WA,Correct,WA,98375,Correct,98375.0,47.11759,Correct,47.11759,-122.31159,Correct,-122.31159,"15304 88TH AVENUE CT E  PUYALLUP, WA 98375",Correct,"15304 88TH AVENUE CT E PUYALLUP, WA 98375",,Correct,PIERCE,,Original,1806.0,,,Active,POINT (-122.31159 47.11759),No,5.147042713677521,,,Puyallup,Puyallup Off-Reservation Trust Land,From Original List,,,,,,,,,,,,,
152,1807,1807,CROSS'' SMOKE SHOP INC,Correct,CROSS'' SMOKE SHOP INC,7522 VALLEY AVE E,Correct,7522 VALLEY AVE E,FIFE,Correct,FIFE,WA,Correct,WA,98424,Correct,98424.0,47.224665,Correct,47.224665,-122.328457,Correct,-122.328457,"7522 VALLEY AVE E  FIFE, WA 98424",Correct,"7522 VALLEY AVE E FIFE, WA 98424",,Correct,PIERCE,,Original,1807.0,1.0,yes,Active,POINT (-122.328457 47.224665),Yes,0.0,Puyallup,Puyallup Reservation,,,From Original List,,,,,,,,,,,,,
153,1808,1808,ECX LLC,Correct,ECX LLC,4027 TACOMA MALL BLVD,Correct,4027 TACOMA MALL BLVD,TACOMA,Correct,TACOMA,WA,Correct,WA,98409,Correct,98409.0,47.220906,Correct,47.220906,-122.465182,Correct,-122.465182,"4027 TACOMA MALL BLVD  TACOMA, WA 98409",Correct,"4027 TACOMA MALL BLVD TACOMA, WA 98409",,Correct,PIERCE,,Original,1808.0,1.0,yes,Active,POINT (-122.465182 47.220906),No,2.7068866751888536,,,Puyallup,Puyallup Off-Reservation Trust Land,From Original List,,,,,,,,,,,,,
154,1809,1809,GOODMAN ROAD SMOKESHOP,Correct,GOODMAN ROAD SMOKESHOP,3102 GOODMAN RD,Correct,3102 GOODMAN RD,YAKIMA,Correct,YAKIMA,WA,Correct,WA,98903,Correct,98903.0,46.547246,Correct,46.547246,-120.50162,Correct,-120.50162,"3102 GOODMAN RD  YAKIMA, WA 98903",Correct,"3102 GOODMAN RD YAKIMA, WA 98903",,Correct,YAKIMA,,Original,1809.0,,,Active,POINT (-120.50162 46.547246),Yes,0.0,Yakama Nation,Yakama Nation Reservation,,,From Original List,,,,,,,,,,,,,
155,1810,1810,J & J SMOKE SHOP,Can't Validate,J & J SMOKE SHOP,STATE RTE 6092,Can't Validate,STATE RTE 6092,OKANOGAN,Can't Validate,OKANOGAN,WA,Can't Validate,WA,98840,Can't Validate,98840.0,0.0,Can't Validate,0.0,0.0,Can't Validate,0.0,"STATE RTE 6092  OKANOGAN, WA 98840",Can't Validate,"STATE RTE 6092 OKANOGAN, WA 98840",,Can't Validate,FCC API ERROR,,Original,1810.0,,,Can't Validate,POINT (0 0),Unknown,,Unknown,Unknown,,,From Original List,,,,,,,,,,,,,
156,1811,1811,JONI JOHNSON INC,Can't Validate,JONI JOHNSON INC,5602 S LAWRENCE ST,Can't Validate,5602 S LAWRENCE ST,TACOMA,Can't Validate,TACOMA,WA,Can't Validate,WA,98409,Can't Validate,98409.0,47.206021,Can't Validate,47.206021,-122.479132,Can't Validate,-122.479132,"5602 S LAWRENCE ST  TACOMA, WA 98409",Can't Validate,"5602 S LAWRENCE ST TACOMA, WA 98409",,Can't Validate,PIERCE,,Original,1811.0,,,Can't Validate,POINT (-122.479132 47.206021),No,3.974513688096726,,,Puyallup,Puyallup Off-Reservation Trust Land,From Original List,,,,,,,,,,,,,
157,1812,1812,KENT CIGAR LAND,Correct,KENT CIGAR LAND,12613 SE 296TH WAY,Correct,12613 SE 296TH WAY,AUBURN,Correct,AUBURN,WA,Correct,WA,98092,Correct,98092.0,47.336186,Correct,47.336186,-122.172689,Correct,-122.172689,"12613 SE 296TH WAY  AUBURN, WA 98092",Correct,"12613 SE 296TH WAY AUBURN, WA 98092",,Correct,KING,,Original,1812.0,1.0,yes,Active,POINT (-122.172689 47.336186),No,2.4847474955732087,,,Muckleshoot,Muckleshoot Reservation,From Original List,,,,,,,,,,,,,
158,1813,1813,LYLE''S SMOKE SHOP,Correct,LYLE''S SMOKE SHOP,7511 VALLEY AVE E,Correct,7511 VALLEY AVE E,FIFE,Correct,FIFE,WA,Correct,WA,98424,Correct,98424.0,47.225848,Correct,47.225848,-122.33061399999998,Correct,-122.33061399999998,"7511 VALLEY AVE E  FIFE, WA 98424",Correct,"7511 VALLEY AVE E FIFE, WA 98424",,Correct,PIERCE,,Original,1813.0,1.0,yes,Active,POINT (-122.330614 47.225848),Yes,0.0,Puyallup,Puyallup Reservation,,,From Original List,,,,,,,,,,,,,
159,1814,1814,MANDISH ENTERPRISES INC,Can't Validate,MANDISH ENTERPRISES INC,6185 VISTA DR,Can't Validate,6185 VISTA DR,FERNDALE,Can't Validate,FERNDALE,WA,Can't Validate,WA,98248,Can't Validate,98248.0,48.866146,Can't Validate,48.866146,-122.603808,Can't Validate,-122.603808,"6185 VISTA DR  FERNDALE, WA 98248",Can't Validate,"6185 VISTA DR FERNDALE, WA 98248",,Can't Validate,WHATCOM,,Original,1814.0,1.0,no,Can't Validate,POINT (-122.603808 48.866146),No,3.0683413694083668,,,Lummi,Lummi Reservation,From Original List,,,,,,,603380596,"MANDISH, L.L.C.",MANJIT  GREWAL,6877 HAWK RIDGE DR  ,FERNDALE,WA,98248
160,1815,1815,MOHORICH ENTERPRISES INC,Can't Validate,MOHORICH ENTERPRISES INC,4502 S STEELE ST STE 1131,Can't Validate,4502 S STEELE ST STE 1131,TACOMA,Can't Validate,TACOMA,WA,Can't Validate,WA,98409,Can't Validate,98409.0,47.21525,Can't Validate,47.21525,-122.468704,Can't Validate,-122.468704,"4502 S STEELE ST STE 1131  TACOMA, WA 98409",Can't Validate,"4502 S STEELE ST STE 1131 TACOMA, WA 98409",,Can't Validate,PIERCE,,Original,1815.0,,,Can't Validate,POINT (-122.468704 47.21525),No,3.080551868349892,,,Puyallup,Puyallup Off-Reservation Trust Land,From Original List,,,,,,,604034602,"503 ENTERPRISES, LLC",NICK  ERICSON,605 N 138TH ST  ,SEATTLE,WA,98133
161,1816,1816,O CIGARETTES LLC,Correct,O CIGARETTES LLC,5113 PACIFIC HWY E STE 8,Correct,5113 PACIFIC HWY E STE 8,FIFE,Correct,FIFE,WA,Correct,WA,98424,Correct,98424.0,47.243082,Correct,47.243082,-122.360407,Correct,-122.360407,"5113 PACIFIC HWY E STE 8  FIFE, WA 98424",Correct,"5113 PACIFIC HWY E STE 8 FIFE, WA 98424",,Correct,PIERCE,,Original,1816.0,1.0,yes,Active,POINT (-122.360407 47.243082),Yes,0.0,Puyallup,Puyallup Reservation,,,From Original List,,,,,,,,,,,,,
162,1817,1817,PORTLAND AVENUE VENTURES LLC,Correct,PORTLAND AVENUE VENTURES LLC,2615 E PORTLAND AVE,Correct,2615 E PORTLAND AVE,TACOMA,Correct,TACOMA,WA,Correct,WA,98421,Correct,98421.0,47.240066,Correct,47.240066,-122.410698,Correct,-122.410698,"2615 E PORTLAND AVE  TACOMA, WA 98421",Correct,"2615 E PORTLAND AVE TACOMA, WA 98421",,Correct,PIERCE,,Original,1817.0,1.0,yes,Active,POINT (-122.410698 47.240066),Yes,0.0,Puyallup,Puyallup Reservation,,,From Original List,,,,,,,602820837,"PORTLAND AVENUE VENTURES, LLC",GARY  YOUNG,PO BOX 217  ,WAPATO,WA,98951
163,1818,1818,RICH IN SMOKE,Correct,RICH IN SMOKE,8425 S HOSMER ST STE C,Correct,8425 S HOSMER ST STE C,TACOMA,Correct,TACOMA,WA,Correct,WA,98444,Correct,98444.0,47.179999,Correct,47.179999,-122.463184,Correct,-122.463184,"8425 S HOSMER ST STE C  TACOMA, WA 98444",Correct,"8425 S HOSMER ST STE C TACOMA, WA 98444",,Correct,PIERCE,,Original,1818.0,1.0,yes,Active,POINT (-122.463184 47.179999),No,4.041570310517026,,,Puyallup,Puyallup Reservation,From Original List,,,,,,,,,,,,,
164,1819,1819,RJM POSITIONS INSTRUMENTS LLC,Correct,RJM POSITIONS INSTRUMENTS LLC,5007 PACIFIC HWY E STE 19,Correct,5007 PACIFIC HWY E STE 19,FIFE,Correct,FIFE,WA,Correct,WA,98424,Correct,98424.0,47.243096,Correct,47.243096,-122.363047,Correct,-122.363047,"5007 PACIFIC HWY E STE 19  FIFE, WA 98424",Correct,"5007 PACIFIC HWY E STE 19 FIFE, WA 98424",,Correct,PIERCE,,Original,1819.0,,,Active,POINT (-122.363047 47.243096),Yes,0.0,Puyallup,Puyallup Reservation,,,From Original List,,,,,,,603454803,"RJM PRECISION INSTRUMENTS, LLC",KEVIN  CONNELLY,  ,,,
165,1820,1820,SECRETS-TACOMA,Correct,SECRETS-TACOMA,3833 6TH AVE,Correct,3833 6TH AVE,TACOMA,Correct,TACOMA,WA,Correct,WA,98406,Correct,98406.0,47.255292,Correct,47.255292,-122.48843,Correct,-122.48843,"3833 6TH AVE  TACOMA, WA 98406",Correct,"3833 6TH AVE TACOMA, WA 98406",,Correct,PIERCE,,Original,1820.0,1.0,yes,Active,POINT (-122.48843 47.255292),No,4.096310927449508,,,Puyallup,Puyallup Off-Reservation Trust Land,From Original List,,,,,,,,,,,,,
166,1821,1821,SUBTLE SALES LLC,Can't Validate,SUBTLE SALES LLC,1102 N SKYLINE DR,Can't Validate,1102 N SKYLINE DR,TACOMA,Can't Validate,TACOMA,WA,Can't Validate,WA,98406,Can't Validate,98406.0,47.260599,Can't Validate,47.260599,-122.53144,Can't Validate,-122.53144,"1102 N SKYLINE DR  TACOMA, WA 98406",Can't Validate,"1102 N SKYLINE DR TACOMA, WA 98406",,Can't Validate,PIERCE,,Original,1821.0,,,Can't Validate,POINT (-122.53144 47.260599),No,6.238674856727491,,,Puyallup,Puyallup Reservation,From Original List,,,,,,,602786283,SUBTLE SALES LLC,GLORIA  MILLER,1102 N  SKYLINE DR  ,TACOMA,WA,98406
167,1822,1822,THE CIGAR STORE,Correct,THE CIGAR STORE,410 E BALD EAGLE DR,Correct,410 E BALD EAGLE DR,SHELTON,Correct,SHELTON,WA,Correct,WA,98584,Correct,98584.0,47.285034,Correct,47.285034,-123.138076,Correct,-123.138076,"410 E BALD EAGLE DR  SHELTON, WA 98584",Correct,"410 E BALD EAGLE DR SHELTON, WA 98584",,Correct,MASON,,Original,1822.0,1.0,yes,Active,POINT (-123.138076 47.285034),No,1.617408492780794,,,Skokomish,Skokomish Reservation,From Original List,,,,,,,,,,,,,
168,1823,1823,THE TEN CIGARS GUITAR COMPANY,Can't Validate,THE TEN CIGARS GUITAR COMPANY,6116 PARKSIDE DR,Can't Validate,6116 PARKSIDE DR,ANACORTES,Can't Validate,ANACORTES,WA,Can't Validate,WA,98221,Can't Validate,98221.0,48.497821,Can't Validate,48.497821,-122.690117,Can't Validate,-122.690117,"6116 PARKSIDE DR  ANACORTES, WA 98221",Can't Validate,"6116 PARKSIDE DR ANACORTES, WA 98221",,Can't Validate,SKAGIT,,Original,1823.0,,,Can't Validate,POINT (-122.690117 48.497821),No,9.144041000510553,,,Swinomish,Swinomish Reservation,From Original List,,,,,,,,,,,,,
169,1824,1824,TOBACCO JOE''S,Correct,TOBACCO JOE''S,271 POLLMAN CIR,Correct,271 POLLMAN CIR,LYNDEN,Correct,LYNDEN,WA,Correct,WA,98264,Correct,98264.0,48.888223,Correct,48.888223,-122.491809,Correct,-122.491809,"271 POLLMAN CIR  LYNDEN, WA 98264",Correct,"271 POLLMAN CIR LYNDEN, WA 98264",,Correct,WHATCOM,,Original,1824.0,1.0,yes,Active,POINT (-122.491809 48.888223),No,8.131147002080656,,,Lummi,Lummi Reservation,From Original List,,,,,,,,,,,,,
170,1825,1825,UP IN SMOKE,UP IN SMOKE POULSBO,UP IN SMOKE POULSBO,19568 VIKING AVE NW,Correct,19568 VIKING AVE NW,POULSBO,Correct,POULSBO,WA,Correct,WA,98370,Correct,98370.0,47.740918,Correct,47.740918,-122.658187,Correct,-122.658187,"19568 VIKING AVE NW  POULSBO, WA 98370",Correct,"19568 VIKING AVE NW POULSBO, WA 98370",,Correct,KITSAP,,Original,1825.0,1.0,yes,Active,POINT (-122.658187 47.740918),No,3.3636963124536363,,,Port Madison,Port Madison Reservation,From Original List,,,,,,,603386668,POULSBO COMMUNITY ORCHESTRA,STEPHEN L SWANN,  ,,,
171,1826,1826,YAG ENTERPRISES,Can't Validate,YAG ENTERPRISES,6211 TYLER LN,Can't Validate,6211 TYLER LN,FERNDALE,Can't Validate,FERNDALE,WA,Can't Validate,WA,98248,Can't Validate,98248.0,48.867081,Can't Validate,48.867081,-122.612978,Can't Validate,-122.612978,"6211 TYLER LN  FERNDALE, WA 98248",Can't Validate,"6211 TYLER LN FERNDALE, WA 98248",,Can't Validate,WHATCOM,,Original,1826.0,,,Can't Validate,POINT (-122.612978 48.867081),No,3.1360956004440683,,,Lummi,Lummi Reservation,From Original List,,,,,,,,,,,,,
172,1827,1827,DONALD STORE,Can't Validate,DONALD STORE,2600 DONALD WAPATO RD,Can't Validate,2600 DONALD WAPATO RD,WAPATO,Can't Validate,WAPATO,WA,Can't Validate,WA,98951,Can't Validate,98951.0,46.47623,Can't Validate,46.47623,-120.3963,Can't Validate,-120.3963,"2600 DONALD WAPATO RD  WAPATO, WA 98951",Can't Validate,"2600 DONALD WAPATO RD WAPATO, WA 98951",YAKIMA,Can't Validate,YAKIMA,,Original,1827.0,,,Can't Validate,POINT (-120.3963 46.47623),No,0.6935957066053745,,,Yakama Nation,Yakama Nation Reservation,From Original List,,,,,,,,,,,,,
173,1828,1828,HALF-SUN TRAVEL PLAZA,Correct,HALF-SUN TRAVEL PLAZA,420 S. WANAPUM DRIVE,Correct,420 S. WANAPUM DRIVE,MOSES LAKE,Correct,MOSES LAKE,WA,Correct,WA,98837,Correct,98837.0,47.10032,Correct,47.10032,-119.3067,Correct,-119.3067,"420 S. WANAPUM DRIVE  MOSES LAKE, WA 98837",Correct,"420 S. WANAPUM DRIVE MOSES LAKE, WA 98837",GRANT,Correct,GRANT,,Original,1828.0,,,Active,POINT (-119.3067 47.10032),No,59.21846390370722,,,Colville,Colville Reservation,From Original List,,,,,,,602509168,"HALF-SUN MARKET, LLC",SUSAN U BLACKWELL,  ,MOSES LAKE,WA,     
174,1829,1829,12 TRIBES RESORT AND CASINO,Correct,12 TRIBES RESORT AND CASINO,28968 HWY 97,Correct,28968 HWY 97,OMAK,Correct,OMAK,WA,Correct,WA,98841,Correct,98841.0,48.3818558,Correct,48.3818558,-119.5315447,Correct,-119.5315447,"28968 HWY 97  OMAK, WA 98841",Correct,"28968 HWY 97 OMAK, WA 98841",OKANOGAN,Correct,OKANOGAN,,Google,1829.0,,,Active,POINT (-119.5315447 48.3818558),Yes,0.0,Colville,Colville Reservation,,,From Original List,,,,,,,,,,,,,
175,1830,1830,WAR PONY EXPRESS,WAR PONY XPRESS,WAR PONY XPRESS,4206 E PORTLAND AVE,Correct,4206 E PORTLAND AVE,TACOMA,Correct,TACOMA,WA,Correct,WA,98404,Correct,98404.0,47.21901,Correct,47.21901,-122.407684,Correct,-122.407684,"4206 E PORTLAND AVE  TACOMA, WA 98404",Correct,"4206 E PORTLAND AVE TACOMA, WA 98404",PIERCE,Correct,PIERCE,,Census,1830.0,1.0,maybe,Active,POINT (-122.407684 47.21901),Yes,0.0,Puyallup,Puyallup Reservation,,,From Original List,,,,,,,603603409,XPRESS CONSTRUCTION LLC,VICTOR  MURILLO,1705 EAST 57TH STREET  ,TACOMA,WA,98404
176,1939,1939,,,UNTIL WE MEET AGAIN,7001 STATE ROUTE 155,Correct,7001 STATE ROUTE 155,OMAK,Correct,OMAK,WA,Correct,WA,98841,Correct,98841.0,,,48.3681006,,,-119.3209594,,,"7001 State Route 155, Omak, WA, 98841",,Correct,OKANOGAN,,,,,,Active,POINT (-119.3209594 48.3681006),Yes,,Colville,Colville Reservation,,,New Retailer,Independent,,,N,7010537.0,,,,,,,,
177,1947,1947,,,UNITED DRUG GIBBONS,117 S TOPPENISH AVE,117 S  AVE,117 S  AVE,TOPPENISH,Correct,TOPPENISH,WA,Correct,WA,98948,Correct,98948.0,,,46.375458,,,-120.31153789999999,,,"117 S Toppenish Ave, Toppenish, WA, 98948",,Correct,YAKIMA,,,,,,Active,POINT (-120.3115379 46.375458),Yes,,Yakama Nation,Yakama Nation Reservation,,,New Retailer,United Drug Co-Op,Phoenix,AZ,N,623470.0,,,,,,,,
178,1964,1964,,,COSTCO BUSINESS CENTER,3900 20TH ST E,Correct,3900 20TH ST E,TACOMA,Correct,TACOMA,WA,Correct,WA,98424,Correct,98424.0,,,47.238995,,,-122.3755,,,"3900 20th St E, Tacoma, WA, 98424",,Correct,PIERCE,,,,,,Active,POINT (-122.3755 47.238995),Yes,,Puyallup,Puyallup Reservation,,,New Retailer,Costco Cos Inc/BC Division,Issaquah,WA,N,310227.0,,,,,,,,
179,1969,1969,,,REZ BEV,4315 PACIFIC HWY E STE B,Correct,4315 PACIFIC HWY E STE B,TACOMA,Correct,TACOMA,WA,Correct,WA,98424,Correct,98424.0,,,47.243109999999994,,,-122.37136000000001,,,"4315 Pacific Hwy E Ste B, Tacoma, WA, 98424",,Correct,PIERCE,,,,,,Active,POINT (-122.37136 47.24311),Yes,,Puyallup,Puyallup Reservation,,,New Retailer,Independent,,,N,3369140.0,,603048390,REZ BEV LLC,PERNELLE  TURNIPSEED,  ,,,
180,1975,1975,,,SOUTHERN WINE & SPIRITS,1025 VALLEY AVE NW,Correct,1025 VALLEY AVE NW,PUYALLUP,Correct,PUYALLUP,WA,Correct,WA,98371,Correct,98371.0,,,47.213093,,,-122.30663999999999,,,"1025 Valley Ave NW, Puyallup, WA, 98371",,Correct,PIERCE,,,,,,Active,POINT (-122.30664 47.213093),Yes,,Puyallup,Puyallup Reservation,,,New Retailer,Independent,,,N,7048731.0,,602514267,"FATHER & SON ""LLC""",GARIN  HESLOP,  ,PUYALLUP,WA,     
181,1982,1982,,,LIQUOR STORE,5048 MT BAKER HWY,Correct,5048 MT BAKER HWY,DEMING,Correct,DEMING,WA,Correct,WA,98244,Correct,98244.0,,,48.8237182,,,-122.21447820000002,,,"5048 Mt Baker Hwy, Deming, WA, 98244",,Correct,WHATCOM,,,,,,Active,POINT (-122.2144782 48.8237182),Yes,,Nooksack,Nooksack Reservation,,,New Retailer,Independent,,,N,1873033.0,,,,,,,,
182,1989,1989,,,CROSS SMOKE SHOP,7522 VALLEY AVE E,Correct,7522 VALLEY AVE E,PUYALLUP,Correct,PUYALLUP,WA,Correct,WA,98371,Correct,98371.0,,,47.215760499999995,,,-122.31048359999998,,,"7522 Valley Ave E, Puyallup, WA, 98371",,Correct,PIERCE,,,,,,Active,POINT (-122.3104836 47.2157605),Yes,,Puyallup,Puyallup Reservation,,,New Retailer,Independent,,,N,1528351.0,,,,,,,,
183,1994,1994,,,TURTLES SMOKE SHOP,3114 RIVER RD E,Correct,3114 RIVER RD E,TACOMA,Correct,TACOMA,WA,Correct,WA,98443,Correct,98443.0,,,47.234184,,,-122.38853999999999,,,"3114 River Rd E, Tacoma, WA, 98443",,Correct,PIERCE,,,,,,Active,POINT (-122.38854 47.234184),Yes,,Puyallup,Puyallup Reservation,,,New Retailer,Independent,,,N,1528362.0,,,,,,,,
184,1996,1996,,,THUNDERBIRDS ISS,7121 WALLER RD E,Correct,7121 WALLER RD E,TACOMA,Correct,TACOMA,WA,Correct,WA,98443,Correct,98443.0,,,47.19269,,,-122.38909,,,"7121 Waller Rd E, Tacoma, WA, 98443",,Correct,PIERCE,,,,,,Active,POINT (-122.38909 47.19269),Yes,,Puyallup,Puyallup Reservation,,,New Retailer,Independent,,,N,1530344.0,,,,,,,,
185,2000,2000,,,B & A INTERNATIONAL FOODS,3918 E PORTLAND AVE,Correct,3918 E PORTLAND AVE,TACOMA,Correct,TACOMA,WA,Correct,WA,98404,Correct,98404.0,,,47.221247,,,-122.4082352,,,"3918 E Portland Ave, Tacoma, WA, 98404",,Correct,PIERCE,,,,,,Active,POINT (-122.4082352 47.221247),Yes,,Puyallup,Puyallup Reservation,,,New Retailer,Independent,,,N,286036.0,,602599127,"5218 & 20, L.L.C.",TIMOTHY  REDING,10120  22ND AVE E  ,TACOMA,WA,98445
186,2007,2007,,,KELLER STORE,11611 S HIGHWAY 21,Correct,11611 S HIGHWAY 21,KELLER,Correct,KELLER,WA,Correct,WA,99140,Correct,99140.0,,,48.071457,,,-118.67608999999999,,,"11611 S Highway 21, Keller, WA, 99140",,Correct,FERRY,,,,,,Active,POINT (-118.67609 48.071457),Yes,,Colville,Colville Reservation,,,New Retailer,Independent,,,N,946972.0,,,,,,,,
187,2008,2008,,,BJS II TOBACCO,4315 PACIFIC HWY E,Correct,4315 PACIFIC HWY E,TACOMA,Correct,TACOMA,WA,Correct,WA,98424,Correct,98424.0,,,47.243109999999994,,,-122.37136000000001,,,"4315 Pacific Hwy E, Tacoma, WA, 98424",,Correct,PIERCE,,,,,,Active,POINT (-122.37136 47.24311),Yes,,Puyallup,Puyallup Reservation,,,New Retailer,Independent,,,N,1528359.0,,,,,,,,
188,2012,2012,,,INCHELIUM COMMUNITY STORE,11 UPPER BRIDGE CREEK RD,Correct,11 UPPER BRIDGE CREEK RD,INCHELIUM,Correct,INCHELIUM,WA,Correct,WA,99138,Correct,99138.0,,,48.283642900000004,,,-118.57486999999999,,,"11 Upper Bridge Creek Rd, Inchelium, WA, 99138",,Correct,FERRY,,,,,,Active,POINT (-118.57487 48.2836429),Yes,,Colville,Colville Reservation,,,New Retailer,Independent,,,N,757938.0,,601591906,THE INCHELIUM COMMUNITY CHURCH,RAY  LAWRENCE,  ,,,
189,2016,2016,,,BABY ZACKS SMOKE SHOP,7403 PACIFIC HWY E,Correct,7403 PACIFIC HWY E,MILTON,Correct,MILTON,WA,Correct,WA,98354,Correct,98354.0,,,47.251476000000004,,,-122.33542,,,"7403 Pacific Hwy E, Milton, WA, 98354",,Correct,PIERCE,,,,,,Active,POINT (-122.33542 47.251476),Yes,,Puyallup,Puyallup Reservation,,,New Retailer,Independent,,,N,1468354.0,,,,,,,,
190,2025,2025,,,B JS SMOKE SHOP DRIVE THRU,1305 ALEXANDER AVE E,Correct,1305 ALEXANDER AVE E,TACOMA,Correct,TACOMA,WA,Correct,WA,98424,Correct,98424.0,,,47.246033000000004,,,-122.37301000000001,,,"1305 Alexander Ave E, Tacoma, WA, 98424",,Correct,PIERCE,,,,,,Active,POINT (-122.37301 47.246033),Yes,,Puyallup,Puyallup Reservation,,,New Retailer,Independent,,,N,1528343.0,,,,,,,,
191,2034,2034,,,RUNNING WOLF,4002 49TH AVE NE,Correct,4002 49TH AVE NE,TACOMA,Correct,TACOMA,WA,Correct,WA,98422,Correct,98422.0,,,47.292792999999996,,,-122.38219,,,"4002 49th Ave NE, Tacoma, WA, 98422",,Correct,PIERCE,,,,,,Active,POINT (-122.38219 47.292793),Yes,,Puyallup,Puyallup Reservation,,,New Retailer,Independent,,,N,1530859.0,,,,,,,,
192,2035,2035,,,CEDAR BOX SMOKE SHOP,4779 S DRY CREEK RD,Correct,4779 S DRY CREEK RD,PORT ANGELES,Correct,PORT ANGELES,WA,Correct,WA,98363,Correct,98363.0,,,48.10262,,,-123.514824,,,"4779 S Dry Creek Rd, Port Angeles, WA, 98363",,Correct,CLALLAM,,,,,,Active,POINT (-123.514824 48.10262),Yes,,Lower Elwha,Lower Elwha Off-Reservation Trust Land,,,New Retailer,Independent,,,N,7371237.0,,,,,,,,
193,2039,2039,,,WALGREENS,1701 AUBURN WAY S,1701  WAY S,1701  WAY S,AUBURN,Correct,AUBURN,WA,Correct,WA,98002,Correct,98002.0,,,47.29142,,,-122.20618400000001,,,"1701 Auburn Way S, Auburn, WA, 98002",,Correct,KING,,,,,,Active,POINT (-122.206184 47.29142),Yes,,Muckleshoot,Muckleshoot Reservation,,,New Retailer,Walgreens Co,Deerfield,IL,N,1851772.0,,,,,,,,
194,2042,2042,,,J & J SMOKE SHOP,17 CROWDER RD,Correct,17 CROWDER RD,OKANOGAN,Correct,OKANOGAN,WA,Correct,WA,98840,Correct,98840.0,,,48.34831,,,-119.5939,,,"17 Crowder Rd, Okanogan, WA, 98840",,Correct,OKANOGAN,,,,,,Active,POINT (-119.5939 48.34831),Yes,,Colville,Colville Reservation,,,New Retailer,Independent,,,N,1468066.0,,,,,,,,
195,2044,2044,,,MORNINGSTAR SMOKE SHOP,5505 20TH ST E,Correct,5505 20TH ST E,TACOMA,Correct,TACOMA,WA,Correct,WA,98424,Correct,98424.0,,,47.23896,,,-122.35571999999999,,,"5505 20th St E, Tacoma, WA, 98424",,Correct,PIERCE,,,,,,Active,POINT (-122.35572 47.23896),Yes,,Puyallup,Puyallup Reservation,,,New Retailer,Independent,,,N,7483202.0,,,,,,,,
196,2045,2045,,,REDWOLF SMOKE SHOP,8011 PACIFIC HWY E,Correct,8011 PACIFIC HWY E,TACOMA,Correct,TACOMA,WA,Correct,WA,98422,Correct,98422.0,,,47.264065,,,-122.33578500000002,,,"8011 Pacific Hwy E, Tacoma, WA, 98422",,Correct,KING,,,,,,Active,POINT (-122.335785 47.264065),Yes,,Puyallup,Puyallup Reservation,,,New Retailer,Independent,,,N,1468527.0,,,,,,,,
197,2048,2048,,,SMOKE & MART,2120 AUBURN WAY N,2120  WAY N,2120  WAY N,AUBURN,Correct,AUBURN,WA,Correct,WA,98002,Correct,98002.0,,,47.290245,,,-122.20143999999999,,,"2120 Auburn Way N, Auburn, WA, 98002",,Correct,KING,,,,,,Active,POINT (-122.20144 47.290245),Yes,,Muckleshoot,Muckleshoot Reservation,,,New Retailer,Independent,,,N,4025342.0,,603499226,HIGHER 8  LLC,WILLIE  HUGHES,1402 AUBURN WAY N #116  ,AUBURN,WA,98002
198,2051,2051,,,MISS BS SMOKE SHACK,6408 RIVER RD E,Correct,6408 RIVER RD E,PUYALLUP,Correct,PUYALLUP,WA,Correct,WA,98371,Correct,98371.0,,,47.214985,,,-122.34451000000001,,,"6408 River Rd E, Puyallup, WA, 98371",,Correct,PIERCE,,,,,,Active,POINT (-122.34451 47.214985),Yes,,Puyallup,Puyallup Reservation,,,New Retailer,Independent,,,N,3512212.0,,604313875,MISS B'S LLC,BETTINA  GESE,7121 WALLER RD E  ,TACOMA,WA,984431336
199,2053,2053,,,USIT TOBACCO SHOP,5984 N DARRK LN,Correct,5984 N DARRK LN,BOW,Correct,BOW,WA,Correct,WA,98232,Correct,98232.0,,,48.557990000000004,,,-122.34608999999999,,,"5984 N Darrk Ln, Bow, WA, 98232",,Correct,SKAGIT,,,,,,Active,POINT (-122.34609 48.55799),Yes,,Upper Skagit,Upper Skagit Off-Reservation Trust Land,,,New Retailer,Independent,,,N,1728062.0,,,,,,,,
200,2061,2061,,,WALMART SUPERCENTER,8924 QUIL CEDA BLVD,Correct,8924 QUIL CEDA BLVD,MARYSVILLE,Correct,MARYSVILLE,WA,Correct,WA,98271,Correct,98271.0,,,48.079117499999995,,,-122.1884787,,,"8924 Quil Ceda Blvd, Marysville, WA, 98271",,Correct,SNOHOMISH,,,,,,Active,POINT (-122.1884787 48.0791175),Yes,,Tulalip,Tulalip Reservation,,,New Retailer,Walmart Supercenter,Bentonville,AR,N,1524452.0,,,,,,,,
201,2065,2065,,,LIGHTHOUSE IGA,1000 TOWN CTR NE STE 190,Correct,1000 TOWN CTR NE STE 190,TACOMA,Correct,TACOMA,WA,Correct,WA,98422,Correct,98422.0,,,47.301365999999994,,,-122.43554259999999,,,"1000 Town Ctr NE Ste 190, Tacoma, WA, 98422",,Correct,PIERCE,,,,,,Active,POINT (-122.4355426 47.301366),Yes,,Puyallup,Puyallup Reservation,,,New Retailer,The Myers Group/HQ,Clinton,WA,Y,7297934.0,,,,,,,,
202,2091,2091,,,TRADING POST STORE,3 LAKE ST,Correct,3 LAKE ST,NESPELEM,Correct,NESPELEM,WA,Correct,WA,99155,Correct,99155.0,,,48.131331,,,-118.9770443,,,"3 Lake St, Nespelem, WA, 99155",,Correct,OKANOGAN,,,,,,Active,POINT (-118.9770443 48.131331),Yes,,Colville,Colville Reservation,,,New Retailer,Independent,,,N,133326.0,,,,,,,,
203,2102,2102,,,QUALITY FOOD CENTER,4101 49TH AVE NE,Correct,4101 49TH AVE NE,TACOMA,Correct,TACOMA,WA,Correct,WA,98422,Correct,98422.0,,,47.293777,,,-122.38216000000001,,,"4101 49th Ave NE, Tacoma, WA, 98422",,Correct,PIERCE,,,,,,Active,POINT (-122.38216 47.293777),Yes,,Puyallup,Puyallup Reservation,,,New Retailer,Quality Food Centers Inc,Bellevue,WA,N,507350.0,,,,,,,,
204,2152,2152,,,APP,2401 E 70TH AVE,Correct,2401 E 70TH AVE,TACOMA,Correct,TACOMA,WA,Correct,WA,98424,Correct,98424.0,,,47.235115,,,-122.33637,,,"2401 E 70th Ave, Tacoma, WA, 98424",,Correct,PIERCE,,,,,,Active,POINT (-122.33637 47.235115),Yes,,Puyallup,Puyallup Reservation,,,New Retailer,Independent,,,N,3940582.0,,,,,,,,
205,2160,2160,,,BLEYHL FARM SERVICE,19 E 2ND AVE,Correct,19 E 2ND AVE,TOPPENISH,Correct,TOPPENISH,WA,Correct,WA,98948,Correct,98948.0,,,46.374092,,,-120.3081041,,,"19 E 2nd Ave, Toppenish, WA, 98948",,Correct,YAKIMA,,,,,,Active,POINT (-120.3081041 46.374092),Yes,,Yakama Nation,Yakama Nation Reservation,,,New Retailer,Independent,,,N,3935983.0,,,,,,,,
206,2175,2175,,,QUALITY FOODS FUEL CENTER,4101 49TH AVE NE,Correct,4101 49TH AVE NE,TACOMA,Correct,TACOMA,WA,Correct,WA,98422,Correct,98422.0,,,47.293777,,,-122.38216000000001,,,"4101 49th Ave NE, Tacoma, WA, 98422",,Correct,PIERCE,,,,,,Active,POINT (-122.38216 47.293777),Yes,,Puyallup,Puyallup Reservation,,,New Retailer,Quality Foods Fuel Centers Inc,Bellevue,WA,N,7067031.0,,,,,,,,
207,2262,2262,,,VALLEY VIEW MARKET,618 E TOPPENISH AVE,618 E  AVE,618 E  AVE,TOPPENISH,Correct,TOPPENISH,WA,Correct,WA,98948,Correct,98948.0,,,46.3767654,,,-120.3009227,,,"618 E Toppenish Ave, Toppenish, WA, 98948",,Correct,YAKIMA,,,,,,Active,POINT (-120.3009227 46.3767654),Yes,,Yakama Nation,Yakama Nation Reservation,,,New Retailer,Independent,,,N,1477049.0,,601927386,"VALLEY VIEW MARKET, INC.",HYUNG  LEE,618 E TOPPENISH AVE  ,TOPPENISH,WA,98948
208,2263,2263,,,76,3323 MARINE DR NE,Correct,3323 MARINE DR NE,MARYSVILLE,Correct,MARYSVILLE,WA,Correct,WA,98271,Correct,98271.0,,,48.0524062,,,-122.1862243,,,"3323 Marine Dr NE, Marysville, WA, 98271",,Correct,SNOHOMISH,,,,,,Active,POINT (-122.1862243 48.0524062),Yes,,Tulalip,Tulalip Reservation,,,New Retailer,Independent,,,Y,1526030.0,,,,,,,,
209,2264,2264,,,WAPATO EXPRESS,631 W 1ST ST,Correct,631 W 1ST ST,WAPATO,Correct,WAPATO,WA,Correct,WA,98951,Correct,98951.0,,,46.447520399999995,,,-120.427186,,,"631 W 1st St, Wapato, WA, 98951",,Correct,YAKIMA,,,,,,Active,POINT (-120.427186 46.4475204),Yes,,Yakama Nation,Yakama Nation Reservation,,,New Retailer,Independent,,,N,2561230.0,,601725601,"WAPATO CHAMBER OF COMMERCE, INCORPORATED",NOE  TORRES,  ,,,
210,2266,2266,,,PILOT EXPRESS,1440 PUYALLUP AVE,Correct,1440 PUYALLUP AVE,TACOMA,Correct,TACOMA,WA,Correct,WA,98421,Correct,98421.0,,,47.242290000000004,,,-122.4136,,,"1440 Puyallup Ave, Tacoma, WA, 98421",,Correct,PIERCE,,,,,,Active,POINT (-122.4136 47.24229),Yes,,Puyallup,Puyallup Reservation,,,New Retailer,Pilot Flying J HQ,Knoxville,TN,N,537918.0,,,,,,,,
211,2267,2267,,,TRIBAL TRAILS,29078 HWY 97,Correct,29078 HWY 97,OMAK,Correct,OMAK,WA,Correct,WA,98841,Correct,98841.0,,,48.397865,,,-119.52601000000001,,,"29078 Hwy 97, Omak, WA, 98841",,Correct,OKANOGAN,,,,,,Active,POINT (-119.52601 48.397865),Yes,,Colville,Colville Reservation,,,New Retailer,Independent,,,N,3903905.0,,,,,,,,
212,2268,2268,,,AMPM,19705 OLD HIGHWAY 99 SW,Correct,19705 OLD HIGHWAY 99 SW,ROCHESTER,Correct,ROCHESTER,WA,Correct,WA,98579,Correct,98579.0,,,46.80196779999999,,,-123.01290900000001,,,"19705 Old Highway 99 SW, Rochester, WA, 98579",,Correct,THURSTON,,,,,,Active,POINT (-123.012909 46.80196779999999),Yes,,Chehalis,Chehalis Off-Reservation Trust Land,,,New Retailer,Independent,,,Y,330188.0,,,,,,,,
213,2269,2269,,,PRIEST POINT GROCERY,129 MARINE DR,Correct,129 MARINE DR,MARYSVILLE,Correct,MARYSVILLE,WA,Correct,WA,98271,Correct,98271.0,,,48.0392217,,,-122.23508819999999,,,"129 Marine Dr, Marysville, WA, 98271",,Correct,SNOHOMISH,,,,,,Active,POINT (-122.2350882 48.0392217),Yes,,Tulalip,Tulalip Reservation,,,New Retailer,Independent,,,N,744349.0,,,,,,,,
214,2272,2272,,,WESTERN GAS,401 S ELM ST,Correct,401 S ELM ST,TOPPENISH,Correct,TOPPENISH,WA,Correct,WA,98948,Correct,98948.0,,,46.3747474,,,-120.32087800000001,,,"401 S Elm St, Toppenish, WA, 98948",,Correct,YAKIMA,,,,,,Active,POINT (-120.320878 46.3747474),Yes,,Yakama Nation,Yakama Nation Reservation,,,New Retailer,Independent,,,N,962022.0,,,,,,,,
215,2275,2275,,,SHELL,3506 88TH ST NE,Correct,3506 88TH ST NE,MARYSVILLE,Correct,MARYSVILLE,WA,Correct,WA,98270,Correct,98270.0,,,48.075726,,,-122.18388,,,"3506 88th St NE, Marysville, WA, 98270",,Correct,SNOHOMISH,,,,,,Active,POINT (-122.18388 48.075726),Yes,,Tulalip,Tulalip Reservation,,,New Retailer,Independent,,,Y,1542696.0,,,,,,,,
216,2276,2276,,,SHELL,3251 PACIFIC HWY E,Correct,3251 PACIFIC HWY E,TACOMA,Correct,TACOMA,WA,Correct,WA,98424,Correct,98424.0,,,47.243168,,,-122.386154,,,"3251 Pacific Hwy E, Tacoma, WA, 98424",,Correct,PIERCE,,,,,,Active,POINT (-122.386154 47.243168),Yes,,Puyallup,Puyallup Reservation,,,New Retailer,Emanuel Inc,Tacoma,WA,Y,314593.0,,,,,,,,
217,2278,2278,,,LOVES TRAVEL STOP,1501 33RD AVE E,Correct,1501 33RD AVE E,TACOMA,Correct,TACOMA,WA,Correct,WA,98424,Correct,98424.0,,,47.199958,,,-122.3852453,,,"1501 33rd Ave E, Tacoma, WA, 98424",,Correct,PIERCE,,,,,,Active,POINT (-122.3852453 47.199958),Yes,,Puyallup,Puyallup Reservation,,,New Retailer,Loves Country Stores Inc,Oklahoma City,OK,N,416499.0,,,,,,,,
218,2280,2280,,,TRIBAL ONE STOP,2502 E PIONEER WAY,Correct,2502 E PIONEER WAY,TACOMA,Correct,TACOMA,WA,Correct,WA,98404,Correct,98404.0,,,47.23406,,,-122.39568999999999,,,"2502 E Pioneer Way, Tacoma, WA, 98404",,Correct,PIERCE,,,,,,Active,POINT (-122.39569 47.23406),Yes,,Puyallup,Puyallup Reservation,,,New Retailer,Marine View Ventures,Tacoma,WA,N,1612312.0,,,,,,,,
219,2281,2281,,,TOTEM GROCERY,105 TULALIP RD,Correct,105 TULALIP RD,MARYSVILLE,Correct,MARYSVILLE,WA,Correct,WA,98271,Correct,98271.0,,,48.0393829,,,-122.2315612,,,"105 Tulalip Rd, Marysville, WA, 98271",,Correct,SNOHOMISH,,,,,,Active,POINT (-122.2315612 48.0393829),Yes,,Tulalip,Tulalip Reservation,,,New Retailer,Independent,,,N,1441401.0,,,,,,,,
220,2283,2283,,,MY BROTHERS PLACE,810 W 1ST AVE,Correct,810 W 1ST AVE,TOPPENISH,Correct,TOPPENISH,WA,Correct,WA,98948,Correct,98948.0,,,46.3747102,,,-120.3246564,,,"810 W 1st Ave, Toppenish, WA, 98948",,Correct,YAKIMA,,,,,,Active,POINT (-120.3246564 46.3747102),Yes,,Yakama Nation,Yakama Nation Reservation,,,New Retailer,Independent,,,N,1726284.0,,,,,,,,
221,2285,2285,,,USA GAS,8820 34TH AVE NE,Correct,8820 34TH AVE NE,MARYSVILLE,Correct,MARYSVILLE,WA,Correct,WA,98271,Correct,98271.0,,,48.0770575,,,-122.1875025,,,"8820 34th Ave NE, Marysville, WA, 98271",,Correct,SNOHOMISH,,,,,,Active,POINT (-122.1875025 48.0770575),Yes,,Tulalip,Tulalip Reservation,,,New Retailer,S & S Petroleum Inc,Mukilteo,WA,Y,1633143.0,,,,,,,,
222,2286,2286,,,AMPM,2790 AUBURN WAY S,2790  WAY S,2790  WAY S,AUBURN,Correct,AUBURN,WA,Correct,WA,98002,Correct,98002.0,,,47.288437,,,-122.19308500000001,,,"2790 Auburn Way S, Auburn, WA, 98002",,Correct,KING,,,,,,Active,POINT (-122.193085 47.288437),Yes,,Muckleshoot,Muckleshoot Reservation,,,New Retailer,Independent,,,Y,330334.0,,603435843,AM/PM DELIVERY LLC,ANDREY  SHCHERBINA,  ,,,
223,2290,2290,,,P & J DELI MART,3535 E PORTLAND AVE,Correct,3535 E PORTLAND AVE,TACOMA,Correct,TACOMA,WA,Correct,WA,98404,Correct,98404.0,,,47.228844,,,-122.40819499999999,,,"3535 E Portland Ave, Tacoma, WA, 98404",,Correct,PIERCE,,,,,,Active,POINT (-122.408195 47.228844),Yes,,Puyallup,Puyallup Reservation,,,New Retailer,Independent,,,N,1512809.0,,602599127,"5218 & 20, L.L.C.",TIMOTHY  REDING,10120  22ND AVE E  ,TACOMA,WA,98445
224,2291,2291,,,WHITE SWAN TRADING POST,180 BIRCH AVE,Correct,180 BIRCH AVE,WHITE SWAN,Correct,WHITE SWAN,WA,Correct,WA,98952,Correct,98952.0,,,46.382624799999995,,,-120.7323442,,,"180 Birch Ave, White Swan, WA, 98952",,Correct,YAKIMA,,,,,,Active,POINT (-120.7323442 46.3826248),Yes,,Yakama Nation,Yakama Nation Reservation,,,New Retailer,Independent,,,N,450744.0,,,,,,,,
225,2293,2293,,,RIVER ROAD FOOD MART,1720 RIVER RD,Correct,1720 RIVER RD,PUYALLUP,Correct,PUYALLUP,WA,Correct,WA,98371,Correct,98371.0,,,47.205154,,,-122.31578,,,"1720 River Rd, Puyallup, WA, 98371",,Correct,PIERCE,,,,,,Active,POINT (-122.31578 47.205154),Yes,,Puyallup,Puyallup Reservation,,,New Retailer,Independent,,,N,1607611.0,,,,,,,,
226,2296,2296,,,KYLES KORNER,2421 W WAPATO RD,2421 W  RD,2421 W  RD,WAPATO,Correct,WAPATO,WA,Correct,WA,98951,Correct,98951.0,,,46.448105,,,-120.48206,,,"2421 W Wapato Rd, Wapato, WA, 98951",,Correct,YAKIMA,,,,,,Active,POINT (-120.48206 46.448105),Yes,,Yakama Nation,Yakama Nation Reservation,,,New Retailer,Independent,,,N,442556.0,,,,,,,,
227,2297,2297,,,TWO BEARS TRADING POST,4715 GAY RD E,Correct,4715 GAY RD E,TACOMA,Correct,TACOMA,WA,Correct,WA,98443,Correct,98443.0,,,47.2248687,,,-122.365504,,,"4715 Gay Rd E, Tacoma, WA, 98443",,Correct,PIERCE,,,,,,Active,POINT (-122.365504 47.2248687),Yes,,Puyallup,Puyallup Reservation,,,New Retailer,Independent,,,N,1938243.0,,,,,,,,
228,2298,2298,,,MUCKLESHOOT MARKET & DELI,2802 AUBURN WAY S,2802  WAY S,2802  WAY S,AUBURN,Correct,AUBURN,WA,Correct,WA,98092,Correct,98092.0,,,47.288357,,,-122.192314,,,"2802 Auburn Way S, Auburn, WA, 98092",,Correct,KING,,,,,,Active,POINT (-122.192314 47.288357),Yes,,Muckleshoot,Muckleshoot Reservation,,,New Retailer,Independent,,,N,206005.0,,603499226,HIGHER 8  LLC,WILLIE  HUGHES,1402 AUBURN WAY N #116  ,AUBURN,WA,98002
229,2299,2299,,,END OF TRAILS,20330 OLD HIGHWAY 99 SW,Correct,20330 OLD HIGHWAY 99 SW,CENTRALIA,Correct,CENTRALIA,WA,Correct,WA,98531,Correct,98531.0,,,46.7922874,,,-123.010572,,,"20330 Old Highway 99 SW, Centralia, WA, 98531",,Correct,THURSTON,,,,,,Active,POINT (-123.010572 46.7922874),Yes,,Chehalis,Chehalis Off-Reservation Trust Land,,,New Retailer,Independent,,,N,3527600.0,,,,,,,,
230,2300,2300,,,MINS FOOD STORE,3124 E PORTLAND AVE,Correct,3124 E PORTLAND AVE,TACOMA,Correct,TACOMA,WA,Correct,WA,98404,Correct,98404.0,,,47.235434999999995,,,-122.40966999999999,,,"3124 E Portland Ave, Tacoma, WA, 98404",,Correct,PIERCE,,,,,,Active,POINT (-122.40967 47.235435),Yes,,Puyallup,Puyallup Reservation,,,New Retailer,Independent,,,N,1630342.0,,,,,,,,
231,2301,2301,,,7 ELEVEN,5308 PACIFIC HWY E,Correct,5308 PACIFIC HWY E,TACOMA,Correct,TACOMA,WA,Correct,WA,98424,Correct,98424.0,,,47.243053,,,-122.3581,,,"5308 Pacific Hwy E, Tacoma, WA, 98424",,Correct,PIERCE,,,,,,Active,POINT (-122.3581 47.243053),Yes,,Puyallup,Puyallup Reservation,,,New Retailer,7 Eleven/North Pacific Div,Irving,TX,N,7081435.0,,,,,,,,
232,2303,2303,,,SHELL,5501 20TH ST E,Correct,5501 20TH ST E,TACOMA,Correct,TACOMA,WA,Correct,WA,98424,Correct,98424.0,,,47.23896,,,-122.35576,,,"5501 20th St E, Tacoma, WA, 98424",,Correct,PIERCE,,,,,,Active,POINT (-122.35576 47.23896),Yes,,Puyallup,Puyallup Reservation,,,New Retailer,Emanuel Inc,Tacoma,WA,Y,633260.0,,,,,,,,
233,2307,2307,,,PACIFIC EXPRESS TRUCK STOP,4310 PACIFIC HWY E,Correct,4310 PACIFIC HWY E,TACOMA,Correct,TACOMA,WA,Correct,WA,98424,Correct,98424.0,,,47.2431,,,-122.37141399999999,,,"4310 Pacific Hwy E, Tacoma, WA, 98424",,Correct,PIERCE,,,,,,Active,POINT (-122.371414 47.2431),Yes,,Puyallup,Puyallup Reservation,,,New Retailer,Independent,,,N,1431449.0,,602543441,"1015 PACIFIC, LLC",GWEN  INGELS,PO BOX 2171  ,TACOMA,WA,98401
234,2308,2308,,,COLVILLE FUELS DEEP WATER,455 WAPATO LAKE RD,Correct,455 WAPATO LAKE RD,MANSON,Correct,MANSON,WA,Correct,WA,98831,Correct,98831.0,,,47.885403000000004,,,-120.12965,,,"455 Wapato Lake Rd, Manson, WA, 98831",,Correct,CHELAN,,,,,,Active,POINT (-120.12965 47.885403),Yes,,Colville,Colville Off-Reservation Trust Land,,,New Retailer,Independent,,,N,4032251.0,,,,,,,,
235,2309,2309,,,COUGAR DEN,620 SIGNAL PEAK RD,Correct,620 SIGNAL PEAK RD,WHITE SWAN,Correct,WHITE SWAN,WA,Correct,WA,98952,Correct,98952.0,,,46.373591999999995,,,-120.73263,,,"620 Signal Peak Rd, White Swan, WA, 98952",,Correct,YAKIMA,,,,,,Active,POINT (-120.73263 46.373592),Yes,,Yakama Nation,Yakama Nation Reservation,,,New Retailer,Independent,,,N,1529236.0,,602356163,COUGAR DEN INC.,LYNDIA  RAMSEY,620 SIGNAL PEAK RD  ,WHITE SWAN,WA,98952
236,2310,2310,,,LA MAZORCA,118 S WAPATO AVE,118 S  AVE,118 S  AVE,WAPATO,Correct,WAPATO,WA,Correct,WA,98951,Correct,98951.0,,,46.44708,,,-120.420272,,,"118 S Wapato Ave, Wapato, WA, 98951",,Correct,YAKIMA,,,,,,Active,POINT (-120.420272 46.44708),Yes,,Yakama Nation,Yakama Nation Reservation,,,New Retailer,Independent,,,N,7385161.0,,,,,,,,
237,2311,2311,,,SWINOMISH CHEVRON,12939 CASINO DR,Correct,12939 CASINO DR,ANACORTES,Correct,ANACORTES,WA,Correct,WA,98221,Correct,98221.0,,,48.456734000000004,,,-122.52071000000001,,,"12939 Casino Dr, Anacortes, WA, 98221",,Correct,SKAGIT,,,,,,Active,POINT (-122.52071 48.456734),Yes,,Swinomish,Swinomish Reservation,,,New Retailer,Independent,,,Y,1795956.0,,,,,,,,
238,2312,2312,,,OMAK CONOCO,702 OMAK AVE,702  AVE,702  AVE,OMAK,Correct,OMAK,WA,Correct,WA,98841,Correct,98841.0,,,48.4066889,,,-119.5181797,,,"702 Omak Ave, Omak, WA, 98841",,Correct,OKANOGAN,,,,,,Active,POINT (-119.5181797 48.4066889),Yes,,Colville,Colville Reservation,,,New Retailer,Independent,,,Y,496325.0,,603581404,OMAK FOREST PRODUCTS LLC,nan nan nan,,,,
239,2315,2315,,,GLENWOOD GENERAL STORE,208 E MAIN ST,Correct,208 E MAIN ST,GLENWOOD,Correct,GLENWOOD,WA,Correct,WA,98619,Correct,98619.0,,,46.018516999999996,,,-121.29066,,,"208 E Main St, Glenwood, WA, 98619",,Correct,KLICKITAT,,,,,,Active,POINT (-121.29066 46.018517),Yes,,Yakama Nation,Yakama Nation Reservation,,,New Retailer,Independent,,,N,757861.0,,603446514,GLENWOOD STATION INC,COLBY  MASDEN,  ,,,
240,2317,2317,,,4 DIRECTIONS,50 W WAPATO RD,50 W  RD,50 W  RD,WAPATO,Correct,WAPATO,WA,Correct,WA,98951,Correct,98951.0,,,46.43251400000001,,,-120.417786,,,"50 W Wapato Rd, Wapato, WA, 98951",,Correct,YAKIMA,,,,,,Active,POINT (-120.417786 46.43251400000001),Yes,,Yakama Nation,Yakama Nation Reservation,,,New Retailer,Independent,,,N,685877.0,,,,,,,,
241,2318,2318,,,LEGACY LANDING CHEVRON,220 S HAYFORD RD,Correct,220 S HAYFORD RD,AIRWAY HEIGHTS,Correct,AIRWAY HEIGHTS,WA,Correct,WA,99001,Correct,99001.0,,,47.65509,,,-117.56093999999999,,,"220 S Hayford Rd, Airway Heights, WA, 99001",,Correct,SPOKANE,,,,,,Active,POINT (-117.56094 47.65509),Yes,,Kalispel,Kalispel Off-Reservation Trust Land,,,New Retailer,Independent,,,Y,3830763.0,,,,,,,,
242,2319,2319,,,7 ELEVEN,3922 PORTLAND AVE,Correct,3922 PORTLAND AVE,TACOMA,Correct,TACOMA,WA,Correct,WA,98404,Correct,98404.0,,,47.22119650000001,,,-122.4082097,,,"3922 Portland Ave, Tacoma, WA, 98404",,Correct,PIERCE,,,,,,Active,POINT (-122.4082097 47.22119650000001),Yes,,Puyallup,Puyallup Reservation,,,New Retailer,7 Eleven/North Pacific Div,Irving,TX,Y,3980752.0,,,,,,,,
243,2320,2320,,,WHEELERS SMOKE N GAS,7453 SUNNYSIDE MABTON RD,7453 SUNNYSIDE  RD,7453 SUNNYSIDE  RD,MABTON,Correct,MABTON,WA,Correct,WA,98935,Correct,98935.0,,,46.222878,,,-119.999596,,,"7453 Sunnyside Mabton Rd, Mabton, WA, 98935",,Correct,YAKIMA,,,,,,Active,POINT (-119.999596 46.222878),Yes,,Yakama Nation,Yakama Nation Reservation,,,New Retailer,Independent,,,N,7380485.0,,,,,,,,
244,2321,2321,,,TIENDA TAQUERIA MINI MART,4314 E PORTLAND AVE,Correct,4314 E PORTLAND AVE,TACOMA,Correct,TACOMA,WA,Correct,WA,98404,Correct,98404.0,,,47.218227,,,-122.40768,,,"4314 E Portland Ave, Tacoma, WA, 98404",,Correct,PIERCE,,,,,,Active,POINT (-122.40768 47.218227),Yes,,Puyallup,Puyallup Reservation,,,New Retailer,Independent,,,N,757819.0,,602777379,"MART, LLC",TANN  UA,  ,,,
245,2322,2322,,,JY MARKET,4002 E PORTLAND AVE,Correct,4002 E PORTLAND AVE,TACOMA,Correct,TACOMA,WA,Correct,WA,98404,Correct,98404.0,,,47.22071,,,-122.40771000000001,,,"4002 E Portland Ave, Tacoma, WA, 98404",,Correct,PIERCE,,,,,,Active,POINT (-122.40771 47.22071),Yes,,Puyallup,Puyallup Reservation,,,New Retailer,Independent,,,N,1627133.0,,604069477,JY MARKET L.L.C.,JIN  YI,  ,,,
246,2325,2325,,,MAJOR 76,1302 PUYALLUP AVE,Correct,1302 PUYALLUP AVE,TACOMA,Correct,TACOMA,WA,Correct,WA,98421,Correct,98421.0,,,47.242104,,,-122.41573999999999,,,"1302 Puyallup Ave, Tacoma, WA, 98421",,Correct,PIERCE,,,,,,Active,POINT (-122.41574 47.242104),Yes,,Puyallup,Puyallup Reservation,,,New Retailer,Independent,,,Y,653295.0,,,,,,,,
247,2326,2326,,,SUNBOW FOOD MART,3301 49TH AVE NE,Correct,3301 49TH AVE NE,TACOMA,Correct,TACOMA,WA,Correct,WA,98422,Correct,98422.0,,,47.286507,,,-122.382225,,,"3301 49th Ave NE, Tacoma, WA, 98422",,Correct,PIERCE,,,,,,Active,POINT (-122.382225 47.286507),Yes,,Puyallup,Puyallup Reservation,,,New Retailer,Independent,,,N,689334.0,,602777379,"MART, LLC",TANN  UA,  ,,,
248,2327,2327,,,BIG WOLF MINI MARKET,67831 US HIGHWAY 97,Correct,67831 US HIGHWAY 97,WAPATO,Correct,WAPATO,WA,Correct,WA,98951,Correct,98951.0,,,46.432865,,,-120.41776999999999,,,"67831 Us Highway 97, Wapato, WA, 98951",,Correct,YAKIMA,,,,,,Active,POINT (-120.41777 46.432865),Yes,,Yakama Nation,Yakama Nation Reservation,,,New Retailer,Independent,,,N,617963.0,,603043118,"BIG WOLF, LLC",NAZIR  KARMALI,67831 HWY 97  ,WAPATO,WA,98951
249,2330,2330,,,DONNAS TRUCK STOP,3104 116TH ST NE,Correct,3104 116TH ST NE,MARYSVILLE,Correct,MARYSVILLE,WA,Correct,WA,98271,Correct,98271.0,,,48.09968170000001,,,-122.18820290000001,,,"3104 116th St NE, Marysville, WA, 98271",,Correct,SNOHOMISH,,,,,,Active,POINT (-122.1882029 48.09968170000001),Yes,,Tulalip,Tulalip Reservation,,,New Retailer,Independent,,,N,1433596.0,,,,,,,,
250,2331,2331,,,LONGHOUSE MARKET & DELI,271020 HIGHWAY 101,Correct,271020 HIGHWAY 101,SEQUIM,Correct,SEQUIM,WA,Correct,WA,98382,Correct,98382.0,,,48.020515,,,-123.00416000000001,,,"271020 Highway 101, Sequim, WA, 98382",,Correct,CLALLAM,,,,,,Active,POINT (-123.00416 48.020515),Yes,,Jamestown S'Klallam,Jamestown S'Klallam Off-Reservation Trust Land,,,New Retailer,Independent,,,N,5615680.0,,,,,,,,
251,2332,2332,,,HIGH FIVE CHEVRON,5319 20TH ST E,Correct,5319 20TH ST E,TACOMA,Correct,TACOMA,WA,Correct,WA,98424,Correct,98424.0,,,47.238964,,,-122.35838999999999,,,"5319 20th St E, Tacoma, WA, 98424",,Correct,PIERCE,,,,,,Active,POINT (-122.35839 47.238964),Yes,,Puyallup,Puyallup Reservation,,,New Retailer,Independent,,,Y,634155.0,,603609058,HIGH FIVE LLC,"*  CANNAR, INC.",3408 52ND AVE NE  ,TACOMA,WA,98422
252,2341,2341,,,JACKSONS SERVICE,4440 HWY 155,Correct,4440 HWY 155,NESPELEM,Correct,NESPELEM,WA,Correct,WA,99155,Correct,99155.0,,,48.16697,,,-118.98156999999999,,,"4440 Hwy 155, Nespelem, WA, 99155",,Correct,OKANOGAN,,,,,,Active,POINT (-118.98157 48.16697),Yes,,Colville,Colville Reservation,,,New Retailer,Independent,,,N,2120693.0,,,,,,,,
253,2350,2350,,,SPOKO FUEL,6144 FORD WELLPINIT RD,6144 FORD  RD,6144 FORD  RD,WELLPINIT,Correct,WELLPINIT,WA,Correct,WA,99040,Correct,99040.0,,,47.88744000000001,,,-117.9895,,,"6144 Ford Wellpinit Rd, Wellpinit, WA, 99040",,Correct,STEVENS,,,,,,Active,POINT (-117.9895 47.88744000000001),Yes,,Spokane,Spokane Reservation,,,New Retailer,Independent,,,N,757927.0,,,,,,,,
254,2359,2359,,,KURTS CORNER,5451 FORD WELLPINIT RD,5451 FORD  RD,5451 FORD  RD,WELLPINIT,Correct,WELLPINIT,WA,Correct,WA,99040,Correct,99040.0,,,47.9124943,,,-117.85975790000002,,,"5451 Ford Wellpinit Rd, Wellpinit, WA, 99040",,Correct,STEVENS,,,,,,Active,POINT (-117.8597579 47.9124943),Yes,,Spokane,Spokane Reservation,,,New Retailer,Independent,,,N,1937867.0,,,,,,,,
255,2371,2371,,,VIDEOQUEST MINI MART,4442 HWY 155,Correct,4442 HWY 155,NESPELEM,Correct,NESPELEM,WA,Correct,WA,99155,Correct,99155.0,,,48.166973,,,-118.98158000000001,,,"4442 Hwy 155, Nespelem, WA, 99155",,Correct,OKANOGAN,,,,,,Active,POINT (-118.98158 48.166973),Yes,,Colville,Colville Reservation,,,New Retailer,Independent,,,N,1930530.0,,,,,,,,
256,2373,2373,,,KALISPEL MARKET & FUEL STOP,370 QLISPE RIVER WAY,Correct,370 QLISPE RIVER WAY,CUSICK,Correct,CUSICK,WA,Correct,WA,99119,Correct,99119.0,,,48.3475715,,,-117.303249,,,"370 Qlispe River Way, Cusick, WA, 99119",,Correct,PEND OREILLE,,,,,,Active,POINT (-117.303249 48.3475715),Yes,,Kalispel,Kalispel Reservation,,,New Retailer,Independent,,,N,7598986.0,,,,,,,,
257,2376,2376,,,DOLLAR TREE,300 W 1ST AVE,Correct,300 W 1ST AVE,TOPPENISH,Correct,TOPPENISH,WA,Correct,WA,98948,Correct,98948.0,,,46.375114,,,-120.305626,,,"300 W 1st Ave, Toppenish, WA, 98948",,Correct,YAKIMA,,,,,,Active,POINT (-120.305626 46.375114),Yes,,Yakama Nation,Yakama Nation Reservation,,,New Retailer,Dollar Tree/HQ,Chesapeake,VA,N,7062842.0,,,,,,,,
258,2450,2450,,,MILTON LODGE BAR & GRILL,7320 PACIFIC HWY E,Correct,7320 PACIFIC HWY E,MILTON,Correct,MILTON,WA,Correct,WA,98354,Correct,98354.0,,,47.2510761,,,-122.33504099999999,,,"7320 Pacific Hwy E, Milton, WA, 98354",,Correct,PIERCE,,,,,,Active,POINT (-122.335041 47.2510761),Yes,,Puyallup,Puyallup Reservation,,,New Retailer,Independent,,,N,5621397.0,,603614892,MILTON BAR & GRILL INC,HELEN  FRAYCHINEAUD,524 N K ST #100  ,TACOMA,WA,98403
259,2451,2451,,,PALISADES BAR,5700 PACIFIC HWY E,Correct,5700 PACIFIC HWY E,TACOMA,Correct,TACOMA,WA,Correct,WA,98424,Correct,98424.0,,,47.243041999999996,,,-122.35336000000001,,,"5700 Pacific Hwy E, Tacoma, WA, 98424",,Correct,PIERCE,,,,,,Active,POINT (-122.35336 47.243042),Yes,,Puyallup,Puyallup Reservation,,,New Retailer,Independent,,,N,3946782.0,,,,,,,,
260,2454,2454,,,TWIN LAKES TAVERN,2266 BRIDGE CREEK RD,Correct,2266 BRIDGE CREEK RD,INCHELIUM,Correct,INCHELIUM,WA,Correct,WA,99138,Correct,99138.0,,,48.2885651,,,-118.25712720000001,,,"2266 Bridge Creek Rd, Inchelium, WA, 99138",,Correct,FERRY,,,,,,Active,POINT (-118.2571272 48.2885651),Yes,,Colville,Colville Reservation,,,New Retailer,Independent,,,N,5616245.0,,,,,,,,
261,2462,2462,,,RUBYS,6 GIFFORD FERRY RD,Correct,6 GIFFORD FERRY RD,INCHELIUM,Correct,INCHELIUM,WA,Correct,WA,99138,Correct,99138.0,,,48.296524,,,-118.19661,,,"6 Gifford Ferry Rd, Inchelium, WA, 99138",,Correct,FERRY,,,,,,Active,POINT (-118.19661 48.296524),Yes,,Colville,Colville Reservation,,,New Retailer,Independent,,,N,7007108.0,,,,,,,,
262,2464,2464,,,VALLEY PUB,1206 PUYALLUP AVE,Correct,1206 PUYALLUP AVE,TACOMA,Correct,TACOMA,WA,Correct,WA,98421,Correct,98421.0,,,47.241946999999996,,,-122.41718999999999,,,"1206 Puyallup Ave, Tacoma, WA, 98421",,Correct,PIERCE,,,,,,Active,POINT (-122.41719 47.241947),Yes,,Puyallup,Puyallup Reservation,,,New Retailer,Independent,,,N,5616260.0,,603132356,PUB 933 INC,RENEE  FANDT,  ,TACOMA,WA,     
263,2465,2465,,,RIDGE BAR,5700 PACIFIC HWY E,Correct,5700 PACIFIC HWY E,TACOMA,Correct,TACOMA,WA,Correct,WA,98424,Correct,98424.0,,,47.243041999999996,,,-122.35336000000001,,,"5700 Pacific Hwy E, Tacoma, WA, 98424",,Correct,PIERCE,,,,,,Active,POINT (-122.35336 47.243042),Yes,,Puyallup,Puyallup Reservation,,,New Retailer,Independent,,,N,3946723.0,,,,,,,,
264,2470,2470,,,THE BUCKIN CHUTE,427 S DAYTON ST,Correct,427 S DAYTON ST,OMAK,Correct,OMAK,WA,Correct,WA,98841,Correct,98841.0,,,48.405598,,,-119.52170600000001,,,"427 S Dayton St, Omak, WA, 98841",,Correct,OKANOGAN,,,,,,Active,POINT (-119.521706 48.405598),Yes,,Colville,Colville Reservation,,,New Retailer,Independent,,,N,2565876.0,,603613361,THE BUCKIN CHUTE LLC,CHERYL RENAE MASON,  ,,,
265,2472,2472,,,KETCH PEN TAVERN,498 10TH ST,Correct,498 10TH ST,NESPELEM,Correct,NESPELEM,WA,Correct,WA,99155,Correct,99155.0,,,48.16534,,,-118.97778000000001,,,"498 10th st, Nespelem, WA, 99155",,Correct,OKANOGAN,,,,,,Active,POINT (-118.97778 48.16534),Yes,,Colville,Colville Reservation,,,New Retailer,Independent,,,N,1781648.0,,,,,,,,
266,2478,2478,,,FAR POST SPORTS BAR,2610 BAY ST,Correct,2610 BAY ST,TACOMA,Correct,TACOMA,WA,Correct,WA,98421,Correct,98421.0,,,47.23869000000001,,,-122.397995,,,"2610 Bay St, Tacoma, WA, 98421",,Correct,PIERCE,,,,,,Active,POINT (-122.397995 47.23869000000001),Yes,,Puyallup,Puyallup Reservation,,,New Retailer,Independent,,,N,3981376.0,,,,,,,,
267,2479,2479,,,POODLE DOG RESTAURANT,1522 54TH AVE E,Correct,1522 54TH AVE E,TACOMA,Correct,TACOMA,WA,Correct,WA,98424,Correct,98424.0,,,47.243824,,,-122.35696399999999,,,"1522 54th Ave E, Tacoma, WA, 98424",,Correct,PIERCE,,,,,,Active,POINT (-122.356964 47.243824),Yes,,Puyallup,Puyallup Reservation,,,New Retailer,Independent,,,N,5625854.0,,,,,,,,
268,2481,2481,,,WINNERS LOUNGE,5984 N DARRK LN,Correct,5984 N DARRK LN,BOW,Correct,BOW,WA,Correct,WA,98232,Correct,98232.0,,,48.557990000000004,,,-122.34608999999999,,,"5984 N Darrk Ln, Bow, WA, 98232",,Correct,SKAGIT,,,,,,Active,POINT (-122.34609 48.55799),Yes,,Upper Skagit,Upper Skagit Off-Reservation Trust Land,,,New Retailer,Independent,,,N,2226089.0,,,,,,,,
269,2482,2482,,,R & R LOUNGE,7824 RIVER RD E STE D,Correct,7824 RIVER RD E STE D,PUYALLUP,Correct,PUYALLUP,WA,Correct,WA,98371,Correct,98371.0,,,47.20769,,,-122.32526399999999,,,"7824 River Rd E Ste D, Puyallup, WA, 98371",,Correct,PIERCE,,,,,,Active,POINT (-122.325264 47.20769),Yes,,Puyallup,Puyallup Reservation,,,New Retailer,Independent,,,N,1942463.0,,602514267,"FATHER & SON ""LLC""",GARIN  HESLOP,  ,PUYALLUP,WA,     
270,2483,2483,,,EL GALLO DE ORO,3201 E PORTLAND AVE,Correct,3201 E PORTLAND AVE,TACOMA,Correct,TACOMA,WA,Correct,WA,98404,Correct,98404.0,,,47.234665,,,-122.40948,,,"3201 E Portland Ave, Tacoma, WA, 98404",,Correct,PIERCE,,,,,,Active,POINT (-122.40948 47.234665),Yes,,Puyallup,Puyallup Reservation,,,New Retailer,Independent,,,N,5618815.0,,,,,,,,
271,2484,2484,,,RIGHT SPOT,5119 PACIFIC HWY E,Correct,5119 PACIFIC HWY E,TACOMA,Correct,TACOMA,WA,Correct,WA,98424,Correct,98424.0,,,47.24307,,,-122.35923000000001,,,"5119 Pacific Hwy E, Tacoma, WA, 98424",,Correct,PIERCE,,,,,,Active,POINT (-122.35923 47.24307),Yes,,Puyallup,Puyallup Reservation,,,New Retailer,Independent,,,N,5622682.0,,,,,,,,
272,2489,2489,,,SUMMIT BAR,5700 PACIFIC HWY E,Correct,5700 PACIFIC HWY E,TACOMA,Correct,TACOMA,WA,Correct,WA,98424,Correct,98424.0,,,47.243041999999996,,,-122.35336000000001,,,"5700 Pacific Hwy E, Tacoma, WA, 98424",,Correct,PIERCE,,,,,,Active,POINT (-122.35336 47.243042),Yes,,Puyallup,Puyallup Reservation,,,New Retailer,Independent,,,N,3946788.0,,604199008,"5100 SUMMIT, LLC",MARK  CARPENTER,  ,,,
273,2490,2490,,,CHALET TAVERN,5515 PIONEER WAY E,Correct,5515 PIONEER WAY E,PUYALLUP,Correct,PUYALLUP,WA,Correct,WA,98371,Correct,98371.0,,,47.205063,,,-122.35866499999999,,,"5515 Pioneer Way E, Puyallup, WA, 98371",,Correct,PIERCE,,,,,,Active,POINT (-122.358665 47.205063),Yes,,Puyallup,Puyallup Reservation,,,New Retailer,Independent,,,N,5615614.0,,,,,,,,
274,2496,2496,,,AMERICAN LEGION,210 E 3RD ST,Correct,210 E 3RD ST,WAPATO,Correct,WAPATO,WA,Correct,WA,98951,Correct,98951.0,,,46.445995,,,-120.4183,,,"210 E 3rd St, Wapato, WA, 98951",,Correct,YAKIMA,,,,,,Active,POINT (-120.4183 46.445995),Yes,,Yakama Nation,Yakama Nation Reservation,,,New Retailer,Independent,,,Y,5599643.0,,,,,,,,
275,2503,2503,,,BRANDING IRON,61311 US HIGHWAY 97,Correct,61311 US HIGHWAY 97,TOPPENISH,Correct,TOPPENISH,WA,Correct,WA,98948,Correct,98948.0,,,46.369537,,,-120.3202,,,"61311 Us Highway 97, Toppenish, WA, 98948",,Correct,YAKIMA,,,,,,Active,POINT (-120.3202 46.369537),Yes,,Yakama Nation,Yakama Nation Reservation,,,New Retailer,Independent,,,N,5617161.0,,,,,,,,
276,2511,2511,,,SPUR TAVERN,3980 HARRAH RD,3980  RD,3980  RD,HARRAH,Correct,HARRAH,WA,Correct,WA,98933,Correct,98933.0,,,46.40499000000001,,,-120.54417,,,"3980 Harrah Rd, Harrah, WA, 98933",,Correct,YAKIMA,,,,,,Active,POINT (-120.54417 46.40499000000001),Yes,,Yakama Nation,Yakama Nation Reservation,,,New Retailer,Independent,,,N,7597585.0,,,,,,,,
277,2528,2528,,,SMOKEY JOES SPORTS BAR,4411 PACIFIC HWY E,Correct,4411 PACIFIC HWY E,TACOMA,Correct,TACOMA,WA,Correct,WA,98424,Correct,98424.0,,,47.24310300000001,,,-122.370125,,,"4411 Pacific Hwy E, Tacoma, WA, 98424",,Correct,PIERCE,,,,,,Active,POINT (-122.370125 47.24310300000001),Yes,,Puyallup,Puyallup Reservation,,,New Retailer,Independent,,,N,3646478.0,,604262543,JOES LLC,JOE  JOHNSON,2651 S CEDAR ST  ,TACOMA,WA,984052325
278,2547,2547,,,EAGLES LODGE,515 S DIVISION ST,Correct,515 S DIVISION ST,TOPPENISH,Correct,TOPPENISH,WA,Correct,WA,98948,Correct,98948.0,,,46.369953,,,-120.30978,,,"515 S Division St, Toppenish, WA, 98948",,Correct,YAKIMA,,,,,,Active,POINT (-120.30978 46.369953),Yes,,Yakama Nation,Yakama Nation Reservation,,,New Retailer,Independent,,,Y,5599839.0,,,,,,,,
279,2563,2563,,,RIVERVIEW LANES,515 RIVER DR,Correct,515 RIVER DR,COULEE DAM,Correct,COULEE DAM,WA,Correct,WA,99116,Correct,99116.0,,,47.9662669,,,-118.9796716,,,"515 River Dr, Coulee Dam, WA, 99116",,Correct,OKANOGAN,,,,,,Active,POINT (-118.9796716 47.9662669),Yes,,Colville,Colville Reservation,,,New Retailer,Independent,,,N,7476338.0,,,,,,,,
280,2572,2572,,,NORTH SHORE GOLF COURSE,4101 NORTHSHORE BLVD NE,Correct,4101 NORTHSHORE BLVD NE,TACOMA,Correct,TACOMA,WA,Correct,WA,98422,Correct,98422.0,,,47.294777,,,-122.39626000000001,,,"4101 Northshore Blvd NE, Tacoma, WA, 98422",,Correct,PIERCE,,,,,,Active,POINT (-122.39626 47.294777),Yes,,Puyallup,Puyallup Reservation,,,New Retailer,Columbia Hospitality/Recreation,Seattle,WA,N,5630042.0,,,,,,,,
281,2574,2574,,,OKANOGAN BINGO CASINO,41 APPLEWAY,Correct,41 APPLEWAY,OKANOGAN,Correct,OKANOGAN,WA,Correct,WA,98840,Correct,98840.0,,,48.35176,,,-119.58863999999998,,,"41 Appleway, Okanogan, WA, 98840",,Correct,OKANOGAN,,,,,,Active,POINT (-119.58864 48.35176),Yes,,Colville,Colville Reservation,,,New Retailer,Independent,,,N,2492346.0,,603340868,OKANOGAN ARMS LLC,KOLS  PITTS,  ,,,
282,2580,2580,,,DUNGENESS GOLF & CC,1965 WOODCOCK RD,Correct,1965 WOODCOCK RD,SEQUIM,Correct,SEQUIM,WA,Correct,WA,98382,Correct,98382.0,,,48.116104,,,-123.173645,,,"1965 Woodcock Rd, Sequim, WA, 98382",,Correct,CLALLAM,,,,,,Active,POINT (-123.173645 48.116104),Yes,,Jamestown S'Klallam,Jamestown S'Klallam Off-Reservation Trust Land,,,New Retailer,Independent,,,N,5612198.0,,603262804,"SMALL WORLD AT DUNGENESS, LLC",BRIAN  KLOOSTERMAN,1642 W HENDRICKSON RD  ,SEQUIM,WA,98382
283,2599,2599,,,SPOKANE TRIBE CASINO,14300 ST HWY 2 W,Correct,14300 ST HWY 2 W,AIRWAY HEIGHTS,Correct,AIRWAY HEIGHTS,WA,Correct,WA,99001,Correct,99001.0,,,47.6453704,,,-117.60881640000001,,,"14300 St Hwy 2 W, Airway Heights, WA, 99001",,Correct,SPOKANE,,,,,,Active,POINT (-117.6088164 47.6453704),Yes,,Spokane,Spokane Off-Reservation Trust Land,,,New Retailer,Independent,,,N,7570892.0,,,,,,,,
284,2600,2600,,,THE SOCCER CENTER,2610 BAY ST,Correct,2610 BAY ST,TACOMA,Correct,TACOMA,WA,Correct,WA,98421,Correct,98421.0,,,47.23869000000001,,,-122.397995,,,"2610 Bay St, Tacoma, WA, 98421",,Correct,PIERCE,,,,,,Active,POINT (-122.397995 47.23869000000001),Yes,,Puyallup,Puyallup Reservation,,,New Retailer,Independent,,,N,5628957.0,,,,,,,,
285,2603,2603,,,TULALIP AMPHITHEATER,10400 QUILCEDA BLVD,Correct,10400 QUILCEDA BLVD,MARYSVILLE,Correct,MARYSVILLE,WA,Correct,WA,98271,Correct,98271.0,,,48.093576399999996,,,-122.185425,,,"10400 Quilceda Blvd, Marysville, WA, 98271",,Correct,SNOHOMISH,,,,,,Active,POINT (-122.185425 48.0935764),Yes,,Tulalip,Tulalip Reservation,,,New Retailer,Independent,,,N,4035223.0,,604102042,TULALIP LITTLE LEAGUE,MARLIN  FRYBERG JR,  ,,,
286,2605,2605,,,MOUNT ADAMS GOLF COURSE,1250 ROCKY FORD RD,Correct,1250 ROCKY FORD RD,TOPPENISH,Correct,TOPPENISH,WA,Correct,WA,98948,Correct,98948.0,,,46.33869,,,-120.31903999999999,,,"1250 Rocky Ford Rd, Toppenish, WA, 98948",,Correct,YAKIMA,,,,,,Active,POINT (-120.31904 46.33869),Yes,,Yakama Nation,Yakama Nation Reservation,,,New Retailer,Independent,,,N,5601295.0,,,,,,,,
287,2607,2607,,,GAMBLE SANDS,200 SANDS TRAIL RD,Correct,200 SANDS TRAIL RD,BREWSTER,Correct,BREWSTER,WA,Correct,WA,98812,Correct,98812.0,,,48.0759751,,,-119.65181499999998,,,"200 Sands Trail Rd, Brewster, WA, 98812",,Correct,OKANOGAN,,,,,,Active,POINT (-119.651815 48.0759751),Yes,,Colville,Colville Reservation,,,New Retailer,Independent,,,N,7340070.0,,,,,,,,
288,2611,2611,,,SEVEN CEDARS CASINO,270756 HIGHWAY 101,Correct,270756 HIGHWAY 101,SEQUIM,Correct,SEQUIM,WA,Correct,WA,98382,Correct,98382.0,,,48.0218,,,-123.00883,,,"270756 Highway 101, Sequim, WA, 98382",,Correct,CLALLAM,,,,,,Active,POINT (-123.00883 48.0218),Yes,,Jamestown S'Klallam,Jamestown S'Klallam Off-Reservation Trust Land,,,New Retailer,Independent,,,N,5628915.0,,,,,,,,
289,2627,2627,,,BJS BINGO,4411 PACIFIC HWY E,Correct,4411 PACIFIC HWY E,TACOMA,Correct,TACOMA,WA,Correct,WA,98424,Correct,98424.0,,,47.24310300000001,,,-122.370125,,,"4411 Pacific Hwy E, Tacoma, WA, 98424",,Correct,PIERCE,,,,,,Active,POINT (-122.370125 47.24310300000001),Yes,,Puyallup,Puyallup Reservation,,,New Retailer,Independent,,,N,1880660.0,,,,,,,,
290,2644,2644,,,MOVIE & DINNER,10893 W NORTHERN QUEST DR,Correct,10893 W NORTHERN QUEST DR,AIRWAY HEIGHTS,Correct,AIRWAY HEIGHTS,WA,Correct,WA,99001,Correct,99001.0,,,47.6574406,,,-117.56351780000001,,,"10893 W Northern Quest Dr, Airway Heights, WA, 99001",,Correct,SPOKANE,,,,,,Active,POINT (-117.5635178 47.6574406),Yes,,Kalispel,Kalispel Off-Reservation Trust Land,,,New Retailer,Independent,,,N,7608016.0,,604232619,R & R 5028 LLC,LORETTA  GUTSHALL,  ,,,
291,2673,2673,,,RUBIES WINES SPIRITS & COUNTRY,6030 US HIGHWAY 101,Correct,6030 US HIGHWAY 101,AMANDA PARK,Correct,AMANDA PARK,WA,Correct,WA,98526,Correct,98526.0,,,47.45917,,,-123.89341,,,"6030 Us Highway 101, Amanda Park, WA, 98526",,Correct,GRAYS HARBOR,,,,,,Active,POINT (-123.89341 47.45917),Yes,,Quinault,Quinault Reservation,,,New Retailer,Independent,,,N,1415491.0,,,,,,,,
292,2754,2754,,,COWLITZ TOBACCO OUTLET,31401 NW 31ST AVE,Correct,31401 NW 31ST AVE,RIDGEFIELD,Correct,RIDGEFIELD,WA,Correct,WA,98642,Correct,98642.0,,,45.847711600000004,,,-122.70208559999999,,,"31401 NW 31st Ave, Ridgefield, WA, 98642",,Correct,CLARK,,,,,,Active,POINT (-122.7020856 45.8477116),Yes,,Cowlitz,Cowlitz Reservation,,,New Retailer,Independent,,,N,7570772.0,,,,,,,,
293,2776,2776,,,AMANDA PARK MERCANTILE,6088 US HIGHWAY 101,Correct,6088 US HIGHWAY 101,AMANDA PARK,Correct,AMANDA PARK,WA,Correct,WA,98526,Correct,98526.0,,,47.45919,,,-123.895325,,,"6088 Us Highway 101, Amanda Park, WA, 98526",,Correct,GRAYS HARBOR,,,,,,Active,POINT (-123.895325 47.45919),Yes,,Quinault,Quinault Reservation,,,New Retailer,Independent,,,N,349282.0,,600287504,"AMANDA PARK MERCANTILE, INC.",DELILAH  SNOW,6088 US HWY 101  ,AMANDA PARK,WA,985269800
294,2778,2778,,,JCS GROCERY & DELI,18475 AUGUSTA AVE NE,Correct,18475 AUGUSTA AVE NE,SUQUAMISH,Correct,SUQUAMISH,WA,Correct,WA,98392,Correct,98392.0,,,47.730537,,,-122.55242,,,"18475 Augusta Ave NE, Suquamish, WA, 98392",,Correct,KITSAP,,,,,,Active,POINT (-122.55242 47.730537),Yes,,Port Madison,Port Madison Reservation,,,New Retailer,Independent,,,N,757816.0,,,,,,,,
295,3032,3032,,,CHEVRON,18480 SUQUAMISH WAY NE,18480  WAY NE,18480  WAY NE,SUQUAMISH,Correct,SUQUAMISH,WA,Correct,WA,98392,Correct,98392.0,,,47.729003999999996,,,-122.55888,,,"18480 Suquamish Way NE, Suquamish, WA, 98392",,Correct,KITSAP,,,,,,Active,POINT (-122.55888 47.729004),Yes,,Port Madison,Port Madison Reservation,,,New Retailer,Independent,,,Y,251752.0,,,,,,,,
296,3033,3033,,,INDIANOLA COUNTRY STORE,9175 SHORE DR NE,Correct,9175 SHORE DR NE,INDIANOLA,Correct,INDIANOLA,WA,Correct,WA,98342,Correct,98342.0,,,47.74747429999999,,,-122.5259614,,,"9175 Shore Dr NE, Indianola, WA, 98342",,Correct,KITSAP,,,,,,Active,POINT (-122.5259614 47.74747429999999),Yes,,Port Madison,Port Madison Reservation,,,New Retailer,Independent,,,N,1435567.0,,602970197,"INDIANOLA BEACH HOUSE, LLC",DEBRA J KANYER,121 LOUIS THOMPSON RD NE  ,SAMMAMISH,WA,98074
297,3058,3058,,,TWIN TOTEMS GROCERY,19390 N US HIGHWAY 101,Correct,19390 N US HIGHWAY 101,SHELTON,Correct,SHELTON,WA,Correct,WA,98584,Correct,98584.0,,,47.338511,,,-123.1606665,,,"19390 N Us Highway 101, Shelton, WA, 98584",,Correct,MASON,,,,,,Active,POINT (-123.1606665 47.338511),Yes,,Skokomish,Skokomish Reservation,,,New Retailer,Independent,,,N,1441535.0,,,,,,,,
298,3061,3061,,,KTP EXPRESS,3850 SE OLD OLYMPIC HWY,Correct,3850 SE OLD OLYMPIC HWY,SHELTON,Correct,SHELTON,WA,Correct,WA,98584,Correct,98584.0,,,47.129531,,,-123.09754299999999,,,"3850 SE Old Olympic Hwy, Shelton, WA, 98584",,Correct,MASON,,,,,,Active,POINT (-123.097543 47.129531),Yes,,Squaxin Island,Squaxin Island Off-Reservation Trust Land,,,New Retailer,Independent,,,N,3989341.0,,,,,,,,
299,3064,3064,,,QUEETS TRADING POST ISS,402 JACKSON HEIGHTS DR,Correct,402 JACKSON HEIGHTS DR,FORKS,Correct,FORKS,WA,Correct,WA,98331,Correct,98331.0,,,47.5352927,,,-124.33249599999999,,,"402 Jackson Heights Dr, Forks, WA, 98331",,Correct,JEFFERSON,,,,,,Active,POINT (-124.332496 47.5352927),Yes,,Quinault,Quinault Reservation,,,New Retailer,Independent,,,N,1530319.0,,,,,,,,
300,3066,3066,,,MASI SHOP,15347 SUQUAMISH WAY NE,15347  WAY NE,15347  WAY NE,SUQUAMISH,Correct,SUQUAMISH,WA,Correct,WA,98392,Correct,98392.0,,,47.71455,,,-122.57087,,,"15347 Suquamish Way NE, Suquamish, WA, 98392",,Correct,KITSAP,,,,,,Active,POINT (-122.57087 47.71455),Yes,,Port Madison,Port Madison Reservation,,,New Retailer,Independent,,,N,7596977.0,,,,,,,,
301,3073,3073,,,KAMILCHE TRADING POST,61 W STATE ROUTE 108,Correct,61 W STATE ROUTE 108,SHELTON,Correct,SHELTON,WA,Correct,WA,98584,Correct,98584.0,,,47.1301265,,,-123.10101329999999,,,"61 W State Route 108, Shelton, WA, 98584",,Correct,MASON,,,,,,Active,POINT (-123.1010133 47.1301265),Yes,,Squaxin Island,Squaxin Island Reservation,,,New Retailer,Independent,,,N,1530861.0,,,,,,,,
302,3078,3078,,,FISHERMANS COVE,2557 LUMMI VIEW DR,Correct,2557 LUMMI VIEW DR,BELLINGHAM,Correct,BELLINGHAM,WA,Correct,WA,98226,Correct,98226.0,,,48.732616,,,-122.66916,,,"2557 Lummi View Dr, Bellingham, WA, 98226",,Correct,WHATCOM,,,,,,Active,POINT (-122.66916 48.732616),Yes,,Lummi,Lummi Reservation,,,New Retailer,Independent,,,N,713990.0,,,,,,,,
303,3081,3081,,,TAHOLAH MERCANTILE,515 QUINAULT ST,Correct,515 QUINAULT ST,TAHOLAH,Correct,TAHOLAH,WA,Correct,WA,98587,Correct,98587.0,,,47.347916,,,-124.28963,,,"515 Quinault St, Taholah, WA, 98587",,Correct,GRAYS HARBOR,,,,,,Active,POINT (-124.28963 47.347916),Yes,,Quinault,Quinault Reservation,,,New Retailer,Independent,,,N,1813173.0,,,,,,,,
304,3084,3084,,,AMANDA PARK SERVICES,6095 US HIGHWAY 101,Correct,6095 US HIGHWAY 101,AMANDA PARK,Correct,AMANDA PARK,WA,Correct,WA,98526,Correct,98526.0,,,47.459179999999996,,,-123.8961,,,"6095 Us Highway 101, Amanda Park, WA, 98526",,Correct,GRAYS HARBOR,,,,,,Active,POINT (-123.8961 47.45918),Yes,,Quinault,Quinault Reservation,,,New Retailer,Independent,,,N,1754021.0,,,,,,,,
305,3089,3089,,,NORTH SHORE GROCERY,6384 US HIGHWAY 101,Correct,6384 US HIGHWAY 101,AMANDA PARK,Correct,AMANDA PARK,WA,Correct,WA,98526,Correct,98526.0,,,47.468628,,,-123.923294,,,"6384 Us Highway 101, Amanda Park, WA, 98526",,Correct,GRAYS HARBOR,,,,,,Active,POINT (-123.923294 47.468628),Yes,,Quinault,Quinault Reservation,,,New Retailer,Independent,,,N,494364.0,,,,,,,,
306,3095,3095,,,GLIDING EAGLE GROCERY,8000 NE LITTLE BOSTON RD,Correct,8000 NE LITTLE BOSTON RD,KINGSTON,Correct,KINGSTON,WA,Correct,WA,98346,Correct,98346.0,,,47.838783,,,-122.54706999999999,,,"8000 NE Little Boston Rd, Kingston, WA, 98346",,Correct,KITSAP,,,,,,Active,POINT (-122.54707 47.838783),Yes,,Port Gamble,Port Gamble Reservation,,,New Retailer,Independent,,,N,1475844.0,,,,,,,,
307,3291,3291,,,WHITEHORSE GOLF COURSE,22795 THREE LIONS PL NE,Correct,22795 THREE LIONS PL NE,KINGSTON,Correct,KINGSTON,WA,Correct,WA,98346,Correct,98346.0,,,47.769527000000004,,,-122.52946999999999,,,"22795 Three Lions Pl NE, Kingston, WA, 98346",,Correct,KITSAP,,,,,,Active,POINT (-122.52947 47.769527),Yes,,Port Madison,Port Madison Reservation,,,New Retailer,Independent,,,N,2246781.0,,,,,,,,
308,3295,3295,,,ILANI CASINO RESORT,1 COWLITZ WAY,Correct,1 COWLITZ WAY,RIDGEFIELD,Correct,RIDGEFIELD,WA,Correct,WA,98642,Correct,98642.0,,,45.853767100000006,,,-122.7067139,,,"1 Cowlitz Way, Ridgefield, WA, 98642",,Correct,CLARK,,,,,,Active,POINT (-122.7067139 45.85376710000001),Yes,,Cowlitz,Cowlitz Reservation,,,New Retailer,Mohegan Sun,Uncasville,CT,N,7530482.0,,,,,,,,
309,3309,3309,,,LUCKY DOG CASINO,19330 N US HIGHWAY 101,Correct,19330 N US HIGHWAY 101,SHELTON,Correct,SHELTON,WA,Correct,WA,98584,Correct,98584.0,,,47.3365412,,,-123.16023030000001,,,"19330 N Us Highway 101, Shelton, WA, 98584",,Correct,MASON,,,,,,Active,POINT (-123.1602303 47.3365412),Yes,,Skokomish,Skokomish Reservation,,,New Retailer,Independent,,,N,1787582.0,,,,,,,,
310,3311,3311,,,SALISH CLIFFS GOLF CLUB,800 W SALISH CLIFF DR,Correct,800 W SALISH CLIFF DR,SHELTON,Correct,SHELTON,WA,Correct,WA,98584,Correct,98584.0,,,47.120657200000004,,,-123.1069721,,,"800 W Salish Cliff Dr, Shelton, WA, 98584",,Correct,MASON,,,,,,Active,POINT (-123.1069721 47.1206572),Yes,,Squaxin Island,Squaxin Island Off-Reservation Trust Land,,,New Retailer,Independent,,,N,7006490.0,,602949251,"SALISH CLIFFS, LLC",DAVID  LOPEMAN,3711 SE OLD OLYMPIC HWY  ,SHELTON,WA,98584
