IMPAQ_ID,DBA Name,Address Line 1,Address Line 2,City,State,Zip,Latitude,Longitude,Full Address,matchsource,est_id,found_pic,Manual Result,name_update,addr_update,lat_update,lon_update,biz_status,DBA Name_update,Full Address_update,Latitude_update,Longitude_update,Coordinates,On Tribe Land,Miles to Nearest Tribe,Assoc Tribe,Assoc Res,Nearest Tribe,Nearest Res,ori_flg,Owner Name,Owner City,Owner State,Non-Corporate Owned,Niel_id,Address Line 1_update,City_update,State_update,Zip_update,County,County_update,SoS_record,entity,agent_name,agent_address,agent_city,agent_state,agent_zip
180,SPA RESORT CASINO,401 E AMADO RD,,PALM SPRINGS,CA,92262,33.82663921,-116.5434719,"401 E AMADO RD  PALM SPRINGS, CA 92262",Original,180.0,,,Correct,Correct,Correct,Correct,Active,SPA RESORT CASINO,"401 E AMADO RD PALM SPRINGS, CA 92262",33.82663921,-116.5434719,POINT (-116.5434719 33.82663921),Yes,0.0,Agua Caliente,Agua Caliente Indian Reservation,,,From Original List,,,,,,No changes,No changes,No changes,No changes,RIVERSIDE,RIVERSIDE,,,,,,,
182,PALM CANYON LIQUOR,1400 S PALM CANYON DR,,PALM SPRINGS,CA,92264,33.80469024,-116.54528859999999,"1400 S PALM CANYON DR  PALM SPRINGS, CA 92264",Original,182.0,1.0,yes,Correct,Correct,Correct,Correct,Active,PALM CANYON LIQUOR,"1400 S PALM CANYON DR PALM SPRINGS, CA 92264",33.80469024,-116.54528859999999,POINT (-116.5452886 33.80469024),No,0.0227039823475493,,,Agua Caliente,Agua Caliente Indian Reservation,From Original List,,,,,,No changes,No changes,No changes,No changes,RIVERSIDE,RIVERSIDE,,,,,,,
183,CLUB LIQUOR,1109 S PALM CANYON DR,,PALM SPRINGS,CA,92264,33.80752872,-116.54572160000001,"1109 S PALM CANYON DR  PALM SPRINGS, CA 92264",Original,183.0,,,Correct,Correct,Correct,Correct,Active,CLUB LIQUOR,"1109 S PALM CANYON DR PALM SPRINGS, CA 92264",33.80752872,-116.54572160000001,POINT (-116.5457216 33.80752872),Yes,0.0,Agua Caliente,Agua Caliente Indian Reservation,,,From Original List,,,,,,No changes,No changes,No changes,No changes,RIVERSIDE,RIVERSIDE,C3266107,"COUNTRY CLUB LIQUOR, INC.",HASSAN MUBARA,21900 BURBANK BLVD # 112 WOODLAND HILLS CA 91367,WOODLAND HILLS,CA,91367
185,NATIVE MADE TOBACCO,559 S PALM CANYON DR STE B109,,PALM SPRINGS,CA,92264,33.8146534,-116.5462962,"559 S PALM CANYON DR STE B109  PALM SPRINGS, CA 92264",Original,185.0,,,Correct,Correct,Correct,Correct,Active,NATIVE MADE TOBACCO,"559 S PALM CANYON DR STE B109 PALM SPRINGS, CA 92264",33.8146534,-116.5462962,POINT (-116.5462962 33.8146534),Yes,0.0,Agua Caliente,Agua Caliente Indian Reservation,,,From Original List,,,,,,No changes,No changes,No changes,No changes,RIVERSIDE,RIVERSIDE,,,,,,,
187,LA CHICANITA,88740 70TH AVE,,THERMAL,CA,92274,33.54071224,-116.1193877,"88740 70TH AVE  THERMAL, CA 92274",Original,187.0,,,LA CHICANITA MARKET,Correct,Correct,Correct,Active,LA CHICANITA MARKET,"88740 70TH AVE THERMAL, CA 92274",33.54071224,-116.1193877,POINT (-116.1193877 33.54071224),Yes,0.0,Torres-Martinez,Torres-Martinez Reservation,,,From Original List,,,,,,No changes,No changes,No changes,No changes,RIVERSIDE,RIVERSIDE,200815110172,"LA CHICANITA MARKET, LLC",,,,,
189,HUB LIQUOR,2118 WINTERHAVEN DR,,WINTERHAVEN,CA,92283,32.73870585,-114.63470600000001,"2118 WINTERHAVEN DR  WINTERHAVEN, CA 92283",Original,189.0,,,Correct,Correct,Correct,Correct,Closed,HUB LIQUOR,"2118 WINTERHAVEN DR WINTERHAVEN, CA 92283",32.73870585,-114.63470600000001,POINT (-114.634706 32.73870585),No,0.09686307452218652,,,Fort Yuma,Fort Yuma Indian Reservation,From Original List,,,,,,No changes,No changes,No changes,No changes,IMPERIAL,IMPERIAL,C1854224,"HUB LIQUOR, INC.",GARY ALLEN JAMES,2118 WINTERHAVEN DR WINTERHAVEN CA 92283,WINTERHAVEN,CA,92283
206,IONE PLAZA MARKET,313 PRESTON AVE,,IONE,CA,95640,38.35289739,-120.93467690000001,"313 PRESTON AVE  IONE, CA 95640",Original,206.0,,,Correct,Correct,Correct,Correct,Active,IONE PLAZA MARKET,"313 PRESTON AVE IONE, CA 95640",38.35289739,-120.93467690000001,POINT (-120.9346769 38.35289739),No,12.975786152682533,,,Jackson,Jackson Rancheria,From Original List,,,,,,No changes,No changes,No changes,No changes,AMADOR,AMADOR,C3165684,IONE PLAZA MARKET INC.,FRED AZARABADI,8924 FAIR OAKS BLVD CARMICHAEL CA 95608,CARMICHAEL,CA,95608
212,WIN RIVER MINI MART,2415 S BONNYVIEW RD,,REDDING,CA,96001,40.52929876,-122.3808004,"2415 S BONNYVIEW RD  REDDING, CA 96001",Original,212.0,,,Correct,Correct,Correct,Correct,Active,WIN RIVER MINI MART,"2415 S BONNYVIEW RD REDDING, CA 96001",40.52929876,-122.3808004,POINT (-122.3808004 40.52929876),No,1.4102401593593357,,,Redding,Redding Rancheria,From Original List,,,,,,No changes,No changes,No changes,No changes,SHASTA,SHASTA,,,,,,,
216,EAGLE FEATHER TRADING POST #2,40103 HIGHWAY 33,,AVENAL,CA,93204,35.890621,-120.04661999999999,"40103 HIGHWAY 33  AVENAL, CA 93204",Original,216.0,,,Can't Validate,Can't Validate,Can't Validate,Can't Validate,Can't Validate,EAGLE FEATHER TRADING POST #2,"40103 HIGHWAY 33 AVENAL, CA 93204",35.890621,-120.04661999999999,POINT (-120.04662 35.890621),No,28.832445413088934,,,Santa Rosa,Santa Rosa Rancheria,From Original List,,,,,,No changes,No changes,No changes,No changes,,KINGS,C3420874,EAGLE FEATHER TRADING POST #2 INC.,FRED GRUND,780 YOWLUMNE AVE STE A PORTERVILLE CA 93257,PORTERVILLE,CA,93257
221,COYOTE VALLEY,7751 NORTH STATE STREET,,REDWOOD VALLEY,CA,95470,39.256093,-123.214678,"7751 NORTH STATE STREET  REDWOOD VALLEY, CA 95470",Original,221.0,,,Can't Validate,Can't Validate,Can't Validate,Can't Validate,Can't Validate,COYOTE VALLEY,"7751 NORTH STATE STREET REDWOOD VALLEY, CA 95470",39.256093,-123.214678,POINT (-123.214678 39.256093),Yes,0.0,Coyote Valley,Coyote Valley Reservation,,,From Original List,,,,,,No changes,No changes,No changes,No changes,,MENDOCINO,C2727090,"COYOTE VALLEY CONSTRUCTION, INC.",MICHAEL H SAND,18595 DEER HOLLOW RD HIDDEN VALLEY LAKE CA 95467,HIDDEN VALLEY LAKE,CA,95467
224,CHEVRON,315 HWY. 101 S.,,CRESCENT CITY,CA,95531,41.760181,-124.197726,"315 HWY. 101 S.  CRESCENT CITY, CA 95531",Original,224.0,,,Correct,Correct,Correct,Correct,Active,CHEVRON,"315 HWY. 101 S. CRESCENT CITY, CA 95531",41.760181,-124.197726,POINT (-124.197726 41.760181),No,2.382921016820769,,,Elk Valley,Elk Valley Rancheria,From Original List,,,,,,No changes,No changes,No changes,No changes,,DEL NORTE,C4067380,"11TH STREET CHEVRON, INC.",MUSSA M KAID,1294 DALTON ST TULARE CA 93274,TULARE,CA,93274
231,CHEVRON,68010 RAMON RD.,,CATHEDRAL CITY,CA,92234,33.815996000000005,-116.475197,"68010 RAMON RD.  CATHEDRAL CITY, CA 92234",Original,231.0,,,Correct,Correct,Correct,Correct,Active,CHEVRON,"68010 RAMON RD. CATHEDRAL CITY, CA 92234",33.815996000000005,-116.475197,POINT (-116.475197 33.81599600000001),No,0.026407509434141697,,,Agua Caliente,Agua Caliente Indian Reservation,From Original List,,,,,,No changes,No changes,No changes,No changes,,RIVERSIDE,C4067380,"11TH STREET CHEVRON, INC.",MUSSA M KAID,1294 DALTON ST TULARE CA 93274,TULARE,CA,93274
232,CLEAN ENERGY,3400 E. TAHQUITZ CANYON WAY,,PALM SPRINGS,CA,92262,33.822956,-116.508404,"3400 E. TAHQUITZ CANYON WAY  PALM SPRINGS, CA 92262",Original,232.0,,,Correct,"3400 E Tahquitz Canyon Way, Palm Springs, CA 92262, USA",33.8231465,-116.50661799999999,Active,CLEAN ENERGY,"3400 E Tahquitz Canyon Way, Palm Springs, CA 92262, USA",33.8231465,-116.506618,POINT (-116.506618 33.8231465),Yes,0.0,Agua Caliente,Agua Caliente Indian Reservation,,,From Original List,,,,,,3400 E TAHQUITZ CANYON WAY,PALM SPRINGS,CA,92262,,RIVERSIDE,201420910365,50/50 CLEAN ENERGY LLC,,,,,
233,CLUB LIQUORS,1109 S. PALM CANYON DR.,,PALM SPRINGS,CA,92264,33.807462,-116.545652,"1109 S. PALM CANYON DR.  PALM SPRINGS, CA 92264",Original,233.0,1.0,yes,Correct,Correct,Correct,Correct,Active,CLUB LIQUORS,"1109 S. PALM CANYON DR. PALM SPRINGS, CA 92264",33.807462,-116.545652,POINT (-116.545652 33.807462),Yes,0.0,Agua Caliente,Agua Caliente Indian Reservation,,,From Original List,,,,,,No changes,No changes,No changes,No changes,,RIVERSIDE,C0511711,"COUNTRY CLUB LIQUORS, INC.",,,,,
234,DESERT WINES SPIRITS AND GIFTS,611 S. PALM CANYON DR.  STE. 22,,PALM SPRINGS,CA,92264,33.813832,-116.545556,"611 S. PALM CANYON DR.  STE. 22  PALM SPRINGS, CA 92264",Original,234.0,1.0,yes,GO DELI MARKET,Correct,Correct,Correct,Active,GO DELI MARKET,"611 S. PALM CANYON DR.  STE. 22 PALM SPRINGS, CA 92264",33.813832,-116.545556,POINT (-116.545556 33.813832),No,0.002574364926987366,,,Agua Caliente,Agua Caliente Indian Reservation,From Original List,,,,,,No changes,No changes,No changes,No changes,,RIVERSIDE,,,,,,,
235,FRESH AND EASY,102 S. SUNRISE WAY,,PALM SPRINGS,CA,92262,33.822219,-116.52813,"102 S. SUNRISE WAY  PALM SPRINGS, CA 92262",Original,235.0,1.0,yes,Correct,Correct,Correct,Correct,Active,FRESH AND EASY,"102 S. SUNRISE WAY PALM SPRINGS, CA 92262",33.822219,-116.52813,POINT (-116.52813 33.822219),No,0.005809862251902811,,,Agua Caliente,Agua Caliente Indian Reservation,From Original List,,,,,,No changes,No changes,No changes,No changes,,RIVERSIDE,,,,,,,
238,MEDICINE SHOPPE,147 S. SUNRISE WAY,,PALM SPRINGS,CA,92262,33.821134,-116.52826499999999,"147 S. SUNRISE WAY  PALM SPRINGS, CA 92262",Original,238.0,,,Correct,"174 S Sunrise Way, Palm Springs, CA 92262, USA",33.821808000000004,-116.527624,Active,MEDICINE SHOPPE,"174 S Sunrise Way, Palm Springs, CA 92262, USA",33.821808000000004,-116.527624,POINT (-116.527624 33.821808),No,0.03871772813375885,,,Agua Caliente,Agua Caliente Indian Reservation,From Original List,,,,,,174 S SUNRISE WAY,PALM SPRINGS,CA,92262,,RIVERSIDE,C0683082,MEDICINE SHOPPE PHARMACY,,,,,
240,76 GAS STATION,166 N. SUNRISE WAY,,PALM SPRINGS,CA,92262,33.823479999999996,-116.528153,"166 N. SUNRISE WAY  PALM SPRINGS, CA 92262",Original,240.0,,,Correct,Correct,Correct,Correct,Active,76 GAS STATION,"166 N. SUNRISE WAY PALM SPRINGS, CA 92262",33.823479999999996,-116.528153,POINT (-116.528153 33.82348),No,0.004703336030864954,,,Agua Caliente,Agua Caliente Indian Reservation,From Original List,,,,,,No changes,No changes,No changes,No changes,,RIVERSIDE,201720810619,"GAS STATION 420, LLC",JASON WILSON,3500 VIA REAL CARPINTERIA CA 93013,CARPINTERIA,CA,93013
241,PMDL AND COMPANY  INC.,777 E. TAHQUITZ CANYON WAY #20042,,PALM SPRINGS,CA,92264,33.823023,-116.540057,"777 E. TAHQUITZ CANYON WAY #20042  PALM SPRINGS, CA 92264",Original,241.0,,,Correct,"777 E Tahqtz Cyn Way # 20042, Palm Springs, CA 92262, USA",33.822607,-116.540218,Active,PMDL AND COMPANY  INC.,"777 E Tahqtz Cyn Way # 20042, Palm Springs, CA 92262, USA",33.822607,-116.540218,POINT (-116.540218 33.822607),Yes,0.0,Agua Caliente,Agua Caliente Indian Reservation,,,From Original List,,,,,,777 E TAHQTZ CYN WAY # 20042,PALM SPRINGS,CA,92262,,RIVERSIDE,C2023958,"PMDL & COMPANY, INC.",PIERRE LEMIEUX,777 E TAHQUITZ CYN # 200-42 PALM SPRINGS CA 92262,PALM SPRINGS,CA,92262
242,RALPH'S PHARMACY,425 S. SUNRISE WAY,,PALM SPRINGS,CA,92262,33.816829999999996,-116.52831599999999,"425 S. SUNRISE WAY  PALM SPRINGS, CA 92262",Original,242.0,,,Correct,Correct,Correct,Correct,Active,RALPH'S PHARMACY,"425 S. SUNRISE WAY PALM SPRINGS, CA 92262",33.816829999999996,-116.52831599999999,POINT (-116.528316 33.81683),Yes,0.0,Agua Caliente,Agua Caliente Indian Reservation,,,From Original List,,,,,,No changes,No changes,No changes,No changes,,RIVERSIDE,C0787853,"RALPH'S PHARMACY, INC.",RALPH SWARTZ,2766 FORRESTER DR LOS ANGELES CA 90064,LOS ANGELES,CA,90064
244,SAVON PHARMACY,35935 DATE PALM DR.,,CATHEDRAL CITY,CA,92234,33.788163,-116.45813999999999,"35935 DATE PALM DR.  CATHEDRAL CITY, CA 92234",Original,244.0,1.0,maybe,IN-SHAPE,Correct,Correct,Correct,Active,IN-SHAPE,"35935 DATE PALM DR. CATHEDRAL CITY, CA 92234",33.788163,-116.45813999999999,POINT (-116.45814 33.788163),Yes,0.0,Agua Caliente,Agua Caliente Indian Reservation,,,From Original List,,,,,,No changes,No changes,No changes,No changes,,RIVERSIDE,200300710090,"INSHAPE, LLC.",JUSTIN BROWN,3133 FRONTERA WAY STE 103 BURLINGAME CA 94010,BURLINGAME,CA,94010
247,SPA RESORT CASINO,401 E. AMADO DR.,,PALM SPRINGS,CA,92262,33.826743,-116.542842,"401 E. AMADO DR.  PALM SPRINGS, CA 92262",Original,247.0,,,Correct,"401 E Amado Rd, Palm Springs, CA 92262, USA",33.82548999999999,-116.5427754,Active,SPA RESORT CASINO,"401 E Amado Rd, Palm Springs, CA 92262, USA",33.82548999999999,-116.5427754,POINT (-116.5427754 33.82548999999999),Yes,0.0,Agua Caliente,Agua Caliente Indian Reservation,,,From Original List,,,,,,401 E AMADO RD,PALM SPRINGS,CA,92262,,RIVERSIDE,,,,,,,
248,STATER BROS,69255 RAMON RD.,,CATHEDRAL CITY,CA,92234,33.815868,-116.456484,"69255 RAMON RD.  CATHEDRAL CITY, CA 92234",Original,248.0,,,STATER BROS. MARKETS,Correct,Correct,Correct,Active,STATER BROS. MARKETS,"69255 RAMON RD. CATHEDRAL CITY, CA 92234",33.815868,-116.456484,POINT (-116.456484 33.815868),Yes,0.0,Agua Caliente,Agua Caliente Indian Reservation,,,From Original List,,,,,,No changes,No changes,No changes,No changes,,RIVERSIDE,C0548527,STATER BROS. MARKETS,BRUCE D. VARNER,3750 UNIVERSITY AVE SUITE 610 RIVERSIDE CA 92501,RIVERSIDE,CA,92501
260,THE PLAY STATION 777,7 CASINO WAY,,BLUE LAKE,CA,95525,40.884471999999995,-123.997475,"7 CASINO WAY  BLUE LAKE, CA 95525",Original,260.0,,,Correct,"007 Casino Way, Blue Lake, CA 95525, USA",40.88406200000001,-123.99812549999999,Active,THE PLAY STATION 777,"007 Casino Way, Blue Lake, CA 95525, USA",40.88406200000001,-123.9981255,POINT (-123.9981255 40.88406200000001),Yes,0.0,Blue Lake,Blue Lake Rancheria,,,From Original List,,,,,,007 CASINO WAY,BLUE LAKE,CA,95525,,HUMBOLDT,,,,,,,
263,GEIGERS LONG VALLEY MARKET,44951 U.S. 101,,LAYTONVILLE,CA,95454,39.686969,-123.48231799999999,"44951 U.S. 101  LAYTONVILLE, CA 95454",Original,263.0,,,Correct,"44951 US-101, Laytonville, CA 95454, USA",39.687388,-123.48203899999999,Active,GEIGERS LONG VALLEY MARKET,"44951 US-101, Laytonville, CA 95454, USA",39.687388,-123.482039,POINT (-123.482039 39.687388),No,1.2380127076011695,,,Laytonville,Laytonville Rancheria,From Original List,,,,,,44951 US-101,LAYTONVILLE,CA,95454,,MENDOCINO,201827110139,GEIGER'S LONG VALLEY MARKET LLC,MICHAEL  BRAUGHT,44951 US HWY 101 LAYTONVILLE CA 95454,LAYTONVILLE,CA,95454
278,HUB LIQUOR,2118 WINTERHAVEN DR.,,WINTERHAVEN,CA,92283,32.738456,-114.634752,"2118 WINTERHAVEN DR.  WINTERHAVEN, CA 92283",Original,278.0,,,Correct,Correct,Correct,Correct,Closed,HUB LIQUOR,"2118 WINTERHAVEN DR. WINTERHAVEN, CA 92283",32.738456,-114.634752,POINT (-114.634752 32.738456),No,0.09971492377757234,,,Fort Yuma,Fort Yuma Indian Reservation,From Original List,,,,,,No changes,No changes,No changes,No changes,,IMPERIAL,C1854224,"HUB LIQUOR, INC.",GARY ALLEN JAMES,2118 WINTERHAVEN DR WINTERHAVEN CA 92283,WINTERHAVEN,CA,92283
302,UP SMOKE SHOP,1 KWAAYPAAY CRT.,,EL CAJON,CA,92019,32.790065999999996,-116.82813999999999,"1 KWAAYPAAY CRT.  EL CAJON, CA 92019",Original,302.0,1.0,yes,Correct,"1551 Magnolia Ave # 101, El Cajon, CA 92020, USA",32.81942999999999,-116.96166129999999,Active,UP SMOKE SHOP,"1551 Magnolia Ave # 101, El Cajon, CA 92020, USA",32.81942999999999,-116.9616613,POINT (-116.9616613 32.81942999999999),No,4.992831316038278,,,Sycuan,Sycuan Off-Reservation Trust Land,From Original List,,,,,,1551 MAGNOLIA AVE # 101,EL CAJON,CA,92020,,SAN DIEGO,C2611394,"29 SMOKE SHOP, INC.",ELIZABETH PRIETO,5494 MORONGO RD 29 PALMS CA 92277,PALMS,CA,92277
309,CHEVRON,349 PRESTON AVE.,,IONE,CA,95640,38.353983,-120.935676,"349 PRESTON AVE.  IONE, CA 95640",Original,309.0,,,Correct,Correct,Correct,Correct,Active,CHEVRON,"349 PRESTON AVE. IONE, CA 95640",38.353983,-120.935676,POINT (-120.935676 38.353983),No,13.028665281731904,,,Jackson,Jackson Rancheria,From Original List,,,,,,No changes,No changes,No changes,No changes,,AMADOR,C4067380,"11TH STREET CHEVRON, INC.",MUSSA M KAID,1294 DALTON ST TULARE CA 93274,TULARE,CA,93274
314,CONNOR CARDLOCK,63708 CA 96,,HAPPY CAMP,CA,96039,41.798308,-123.374696,"63708 CA 96  HAPPY CAMP, CA 96039",Original,314.0,,,Correct,"63708 CA-96, Happy Camp, CA 96039, USA",41.79937290000001,-123.3737095,Active,CONNOR CARDLOCK,"63708 CA-96, Happy Camp, CA 96039, USA",41.79937290000001,-123.3737095,POINT (-123.3737095 41.79937290000001),No,0.03111864499641323,,,Karuk,Karuk Off-Reservation Trust Land,From Original List,,,,,,63708 -96,HAPPY CAMP,CA,96039,,SISKIYOU,C3097535,"CONNOR CARDLOCK, INC.",DARRIN W MERCIER,409 W CENTER ST YREKA CA 96097,YREKA,CA,96097
339,EAGLE FEATHER TRADING POST,31071 HWY. 190,,PORTERVILLE,CA,93257,36.092185,-118.881556,"31071 HWY. 190  PORTERVILLE, CA 93257",Original,339.0,,,EAGLE FEATHER TRADING POST #1,Correct,Correct,Correct,Active,EAGLE FEATHER TRADING POST #1,"31071 HWY. 190 PORTERVILLE, CA 93257",36.092185,-118.881556,POINT (-118.881556 36.092185),Yes,0.0,Tule River,Tule River Off-Reservation Trust Land,,,From Original List,,,,,,No changes,No changes,No changes,No changes,,TULARE,C3420874,EAGLE FEATHER TRADING POST #2 INC.,FRED GRUND,780 YOWLUMNE AVE STE A PORTERVILLE CA 93257,PORTERVILLE,CA,93257
340,EAGLE FEATHER TRADING POST #2,40103 HWY. 33,,AVENAL,CA,93204,35.893459,-120.048702,"40103 HWY. 33  AVENAL, CA 93204",Original,340.0,,,Can't Validate,Can't Validate,Can't Validate,Can't Validate,Can't Validate,EAGLE FEATHER TRADING POST #2,"40103 HWY. 33 AVENAL, CA 93204",35.893459,-120.048702,POINT (-120.048702 35.893459),No,28.775735264439675,,,Santa Rosa,Santa Rosa Rancheria,From Original List,,,,,,No changes,No changes,No changes,No changes,,KINGS,C3420874,EAGLE FEATHER TRADING POST #2 INC.,FRED GRUND,780 YOWLUMNE AVE STE A PORTERVILLE CA 93257,PORTERVILLE,CA,93257
355,CIGARETTE PALACE L.P.,200 N G ST,,PORTERVILLE,CA,93257,36.069352,-119.022571,"200 N G ST  PORTERVILLE, CA 93257",Original,355.0,,,Can't Validate,Can't Validate,Can't Validate,Can't Validate,Can't Validate,CIGARETTE PALACE L.P.,"200 N G ST PORTERVILLE, CA 93257",36.069352,-119.022571,POINT (-119.022571 36.069352),No,9.126271234803436,,,Tule River,Tule River Off-Reservation Trust Land,From Original List,,,,,,No changes,No changes,No changes,No changes,,TULARE,200826900014,CIGARETTE PALACE L.P.,ANWER BALOCH,200 N G' ST PORTERVILLE CA 93257,PORTERVILLE,CA,93257
356,CIGARETTES & MORE 4 LESS,1751 ORO DAM BLVD W,,OROVILLE,CA,95965,39.498011,-121.603816,"1751 ORO DAM BLVD W  OROVILLE, CA 95965",Original,356.0,1.0,yes,Correct,"1124 Oro Dam Blvd E, Oroville, CA 95965, USA",39.5024552,-121.5621757,Active,CIGARETTES & MORE 4 LESS,"1124 Oro Dam Blvd E, Oroville, CA 95965, USA",39.5024552,-121.5621757,POINT (-121.5621757 39.5024552),No,3.047681070625988,,,Mooretown,Mooretown Off-Reservation Trust Land,From Original List,,,,,,1124 ORO DAM BLVD E,OROVILLE,CA,95965,,BUTTE,C3243157,CIGARETTES 4 LESS INC.,SULAIMAN GHANAIMEH,6277 BALL RD CYPRESS CA 90630,CYPRESS,CA,90630
360,INTERNATIONAL TOBACCO TRADING,1246 W MAIN ST STE 112,,EL CAJON,CA,92020,32.794993,-116.978902,"1246 W MAIN ST STE 112  EL CAJON, CA 92020",Original,360.0,,,Can't Validate,Can't Validate,Can't Validate,Can't Validate,Can't Validate,INTERNATIONAL TOBACCO TRADING,"1246 W MAIN ST STE 112 EL CAJON, CA 92020",32.794993,-116.978902,POINT (-116.978902 32.794993),No,5.632650262854768,,,Sycuan,Sycuan Off-Reservation Trust Land,From Original List,,,,,,No changes,No changes,No changes,No changes,,SAN DIEGO,C2512718,"INTERNATIONAL TOBACCO TRADING, INC.",ABIER KALASHO,1246 EAST MAIN ST # 112 EL CAJON CA 92021,EL CAJON,CA,92021
363,SMOKE EMPIRE,555 S SUNRISE WAY,SUITE 106,PALM SPRINGS,CA,92264,33.815942,-116.529398,"555 S SUNRISE WAY SUITE 106 PALM SPRINGS, CA 92264",Original,363.0,,,Correct,Correct,Correct,Correct,Active,SMOKE EMPIRE,"555 S SUNRISE WAY PALM SPRINGS, CA 92264",33.815942,-116.529398,POINT (-116.529398 33.815942),No,0.0013031020763415225,,,Agua Caliente,Agua Caliente Indian Reservation,From Original List,,,,,,No changes,No changes,No changes,No changes,,RIVERSIDE,,,,,,,
364,THE SPOT,41 MAIN ST,,JACKSON,CA,95642,38.348955,-120.77418999999999,"41 MAIN ST  JACKSON, CA 95642",Original,364.0,,,Correct,Correct,Correct,Correct,Active,THE SPOT,"41 MAIN ST JACKSON, CA 95642",38.348955,-120.77418999999999,POINT (-120.77419 38.348955),No,3.336877348411873,,,Jackson,Jackson Rancheria,From Original List,,,,,,No changes,No changes,No changes,No changes,,AMADOR,,,,,,,
365,THE TINDER BOX,147 DESERT WEST DR,,RANCHO MIRAGE,CA,92270,33.787969,-116.440261,"147 DESERT WEST DR  RANCHO MIRAGE, CA 92270",Original,365.0,,,Correct,"200 N Palm Canyon Dr, Palm Springs, CA 92262, USA",33.825035299999996,-116.5466614,Active,THE TINDER BOX,"200 N Palm Canyon Dr, Palm Springs, CA 92262, USA",33.8250353,-116.5466614,POINT (-116.5466614 33.8250353),No,0.07186644238694001,,,Agua Caliente,Agua Caliente Indian Reservation,From Original List,,,,,,200 N PALM CANYON DR,PALM SPRINGS,CA,92262,,RIVERSIDE,C0410696,"THE TINDER BOX INTERNATIONAL, LTD.",,,,,
368,BOB'S ONE STOP SHOP,44975 HWY 101,,LAYTONVILLE,CA,95454,39.687492999999996,-123.48293100000001,"44975 HWY 101  LAYTONVILLE, CA 95454",Original,368.0,,,Correct,"44975 US-101, Laytonville, CA 95454, USA",39.6876486,-123.4827949,Active,BOB'S ONE STOP SHOP,"44975 US-101, Laytonville, CA 95454, USA",39.6876486,-123.4827949,POINT (-123.4827949 39.6876486),No,1.218614609156227,,,Laytonville,Laytonville Rancheria,From Original List,,,,,,44975 US-101,LAYTONVILLE,CA,95454,,MENDOCINO,201706610521,"BOB'S ONE STOP SHOP, LLC",VINCENT SOTO,16430 MAIN ST GUERNEVILLE CA 95446,GUERNEVILLE,CA,95446
1932,,425 S SUNRISE WAY,,PALM SPRINGS,CA,92262,,,,,,,,,,,,Active,CVS PHARMACY,"425 S Sunrise Way, Palm Springs, CA, 92262",33.817565,-116.52860420000002,POINT (-116.5286042 33.817565),Yes,,Agua Caliente,Agua Caliente Indian Reservation,,,New Retailer,CVS Division 8,Woonsocket,RI,N,1785570.0,425 S SUNRISE WAY,PALM SPRINGS,CA,92262,,RIVERSIDE,C2543240,"CVS PHARMACY, INC.",,,,,
1954,,1717 E VISTA CHINO STE B2,,PALM SPRINGS,CA,92262,,,,,,,,,,,,Active,WHITE CROSS PHARMACY,"1717 E Vista Chino Ste B2, Palm Springs, CA, 92262",33.844852,-116.52793,POINT (-116.52793 33.844852),Yes,,Agua Caliente,Agua Caliente Indian Reservation,,,New Retailer,Independent,,,N,1799841.0,1717 E VISTA CHINO STE B2,PALM SPRINGS,CA,92262,,RIVERSIDE,C2830626,WHITE CROSS PHARMACY INC.,MART ROTH,1412 W. GLENOAKS BLVD. # E GLENDALE CA 91201,GLENDALE,CA,91201
1962,,440 S EL CIELO RD STE B1,,PALM SPRINGS,CA,92262,,,,,,,,,,,,Active,PALM LIQUOR & DELI,"440 S El Cielo Rd Ste B1, Palm Springs, CA, 92262",33.817944,-116.51066000000002,POINT (-116.51066 33.817944),Yes,,Agua Caliente,Agua Caliente Indian Reservation,,,New Retailer,Independent,,,N,697531.0,440 S EL CIELO RD STE B1,PALM SPRINGS,CA,92262,,RIVERSIDE,C4063688,"PALM LIQUOR & DELI, INC.",ABDULMASSIH DOURGHALLI,44345 MARIGOLD LN LA QUINTA CA 92253,LA QUINTA,CA,92253
1966,,3700 E VISTA CHINO STE G,,PALM SPRINGS,CA,92262,,,,,,,,,,,,Active,FIESTA MARKET,"3700 E Vista Chino Ste G, Palm Springs, CA, 92262",33.844933000000005,-116.50571399999998,POINT (-116.505714 33.844933),Yes,,Agua Caliente,Agua Caliente Indian Reservation,,,New Retailer,Independent,,,N,672622.0,3700 E VISTA CHINO STE G,PALM SPRINGS,CA,92262,,RIVERSIDE,C1031491,"FIESTA MARKET, INC.",DENNIS M WILKIN,452 N LOS ROBLES PASADENA CA 91101,PASADENA,CA,91101
1970,,111 S SUNRISE WAY,,PALM SPRINGS,CA,92262,,,,,,,,,,,,Active,RITE AID,"111 S Sunrise Way, Palm Springs, CA, 92262",33.822515100000004,-116.528861,POINT (-116.528861 33.8225151),Yes,,Agua Caliente,Agua Caliente Indian Reservation,,,New Retailer,Rite Aid Western Region 42,Rancho Cordova,CA,N,3888584.0,111 S SUNRISE WAY,PALM SPRINGS,CA,92262,,RIVERSIDE,,,,,,,
1972,,69155 RAMON RD,,CATHEDRAL CITY,CA,92234,,,,,,,,,,,,Active,RITE AID,"69155 Ramon Rd, Cathedral City, CA, 92234",33.8136324,-116.4567324,POINT (-116.4567324 33.8136324),Yes,,Agua Caliente,Agua Caliente Indian Reservation,,,New Retailer,Rite Aid Western Region 42,Rancho Cordova,CA,N,500241.0,69155 RAMON RD,CATHEDRAL CITY,CA,92234,,RIVERSIDE,,,,,,,
1977,,68010 VISTA CHINO,,CATHEDRAL CITY,CA,92234,,,,,,,,,,,,Active,CVS PHARMACY,"68010 Vista Chino, Cathedral City, CA, 92234",33.8456404,-116.4753097,POINT (-116.4753097 33.8456404),Yes,,Agua Caliente,Agua Caliente Indian Reservation,,,New Retailer,CVS Division 8,Woonsocket,RI,N,2078037.0,68010 VISTA CHINO,CATHEDRAL CITY,CA,92234,,RIVERSIDE,C2543240,"CVS PHARMACY, INC.",,,,,
2009,,69185 RAMON RD,,CATHEDRAL CITY,CA,92234,,,,,,,,,,,,Active,SMOKE SHOP,"69185 Ramon Rd, Cathedral City, CA, 92234",33.8139469,-116.4560114,POINT (-116.4560114 33.8139469),Yes,,Agua Caliente,Agua Caliente Indian Reservation,,,New Retailer,Independent,,,N,7377281.0,69185 RAMON RD,CATHEDRAL CITY,CA,92234,,RIVERSIDE,C2611394,"29 SMOKE SHOP, INC.",ELIZABETH PRIETO,5494 MORONGO RD 29 PALMS CA 92277,PALMS,CA,92277
2032,,1717 E VISTA CHINO STE A6,,PALM SPRINGS,CA,92262,,,,,,,,,,,,Active,TOBACCO DISCOUNT,"1717 E Vista Chino Ste A6, Palm Springs, CA, 92262",33.844852,-116.52793,POINT (-116.52793 33.844852),Yes,,Agua Caliente,Agua Caliente Indian Reservation,,,New Retailer,Independent,,,N,1450492.0,1717 E VISTA CHINO STE A6,PALM SPRINGS,CA,92262,,RIVERSIDE,C2023444,"DISCOUNT TOBACCO, INC.",ANNE LIEU,7951 GARVEY AVE ROSEMEAD CA 91770,ROSEMEAD,CA,91770
2043,,34151 DATE PALM DR STE H,,CATHEDRAL CITY,CA,92234,,,,,,,,,,,,Active,TOBACCO FOR LESS,"34151 Date Palm Dr Ste H, Cathedral City, CA, 92234",33.80024,-116.45805,POINT (-116.45805 33.80024),Yes,,Agua Caliente,Agua Caliente Indian Reservation,,,New Retailer,Independent,,,N,1526222.0,34151 DATE PALM DR STE H,CATHEDRAL CITY,CA,92234,,RIVERSIDE,C2388236,"TOBACCO 4 LESS, INC.",HAROUN E HANNA,1399 N CITRUS AVE COVINA CA 91722,COVINA,CA,91722
2101,,34251 DATE PALM DR,,CATHEDRAL CITY,CA,92234,,,,,,,,,,,,Active,FOOD 4 LESS,"34251 Date Palm Dr, Cathedral City, CA, 92234",33.79963,-116.45806,POINT (-116.45806 33.79963),Yes,,Agua Caliente,Agua Caliente Indian Reservation,,,New Retailer,Food 4 Less,Compton,CA,N,423970.0,34251 DATE PALM DR,CATHEDRAL CITY,CA,92234,,RIVERSIDE,,,,,,,
2103,,611 S PALM CANYON DR,,PALM SPRINGS,CA,92264,,,,,,,,,,,,Active,GO DELI MARKET,"611 S Palm Canyon Dr, Palm Springs, CA, 92264",33.80135300000001,-116.54109,POINT (-116.54109 33.80135300000001),Yes,,Agua Caliente,Agua Caliente Indian Reservation,,,New Retailer,Independent,,,N,7346693.0,611 S PALM CANYON DR,PALM SPRINGS,CA,92264,,RIVERSIDE,,,,,,,
2112,,1751 N SUNRISE WAY STE 1,,PALM SPRINGS,CA,92262,,,,,,,,,,,,Active,ALBERTSONS,"1751 N Sunrise Way Ste 1, Palm Springs, CA, 92262",33.845314,-116.52819,POINT (-116.52819 33.845314),Yes,,Agua Caliente,Agua Caliente Indian Reservation,,,New Retailer,Albertsons Safeway/South CA Div,Fullerton,CA,N,880960.0,1751 N SUNRISE WAY STE 1,PALM SPRINGS,CA,92262,,RIVERSIDE,C0473949,"ALBERTSON'S, INC.",,,,,
2137,,34021 DATE PALM DR,,CATHEDRAL CITY,CA,92234,,,,,,,,,,,,Active,MARKET PLACE,"34021 Date Palm Dr, Cathedral City, CA, 92234",33.80103,-116.45805,POINT (-116.45805 33.80103),Yes,,Agua Caliente,Agua Caliente Indian Reservation,,,New Retailer,Independent,,,N,704766.0,34021 DATE PALM DR,CATHEDRAL CITY,CA,92234,,RIVERSIDE,199901910099,"1066 MARKET, LLC",,,,,
2141,,3920 SHINGLE SPRINGS DR,,SHINGLE SPRINGS,CA,95682,,,,,,,,,,,,Active,EXPRESS MART,"3920 Shingle Springs Dr, Shingle Springs, CA, 95682",38.676743,-120.91365,POINT (-120.91365 38.676743),Yes,,Shingle Springs,Shingle Springs Off-Reservation Trust Land,,,New Retailer,Independent,,,N,7568265.0,3920  DR,SHINGLE SPRINGS,CA,95682,,EL DORADO,C0926428,"EXPRESS MART, INC.",THOMAS A COMPTON,151 W MCKNIGHT WAY STE G GRASS VALLEY CA 95949,GRASS VALLEY,CA,95949
2142,,35472 DATE PALM DR,,CATHEDRAL CITY,CA,92234,,,,,,,,,,,,Active,CIRCLE K,"35472 Date Palm Dr, Cathedral City, CA, 92234",33.79333,-116.45808,POINT (-116.45808 33.79333),Yes,,Agua Caliente,Agua Caliente Indian Reservation,,,New Retailer,Independent,,,Y,119573.0,35472 DATE PALM DR,CATHEDRAL CITY,CA,92234,,RIVERSIDE,201305210224,K CIRCLE LLC,,,,,
2147,,1717 E VISTA CHINO,,PALM SPRINGS,CA,92262,,,,,,,,,,,,Active,AMPM,"1717 E Vista Chino, Palm Springs, CA, 92262",33.844852,-116.52793,POINT (-116.52793 33.844852),Yes,,Agua Caliente,Agua Caliente Indian Reservation,,,New Retailer,Independent,,,Y,848912.0,1717 E VISTA,"CHINO, PALM SPRINGS",CA,92262,,RIVERSIDE,200334410075,"AM/PM HOME CARE, LLC",JUANITA MARIA WALSH,2890 POPLAR MEADOW LN JAMUL CA 91935,JAMUL,CA,91935
2173,,67990 E PALM CANYON DR,,CATHEDRAL CITY,CA,92234,,,,,,,,,,,,Active,7 ELEVEN,"67990 E Palm Canyon Dr, Cathedral City, CA, 92234",33.784859999999995,-116.47618,POINT (-116.47618 33.78485999999999),Yes,,Agua Caliente,Agua Caliente Indian Reservation,,,New Retailer,7 Eleven Inc/South West,Irving,TX,Y,3834749.0,67990 E PALM CANYON DR,CATHEDRAL CITY,CA,92234,,RIVERSIDE,200526510022,"43 ELEVEN, LLC",BRIAN COHEE,4935 MC CONNELL AVE # 9 LOS ANGELES CA 90066,LOS ANGELES,CA,90066
2346,,5200 E RAMON RD STE J1,,PALM SPRINGS,CA,92264,,,,,,,,,,,,Active,DOLLAR TREE,"5200 E Ramon Rd Ste J1, Palm Springs, CA, 92264",33.81590300000001,-116.506065,POINT (-116.506065 33.81590300000001),Yes,,Agua Caliente,Agua Caliente Indian Reservation,,,New Retailer,Dollar Tree/HQ,Chesapeake,VA,N,7603661.0,5200 E RAMON RD STE J1,PALM SPRINGS,CA,92264,,RIVERSIDE,201900110379,DOLLAR TREE HOUSE LLC,CRISTIAN DEL TORO,17325 CHATSWORTH ST LOS ANGELES CA 91344,LOS ANGELES,CA,91344
2374,,1717 E VISTA CHINO BLDG J,,PALM SPRINGS,CA,92262,,,,,,,,,,,,Active,DOLLAR TREE,"1717 E Vista Chino Bldg J, Palm Springs, CA, 92262",33.844852,-116.52793,POINT (-116.52793 33.844852),Yes,,Agua Caliente,Agua Caliente Indian Reservation,,,New Retailer,Dollar Tree/HQ,Chesapeake,VA,N,2626697.0,1717 E VISTA CHINO BLDG J,PALM SPRINGS,CA,92262,,RIVERSIDE,201900110379,DOLLAR TREE HOUSE LLC,CRISTIAN DEL TORO,17325 CHATSWORTH ST LOS ANGELES CA 91344,LOS ANGELES,CA,91344
2387,,69026 E PALM CANYON DR,,CATHEDRAL CITY,CA,92234,,,,,,,,,,,,Active,BIG LOTS,"69026 E Palm Canyon Dr, Cathedral City, CA, 92234",33.7773,-116.45654,POINT (-116.45654 33.7773),Yes,,Agua Caliente,Agua Caliente Indian Reservation,,,New Retailer,Big Lots Inc,Westerville,OH,N,697924.0,69026 E PALM CANYON DR,CATHEDRAL CITY,CA,92234,,RIVERSIDE,,,,,,,
2395,,220 E ARENAS RD,,PALM SPRINGS,CA,92262,,,,,,,,,,,,Active,STACYS AT PALM SPRINGS,"220 E Arenas Rd, Palm Springs, CA, 92262",33.8213845,-116.5447605,POINT (-116.5447605 33.8213845),Yes,,Agua Caliente,Agua Caliente Indian Reservation,,,New Retailer,Independent,,,N,7559139.0,220 E ARENAS RD,PALM SPRINGS,CA,92262,,RIVERSIDE,,,,,,,
2419,,216 S INDIAN CANYON DR,,PALM SPRINGS,CA,92262,,,,,,,,,,,,Active,CHILL LOUNGE,"216 S Indian Canyon Dr, Palm Springs, CA, 92262",33.8210044,-116.5450413,POINT (-116.5450413 33.8210044),Yes,,Agua Caliente,Agua Caliente Indian Reservation,,,New Retailer,Independent,,,N,3877420.0,216 S INDIAN CANYON DR,PALM SPRINGS,CA,92262,,RIVERSIDE,,,,,,,
2437,,301 E ARENAS RD,,PALM SPRINGS,CA,92262,,,,,,,,,,,,Active,SCORE THE GAME BAR,"301 E Arenas Rd, Palm Springs, CA, 92262",33.821031,-116.544425,POINT (-116.544425 33.821031),Yes,,Agua Caliente,Agua Caliente Indian Reservation,,,New Retailer,Independent,,,N,5236166.0,301 E ARENAS RD,PALM SPRINGS,CA,92262,,RIVERSIDE,,,,,,,
2440,,217 E ARENAS RD,,PALM SPRINGS,CA,92262,,,,,,,,,,,,Active,CHILL BAR,"217 E Arenas Rd, Palm Springs, CA, 92262",33.821033,-116.5448791,POINT (-116.5448791 33.821033),Yes,,Agua Caliente,Agua Caliente Indian Reservation,,,New Retailer,Independent,,,N,7586494.0,217 E ARENAS RD,PALM SPRINGS,CA,92262,,RIVERSIDE,201503110046,BAR CHILL LLC,ROBERT STEPIC,5233 LA JOLLA BLVD LA JOLLA CA 92037,LA JOLLA,CA,92037
2469,,244 E AMADO RD,,PALM SPRINGS,CA,92262,,,,,,,,,,,,Active,COPA ROOM,"244 E Amado Rd, Palm Springs, CA, 92262",33.826756,-116.54472,POINT (-116.54472 33.826756),Yes,,Agua Caliente,Agua Caliente Indian Reservation,,,New Retailer,Independent,,,N,7291262.0,244 E AMADO RD,PALM SPRINGS,CA,92262,,RIVERSIDE,200815610026,"COPA ROOM, LLC",CHRIS BREED,1666 1/2 MCCADDEN HOLLYWOOD CA 90028,MCCADDEN HOLLYWOOD,CA,90028
2475,,302 E ARENAS RD,,PALM SPRINGS,CA,92262,,,,,,,,,,,,Active,HUNTERS VIDEO BAR,"302 E Arenas Rd, Palm Springs, CA, 92262",33.821220000000004,-116.54461,POINT (-116.54461 33.82122),Yes,,Agua Caliente,Agua Caliente Indian Reservation,,,New Retailer,Independent,,,N,5233824.0,302 E ARENAS RD,PALM SPRINGS,CA,92262,,RIVERSIDE,,,,,,,
2495,,36200 DATE PALM DR,,CATHEDRAL CITY,CA,92234,,,,,,,,,,,,Active,DATE PALM COUNTRY CLUB,"36200 Date Palm Dr, Cathedral City, CA, 92234",33.789970000000004,-116.45811,POINT (-116.45811 33.78997),Yes,,Agua Caliente,Agua Caliente Indian Reservation,,,New Retailer,Independent,,,N,5512110.0,36200 DATE PALM DR,CATHEDRAL CITY,CA,92234,,RIVERSIDE,,,,,,,
2501,,2700 E MESQUITE AVE,,PALM SPRINGS,CA,92264,,,,,,,,,,,,Active,MESQUITE GOLF,"2700 E Mesquite Ave, Palm Springs, CA, 92264",33.808662,-116.516106,POINT (-116.516106 33.808662),Yes,,Agua Caliente,Agua Caliente Indian Reservation,,,New Retailer,Independent,,,N,5250925.0,2700 E MESQUITE AVE,PALM SPRINGS,CA,92264,,RIVERSIDE,,,,,,,
2516,,1545 E STATE HWY 20,,NICE,CA,95464,,,,,,,,,,,,Active,R BAR,"1545 E State Hwy 20, Nice, CA, 95464",39.1404653,-122.8841634,POINT (-122.8841634 39.1404653),Yes,,Robinson,Robinson Rancheria,,,New Retailer,Independent,,,N,2456666.0,1545 E STATE HWY 20,NICE,CA,95464,,LAKE,,,,,,,
2518,,1849 S EL CIELO RD,,PALM SPRINGS,CA,92264,,,,,,,,,,,,Active,LOS COMPADRES,"1849 S El Cielo Rd, Palm Springs, CA, 92264",33.802822,-116.51069,POINT (-116.51069 33.802822),Yes,,Agua Caliente,Agua Caliente Indian Reservation,,,New Retailer,Independent,,,N,5247717.0,1849 S EL CIELO RD,PALM SPRINGS,CA,92264,,RIVERSIDE,C0194718,LOS COMPADRES,GARY CHANEY,23-435 BISNAGE AVE PALM SPRINGS CA 92264,PALM SPRINGS,CA,92264
2534,,68311 PASEO REAL,,CATHEDRAL CITY,CA,92234,,,,,,,,,,,,Active,CATHEDRAL CANYON GOLF CLUB,"68311 Paseo Real, Cathedral City, CA, 92234",33.794838,-116.4694,POINT (-116.4694 33.794838),Yes,,Agua Caliente,Agua Caliente Indian Reservation,,,New Retailer,Independent,,,N,1580354.0,68311 PASEO REAL,CATHEDRAL CITY,CA,92234,,RIVERSIDE,,,,,,,
2536,,4100 E SEVEN LAKES DR,,PALM SPRINGS,CA,92264,,,,,,,,,,,,Active,7 LAKES COUNTRY CLUB,"4100 E Seven Lakes Dr, Palm Springs, CA, 92264",33.797752,-116.50141,POINT (-116.50141 33.797752),Yes,,Agua Caliente,Agua Caliente Indian Reservation,,,New Retailer,Independent,,,N,5240911.0,4100 E SEVEN LAKES DR,PALM SPRINGS,CA,92264,,RIVERSIDE,,,,,,,
2538,,28555 LANDAU BLVD,,CATHEDRAL CITY,CA,92234,,,,,,,,,,,,Active,DESERT PRINCESS,"28555 Landau Blvd, Cathedral City, CA, 92234",33.841377,-116.47583,POINT (-116.47583 33.841377),Yes,,Agua Caliente,Agua Caliente Indian Reservation,,,New Retailer,Independent,,,N,5240922.0,28555 LANDAU BLVD,CATHEDRAL CITY,CA,92234,,RIVERSIDE,,,,,,,
2540,,34600 MISSION HILLS DR,,RANCHO MIRAGE,CA,92270,,,,,,,,,,,,Active,MISSION HILLS COUNTRY CLUB,"34600 Mission Hills Dr, Rancho Mirage, CA, 92270",33.79622,-116.43553,POINT (-116.43553 33.79622),Yes,,Agua Caliente,Agua Caliente Indian Reservation,,,New Retailer,Clubcorp USA Inc,Dallas,TX,N,5240407.0,34600 MISSION HILLS DR,RANCHO MIRAGE,CA,92270,,RIVERSIDE,C1866226,"MISSION HILLS COUNTRY CLUB, INC.",,,,,
2598,,33700 DATE PALM DR,,CATHEDRAL CITY,CA,92234,,,,,,,,,,,,Active,BIG LEAGUE DREAMS,"33700 Date Palm Dr, Cathedral City, CA, 92234",33.806038,-116.45802,POINT (-116.45802 33.806038),Yes,,Agua Caliente,Agua Caliente Indian Reservation,,,New Retailer,Independent,,,N,5251079.0,33700 DATE PALM DR,CATHEDRAL CITY,CA,92234,,RIVERSIDE,,,,,,,
2678,,49968 HARRISON ST,,COACHELLA,CA,92236,,,,,,,,,,,,Active,VICTORY LIQUOR,"49968 Harrison St, Coachella, CA, 92236",33.685707,-116.1815,POINT (-116.1815 33.685707),Yes,,Cabazon,Cabazon Reservation,,,New Retailer,Independent,,,N,1399997.0,49968 HARRISON ST,COACHELLA,CA,92236,,RIVERSIDE,,,,,,,
2843,,19380 TUOLUMNE RD N,,TUOLUMNE,CA,95379,,,,,,,,,,,,Active,BEAR CREEK,"19380 Tuolumne Rd N, Tuolumne, CA, 95379",37.9712768,-120.239033,POINT (-120.239033 37.9712768),Yes,,Tuolumne,Tuolumne Rancheria,,,New Retailer,Independent,,,N,3950781.0,19380  RD N,TUOLUMNE,CA,95379,,TUOLUMNE,201320610143,"2063 BEAR CREEK, LLC",DAVID COHEN,455 N WHISMAN RD STE 100 MOUNTAIN VIEW CA 94043,MOUNTAIN VIEW,CA,94043
2855,,150435 RIO VISTA DR,,EARP,CA,92242,,,,,,,,,,,,Active,GREEN MART,"150435 Rio Vista Dr, Earp, CA, 92242",34.128595000000004,-114.3689388,POINT (-114.3689388 34.128595),Yes,,Colorado River,Colorado River Indian Reservation,,,New Retailer,Independent,,,N,3611539.0,150435 RIO VISTA DR,EARP,CA,92242,,SAN BERNARDINO,C3146216,"GREEN RIVER MART, INC.",CHUL HYO PARK,15627 PALOMONO DR CHINO HILLS CA 91709,CHINO HILLS,CA,91709
2857,,33740 VALLEY CENTER RD,,VALLEY CENTER,CA,92082,,,,,,,,,,,,Active,7 ELEVEN,"33740 Valley Center Rd, Valley Center, CA, 92082",33.26443,-116.9539,POINT (-116.9539 33.26443),Yes,,Rincon,Rincon Reservation,,,New Retailer,7 Eleven Inc/South West,Irving,TX,Y,7003852.0,33740  RD,VALLEY CENTER,CA,92082,,SAN DIEGO,200526510022,"43 ELEVEN, LLC",BRIAN COHEE,4935 MC CONNELL AVE # 9 LOS ANGELES CA 90066,LOS ANGELES,CA,90066
2870,,2635 BARHAM AVE,,CORNING,CA,96021,,,,,,,,,,,,Active,CHEVRON,"2635 Barham Ave, Corning, CA, 96021",39.875286,-122.20064,POINT (-122.20064 39.875286),Yes,,Paskenta,Paskenta Rancheria,,,New Retailer,Mountain Counties Supply Co,Redding,CA,Y,2033164.0,2635 BARHAM AVE,CORNING,CA,96021,,TEHAMA,C4067380,"11TH STREET CHEVRON, INC.",MUSSA M KAID,1294 DALTON ST TULARE CA 93274,TULARE,CA,93274
2872,,84051 INDIO BLVD,,INDIO,CA,92201,,,,,,,,,,,,Active,ONE STOP SHOPPE,"84051 Indio Blvd, Indio, CA, 92201",33.707157,-116.19777,POINT (-116.19777 33.707157),Yes,,Cabazon,Cabazon Reservation,,,New Retailer,Independent,,,N,647034.0,84051  BLVD,INDIO,CA,92201,,FCC API ERROR,C3520458,"ONE STOP SHOPPE, INC.",JONATHAN CHASE PINNEY,558 LAKEVIEW DR BRENTWOOD CA 94513,BRENTWOOD,CA,94513
3044,,49976 HARRISON ST,,COACHELLA,CA,92236,,,,,,,,,,,,Active,DOLLAR TREE,"49976 Harrison St, Coachella, CA, 92236",33.68569,-116.1815,POINT (-116.1815 33.68569),Yes,,Cabazon,Cabazon Reservation,,,New Retailer,Dollar Tree/HQ,Chesapeake,VA,N,771714.0,49976 HARRISON ST,COACHELLA,CA,92236,,RIVERSIDE,201900110379,DOLLAR TREE HOUSE LLC,CRISTIAN DEL TORO,17325 CHATSWORTH ST LOS ANGELES CA 91344,LOS ANGELES,CA,91344
3116,,45000 PECHANGA PKWY,,TEMECULA,CA,92592,,,,,,,,,,,,Active,ROUND BAR,"45000 Pechanga Pkwy, Temecula, CA, 92592",33.4560541,-117.1067437,POINT (-117.1067437 33.4560541),Yes,,Pechanga,Pechanga Reservation,,,New Retailer,Independent,,,N,2455013.0,45000 PECHANGA PKWY,TEMECULA,CA,92592,,RIVERSIDE,,,,,,,
3166,,4100 STATE HIGHWAY 169,,KLAMATH,CA,95548,,,,,,,,,,,,Active,CRIVELLIS,"4100 State Highway 169, Klamath, CA, 95548",41.519314,-123.99176,POINT (-123.99176 41.519314),Yes,,Yurok,Yurok Reservation,,,New Retailer,Independent,,,N,5243715.0,4100 STATE HIGHWAY 169,KLAMATH,CA,95548,,DEL NORTE,C3803583,"CRIVELLI'S, INC.",LUCIA CRIVELLI,16625 E. BENBOW ST COVINA CA 91722,COVINA,CA,91722
3219,,150624 26 DEL REY,,EARP,CA,92242,,,,,,,,,,,,Active,AMERICAN LEGION,"150624 26 Del Rey, Earp, CA, 92242",34.1266608,-114.365016,POINT (-114.365016 34.1266608),Yes,,Colorado River,Colorado River Indian Reservation,,,New Retailer,Independent,,,Y,5241983.0,150624 26 DEL REY,EARP,CA,92242,,SAN BERNARDINO,,,,,,,
3257,,156 KLAMATH BLVD,,KLAMATH,CA,95548,,,,,,,,,,,,Active,THE COUNTRY CLUB,"156 Klamath Blvd, Klamath, CA, 95548",41.531063,-124.03906,POINT (-124.03906 41.531063),Yes,,Yurok,Yurok Reservation,,,New Retailer,Independent,,,N,5238065.0,156  BLVD,KLAMATH,CA,95548,,DEL NORTE,201904410218,2108 COUNTRY CLUB LLC,MICHAEL FORMAN,2000 DURANT AVE # 117 BERKLELEY CA 94704,BERKLELEY,CA,94704
3287,,777 HARRAHS RINCON WAY,,VALLEY CENTER,CA,92082,,,,,,,,,,,,Active,HARRAHS,"777 Harrahs Rincon Way, Valley Center, CA, 92082",33.267594,-116.95543870000002,POINT (-116.9554387 33.267594),Yes,,Rincon,Rincon Reservation,,,New Retailer,Caesars Entertainment/Recreation,Las Vegas,NV,N,5544910.0,777 HARRAHS RINCON WAY,VALLEY CENTER,CA,92082,,SAN DIEGO,C0877359,"HARRAH'S MANAGEMENT, INC.",MICHAEL F HARRAH,2720 GRETTA LN ANAHEIM CA 92806,ANAHEIM,CA,92806
