IMPAQ_ID,Filing Number,Entity Name,Entity Mailing Address,Entity Store Address,Entity Address,Agent Name,Agent Address,Operation Status
180,C3417083,AZTLAN CASINO RESORT AND SPA,6551 FRY ST  BELL GARDENS CA 90201,,6551 FRY ST  BELL GARDENS CA 90201,ROBERTO VALENZUELA,6551 FRY ST BELL GARDENS CA 90201,FTB SUSPENDED
182,C0503189,SOUTH PALM CANYON LIQUOR CORPORATION,1400 S. PALM CANYON DR.  PALM SPRINGS CA,,1400 S. PALM CANYON DR.  PALM SPRINGS CA,,,DISSOLVED
183,C4097211,CLUB LIQUOR & MARKET INC,1109 S PALM CANYON DR  PALM SPRINGS CA 92264,1109 S PALM CANYON DR  PALM SPRINGS CA 92264,1109 S PALM CANYON DR  PALM SPRINGS CA 92264,GEORGE ZAKOUR,1109 S PALM CANYON DR PALM SPRINGS CA 92264,ACTIVE
183,C3591100,"COUNTRY CLUB DELI & LIQUOR, INC.",3737 COLUMBUS ST  BAKERSFIELD CA 93306,3737 COLUMBUS ST  BAKERSFIELD CA 93306,3737 COLUMBUS ST  BAKERSFIELD CA 93306,ELIAS HANNA,3737 COLUMBUS ST BAKERSFIELD CA 93306,ACTIVE
183,C3266107,"COUNTRY CLUB LIQUOR, INC.",10975 VANALDEN AVE  NORTHRIDGE CA 91326,10975 VANALDEN AVE  NORTHRIDGE CA 91326,10975 VANALDEN AVE  NORTHRIDGE CA 91326,HASSAN MUBARA,21900 BURBANK BLVD #112 WOODLAND HILLS CA 91367,ACTIVE
183,C2199437,"L & F COUNTRY CLUB LIQUOR, INC.",300 E LASTUNAS DR  SAN GABRIEL CA 91776,300 E LASTUNAS DR  SAN GABRIEL CA 91776,300 E LASTUNAS DR  SAN GABRIEL CA 91776,TAMARA RAD,2932 STONEHILL DR ALTADENA CA 91001,SOS/FTB SUSPENDED
183,C2628089,"MARINES CLUB LIQUOR & DELI, INC.",615 SUTTER STREET  SAN FRANCISCIO CA 94102,615 SUTTER STREET  SAN FRANCISCIO CA 94102,615 SUTTER STREET  SAN FRANCISCIO CA 94102,OSAMA HABASH,615 SUTTER STREET SAN FRANCISCO CA 94102,DISSOLVED
183,C0503177,WELTY'S COUNTRY CLUB MARKET AND LIQUOR,42405 WASHINGTON  PALM DESERT CA 92260,,42405 WASHINGTON  PALM DESERT CA 92260,STEVE WELTY,42405 WASHINGTON PALM DESERT CA 92266,DISSOLVED
185,C2002780,"MEXICAN AMERICAN NATIVE AMERICAN TOBACCO COMPANY, INC.",8250 MCNELLY RD  BENTONVILLE AR 72712,8250 MCNELLY RD  BENTONVILLE AR 72712,8250 MCNELLY RD  BENTONVILLE AR 72712,,,SOS/FTB FORFEITED
185,200236410063,"ALL NATIVE TOBACCO AND SPECIALITY STORE, LLC",,251 JEANELL #3  CARSON CITY NV 89701,251 JEANELL #3  CARSON CITY NV 89701,DONNA PACKINGHAM,69-195 RAMON ROAD C-1 CATHEDRAL CITY CA 92234,FTB FORFEITED
187,200815110172,"LA CHICANITA MARKET, LLC",,88740 70TH AVE  THERMAL CA 92274,88740 70TH AVE  THERMAL CA 92274,,,CANCELED
189,C1854224,"HUB LIQUOR, INC.",2118 WINTERHAVEN DRIVE  WINTERHAVEN CA 92283,2118 WINTERHAVEN DRIVE  WINTERHAVEN CA 92283,2118 WINTERHAVEN DRIVE  WINTERHAVEN CA 92283,GARY ALLEN JAMES,2118 WINTERHAVEN DRIVE WINTERHAVEN CA 92283,DISSOLVED
189,C3625835,"HUB LIQUOR, INC.",1542 SAN FERNANDO RD  SAN FERNANDO CA 91340,1542 SAN FERNANDO RD  SAN FERNANDO CA 91340,1542 SAN FERNANDO RD  SAN FERNANDO CA 91340,FAYAD TAKLA,1542 SAN FERNANDO RD SAN FERNANDO CA 91340,ACTIVE
206,C3165684,IONE PLAZA MARKET INC.,8924 FAIR OAKS BLVD  CARMICHAEL CA 95608,8924 FAIR OAKS BLVD  CARMICHAEL CA 95608,8924 FAIR OAKS BLVD  CARMICHAEL CA 95608,FRED AZARABADI,8924 FAIR OAKS BLVD CARMICHAEL CA 95608,ACTIVE
212,C2170876,WIN RIVER MINI MART CORPORATION,2000 REDDING RANCHERIA RD  REDDING CA 96001,2415 S BONNEYVIEW DR  REDDING CA 96001,2415 S BONNEYVIEW DR  REDDING CA 96001,NEAL MALMESTEN,2000 REDDING RANCHERIA RD REDDING CA 96001,ACTIVE
216,C3420874,EAGLE FEATHER TRADING POST #2 INC.,40103 HIGHWAY 33  KETTLEMAN CITY CA 93239,,40103 HIGHWAY 33  KETTLEMAN CITY CA 93239,FRED GRUND,780 YOWLUMNE AVE STE A PORTERVILLE CA 93257,DISSOLVED
221,C2725075,"COYOTE VALLEY ALLIANCE, INC.",95 S MARKET ST THIRD FL  SAN JOSE CA 95113,95 S MARKET ST THIRD FL  SAN JOSE CA 95113,95 S MARKET ST THIRD FL  SAN JOSE CA 95113,RANDY O WRIGHT,95 S MARKET ST THIRD FL SAN JOSE CA 95113,DISSOLVED
221,C2643690,"COYOTE VALLEY BIBLE FELLOWSHIP, INC.",19139 HIDDEN VALLEY ROAD  HIDDEN VALLEY LAKE CA 95467,19139 HIDDEN VALLEY ROAD  HIDDEN VALLEY LAKE CA 95467,19139 HIDDEN VALLEY ROAD  HIDDEN VALLEY LAKE CA 95467,KENNETH D. PHILLIPS,19139 HIDDEN VALLEY ROAD HIDDEN VALLEY LAKE CA 95467,DISSOLVED
221,C2727090,"COYOTE VALLEY CONSTRUCTION, INC.",18595 DEER HOLLOW RD  HIDDEN VALLEY LAKE CA 95467,18595 DEER HOLLOW RD  HIDDEN VALLEY LAKE CA 95467,18595 DEER HOLLOW RD  HIDDEN VALLEY LAKE CA 95467,MICHAEL H SAND,18595 DEER HOLLOW RD HIDDEN VALLEY LAKE CA 95467,DISSOLVED
221,C1644732,"COYOTE VALLEY DEVELOPMENT, INCORPORATED",P.O. BOX 7  MIDDLETOWN CA 95461,19953 HONEY HILL DRIVE  MIDDLETOWN CA 95461,19953 HONEY HILL DRIVE  MIDDLETOWN CA 95461,RICHARD P WOLFF,19953 HONEY HILL DRIVE MIDDLETOWN CA 95461,DISSOLVED
221,C2245597,"COYOTE VALLEY ELECTRIC, INC.",5542 MONTERY RD 130  SAN JOSE CA 95138,5542 MONTERY RD 130  SAN JOSE CA 95138,5542 MONTERY RD 130  SAN JOSE CA 95138,MARK HASSON,1127 S GAFFEY ST SAN PEDRO CA 90731,FTB SUSPENDED
221,C0773485,"COYOTE VALLEY LANDOWNERS' ASSOCIATION, INC.",1477 HARTLEY CT.  SAN JOSE CA 95130,,1477 HARTLEY CT.  SAN JOSE CA 95130,,,FTB SUSPENDED
221,C0293885,COYOTE VALLEY MUTUAL WATER COMPANY,PO BOX 126  OCOTILLO CA 92259,1161 IMPERIAL HWY  OCOTILLO CA 92259,1161 IMPERIAL HWY  OCOTILLO CA 92259,MICHAEL PETERSON,1175 BOUNDARY AVE OCOTILLO CA 92259,ACTIVE
221,C2974179,COYOTE VALLEY NURSERY INC.,315 KIRBY AVE  MORGAN HILL CA 95037,315 KIRBY AVE  MORGAN HILL CA 95037,315 KIRBY AVE  MORGAN HILL CA 95037,MARIO P SILVA,315 KIRBY AVE MORGAN HILL CA 95037,ACTIVE
221,C2673620,COYOTE VALLEY SHARPSHOOTERS,2369 SAINT FRANCIS DRIVE  PALO ALTO CA 94303-3136,2369 SAINT FRANCIS DRIVE  PALO ALTO CA 94303-3136,2369 SAINT FRANCIS DRIVE  PALO ALTO CA 94303-3136,DEBRA LAVERGNE,2369 SAINT FRANCIS DRIVE PALO ALTO CA 94303-3136,DISSOLVED
221,C4216500,COYOTE VALLEY SPORT FLYERS,32 PERALTA AVE  LOS GATOS CA 95030,32 PERALTA AVE  LOS GATOS CA 95030,32 PERALTA AVE  LOS GATOS CA 95030,MARK LIVINGSTON WAINWRIGHT,32 PERALTA AVE LOS GATOS CA 95030,ACTIVE
221,200106110110,"CDST-COYOTE VALLEY, LLC",,2903 E. CAMELBACK RD STE 155  PHOENIX AZ 85016,2903 E. CAMELBACK RD STE 155  PHOENIX AZ 85016,CT CORPORATION SYSTEM,* ,CANCELED
221,201405210184,COYOTE CASTRO VALLEY LLC,20885 REDWOOD RD #304  CASTRO VALLEY CA 94546,20885 REDWOOD RD #304  CASTRO VALLEY CA 94546,20885 REDWOOD RD #304  CASTRO VALLEY CA 94546,DOUGLAS J ABELES,20885 REDWOOD RD #304 CASTRO VALLEY CA 94546,ACTIVE
221,200222700002,"COYOTE VALLEY (SAN JOSE) GP, L.P.",,431 E HORATIO AVE STE 210 %AVANTI PROPER  MAITLAND FL 32751,431 E HORATIO AVE STE 210 %AVANTI PROPER  MAITLAND FL 32751,WILLIAM L STEEL,"18881 VON KARMAN AVE SUITE 1400, SAMUELS & STEEL LLP IRVINE CA 92612",CANCELED
221,200219900002,"COYOTE VALLEY (SAN JOSE) PIP IV, L.P.",,431 E HORATIO AVE STE 210 %AVANTI PROPER  MAITLAND FL 32751,431 E HORATIO AVE STE 210 %AVANTI PROPER  MAITLAND FL 32751,WILLIAM L STEEL,"%SAMUELS 7 STEEL, LLCP, 18881 VON KARMAN AVENUE SUITE 1400 IRVINE CA 92612",CANCELED
221,200010310082,"COYOTE VALLEY AGGREGATE, LLC",,3579 RANCH VIWEW LANE  BISHOP CA 93514,3579 RANCH VIWEW LANE  BISHOP CA 93514,D. RICHARD CHEESEMAN,3579 RANCH VIEW LANE BISHOP CA 93514,CANCELED
221,200423010005,"COYOTE VALLEY ALLIANCE FOR SMART PLANNING, LLC",,"95 SOUTH MARKET ST., THIRD FLOOR  SAN JOSE CA 95113","95 SOUTH MARKET ST., THIRD FLOOR  SAN JOSE CA 95113",RANDY O. WRIGHT,"95 SOUTH MARKET ST., THIRD FLOOR SAN JOSE CA 95113",CANCELED
221,201703400011,COYOTE VALLEY HOMES I LIMITED PARTNERSHIP,7601 N STATE ST  REDWOOD VALLEY CA 95470,7601 N STATE ST  REDWOOD VALLEY CA 95470,7601 N STATE ST  REDWOOD VALLEY CA 95470,MICHAEL HUNTER,7601 N STATE ST REDWOOD VALLEY CA 95470,ACTIVE
221,198433100069,"COYOTE VALLEY LEASING, A CALIFORNIA LIMITED PARTNERSHIP",,4085 CAMPBELL AVE.  MENLO PARK CA 94025,4085 CAMPBELL AVE.  MENLO PARK CA 94025,JOE P. CRITCHFIELD,4085 CAMPBELL AVE. MENLO PARK CA 94025,ACTIVE
221,199829610013,"COYOTE VALLEY MANAGERS, LLC",,575 MARKET ST 35TH FL  SAN FRANCISCO CA 94105,575 MARKET ST 35TH FL  SAN FRANCISCO CA 94105,,,CANCELED
221,200622610116,"COYOTE VALLEY PROFESSIONAL CENTER, LLC",,1612 FOURTH ST.  SANTA ROSA CA 95404,1612 FOURTH ST.  SANTA ROSA CA 95404,MARK D. JORDAN,1612 FOURTH ST. SANTA ROSA CA 95404,FTB SUSPENDED
224,C4067380,"11TH STREET CHEVRON, INC.",1294 DALTON STREET  TULARE CA 93274,1294 DALTON STREET  TULARE CA 93274,1294 DALTON STREET  TULARE CA 93274,MUSSA M KAID,1294 DALTON STREET TULARE CA 93274,ACTIVE
224,C1152140,ADAM'S CHEVRON SERVICE,2505 PRIMROSE LANE  UPLAND CA 91786,2505 PRIMROSE LANE  UPLAND CA 91786,2505 PRIMROSE LANE  UPLAND CA 91786,ALBERT ADAM,2505 PRIMROSE LANE UPLAND CA 91786,DISSOLVED
224,C3311410,"ADOBE ROAD CHEVRON, INC.",8747 SHASTA LILY WAY  ELK GROVE CA 95758,8747 SHASTA LILY WAY  ELK GROVE CA 95758,8747 SHASTA LILY WAY  ELK GROVE CA 95758,** RESIGNED ON 01/29/2018,* ,FTB SUSPENDED
224,C0964842,"AIRPORT CHEVRON AND TOWING, INC.",561 BUENA VISTA AVE  OXNARD CA 93030-5103,561 BUENA VISTA AVE  OXNARD CA 93030-5103,561 BUENA VISTA AVE  OXNARD CA 93030-5103,GARY LEE NORRIS,561 BUENA VISTA AVE OXNARD CA 93030-5103,ACTIVE
224,C1022774,"AL JENSEN CHEVRON, INC.",1056 LORRAINE DR  REDDING CA 96002,1056 LORRAINE DR  REDDING CA 96002,1056 LORRAINE DR  REDDING CA 96002,A E JENSEN,1056 LORRAINE DR REDDING CA 96002,DISSOLVED
224,C0580001,"ALDERSON'S CHEVRON STATION, INC.",,,,,,FTB SUSPENDED
224,C1094286,"ALLIED GARDENS CHEVRON, INC.",8692 LA MESA BLVD  LA MESA CA 92041,,8692 LA MESA BLVD  LA MESA CA 92041,CHESLEY J GENTRY,88 VALLECITO WY CHULA VISTA CA 92010,DISSOLVED
224,C2527546,"ALONDRA CHEVRON, INC.",840 N BROADWAY STE 202  LA CA 90012,6602 ALONDRA BL  PARAMOUNT CA 90723,6602 ALONDRA BL  PARAMOUNT CA 90723,SANG M LIM,6602 ALONDRA BL PARAMOUNT CA 90723,DISSOLVED
224,C4230553,"ALTADENA CHEVRON SERVICE CENTER, INC.",907 E ALTADENA DR  ALTADENA CA 91001,907 E ALTADENA DR  ALTADENA CA 91001,907 E ALTADENA DR  ALTADENA CA 91001,FAWZI FAKHOURY,5819 TEMPLE CITY BLVD TEMPLE CITY CA 91780,ACTIVE
224,C3433863,ALTURAS CHEVRON INC.,1080 N MAIN ST  ALTURAS CA 96101,1080 N MAIN ST  ALTURAS CA 96101,1080 N MAIN ST  ALTURAS CA 96101,MANPREET SINGH KAHLON,153 COLLEGE HILL WAY YUBA CITY CA 95993,ACTIVE
224,198432100004,"70TH STREET CHEVRON, A CALIFORNIA LIMITED PARTNERSHIP",,6992 EL CAJON BLVD.  SAN DIEGO CA 92115,6992 EL CAJON BLVD.  SAN DIEGO CA 92115,HILBERT MURILLO,6992 EL CAJON BLVD. SAN DIEGO CA 92115,ACTIVE
224,200214010053,"ADLY'S CHEVRON, LLC",,9030 NATIONAL BLVD  LOS ANGELES CA 90034,9030 NATIONAL BLVD  LOS ANGELES CA 90034,ADLY ABDELMALAK,9030 NATIONAL BLVD LOS ANGELES CA 90034,CANCELED
224,198422900099,"ADOBE FALLS CHEVRON SERVICE, A CALIFORNIA LIMITED PARTNERSHIP",,4525 WARING RD.  SAN DIEGO CA 92120,4525 WARING RD.  SAN DIEGO CA 92120,DENNIS LAMBERT SWANSON,2215 LINCOLN AVE. SAN DIEGO CA 92104,ACTIVE
224,198415600154,BOB RISNER CHEVRON,,2501 EAST LINCOLN  ANAHEIM CA 92800,2501 EAST LINCOLN  ANAHEIM CA 92800,KEITH VAN HOESEN,5992 WESTMINSTER AVENUE WESTMINSTER CA 92683,CANCELED
224,200807400009,CHESTER CHEVRON L.P.,,225 MAIN STREET  CHESTER CA 96020,225 MAIN STREET  CHESTER CA 96020,MAIN SINGH,16 E SIERRA STREET PORTOLA CA 96122,ACTIVE
224,199733510017,CHEVRON CHEMICAL COMPANY LLC,,575 MARKET STREET  SAN FRANCISCO CA 94105,575 MARKET STREET  SAN FRANCISCO CA 94105,H P WALKER,575 MARKET STREET SAN FRANCISCO  94105,CANCELED
224,198418200727,CHEVRON CONSTRUCTION CO,,"2120 WILSHIRE BLVD,. STE. 200  SANTA MONICA CA 90403","2120 WILSHIRE BLVD,. STE. 200  SANTA MONICA CA 90403",MARIO MORY,"2120 WILSHIRE BLVD., STE. 200 SANTA MONICA CA 90403",CANCELED
224,199931410061,CHEVRON EBUSINESS DEVELOPMENT COMPANY LLC,,6001 BOLILNGER CANYON ROAD  SAN RAMON CA 94583,6001 BOLILNGER CANYON ROAD  SAN RAMON CA 94583,THE PRENTICE-HALL CORPORATION SYSTEM INC,* ,CANCELED
224,200015200015,CHEVRON ENERGY SOLUTIONS L.P.,,575 MARKET ST  SAN FRANCISCO CA 94105,575 MARKET ST  SAN FRANCISCO CA 94105,,,CANCELED
224,199914010075,CHEVRON EUROPEAN HOLDINGS LLC,6001 BOLLINGER CANYON RD V2322A  SAN RAMON CA 94583,6001 BOLLINGER CANYON RD  SAN RAMON CA 94583,6001 BOLLINGER CANYON RD  SAN RAMON CA 94583,,,CANCELED
231,C4067380,"11TH STREET CHEVRON, INC.",1294 DALTON STREET  TULARE CA 93274,1294 DALTON STREET  TULARE CA 93274,1294 DALTON STREET  TULARE CA 93274,MUSSA M KAID,1294 DALTON STREET TULARE CA 93274,ACTIVE
231,C1152140,ADAM'S CHEVRON SERVICE,2505 PRIMROSE LANE  UPLAND CA 91786,2505 PRIMROSE LANE  UPLAND CA 91786,2505 PRIMROSE LANE  UPLAND CA 91786,ALBERT ADAM,2505 PRIMROSE LANE UPLAND CA 91786,DISSOLVED
231,C3311410,"ADOBE ROAD CHEVRON, INC.",8747 SHASTA LILY WAY  ELK GROVE CA 95758,8747 SHASTA LILY WAY  ELK GROVE CA 95758,8747 SHASTA LILY WAY  ELK GROVE CA 95758,** RESIGNED ON 01/29/2018,* ,FTB SUSPENDED
231,C0964842,"AIRPORT CHEVRON AND TOWING, INC.",561 BUENA VISTA AVE  OXNARD CA 93030-5103,561 BUENA VISTA AVE  OXNARD CA 93030-5103,561 BUENA VISTA AVE  OXNARD CA 93030-5103,GARY LEE NORRIS,561 BUENA VISTA AVE OXNARD CA 93030-5103,ACTIVE
231,C1022774,"AL JENSEN CHEVRON, INC.",1056 LORRAINE DR  REDDING CA 96002,1056 LORRAINE DR  REDDING CA 96002,1056 LORRAINE DR  REDDING CA 96002,A E JENSEN,1056 LORRAINE DR REDDING CA 96002,DISSOLVED
231,C0580001,"ALDERSON'S CHEVRON STATION, INC.",,,,,,FTB SUSPENDED
231,C1094286,"ALLIED GARDENS CHEVRON, INC.",8692 LA MESA BLVD  LA MESA CA 92041,,8692 LA MESA BLVD  LA MESA CA 92041,CHESLEY J GENTRY,88 VALLECITO WY CHULA VISTA CA 92010,DISSOLVED
231,C2527546,"ALONDRA CHEVRON, INC.",840 N BROADWAY STE 202  LA CA 90012,6602 ALONDRA BL  PARAMOUNT CA 90723,6602 ALONDRA BL  PARAMOUNT CA 90723,SANG M LIM,6602 ALONDRA BL PARAMOUNT CA 90723,DISSOLVED
231,C4230553,"ALTADENA CHEVRON SERVICE CENTER, INC.",907 E ALTADENA DR  ALTADENA CA 91001,907 E ALTADENA DR  ALTADENA CA 91001,907 E ALTADENA DR  ALTADENA CA 91001,FAWZI FAKHOURY,5819 TEMPLE CITY BLVD TEMPLE CITY CA 91780,ACTIVE
231,C3433863,ALTURAS CHEVRON INC.,1080 N MAIN ST  ALTURAS CA 96101,1080 N MAIN ST  ALTURAS CA 96101,1080 N MAIN ST  ALTURAS CA 96101,MANPREET SINGH KAHLON,153 COLLEGE HILL WAY YUBA CITY CA 95993,ACTIVE
231,198432100004,"70TH STREET CHEVRON, A CALIFORNIA LIMITED PARTNERSHIP",,6992 EL CAJON BLVD.  SAN DIEGO CA 92115,6992 EL CAJON BLVD.  SAN DIEGO CA 92115,HILBERT MURILLO,6992 EL CAJON BLVD. SAN DIEGO CA 92115,ACTIVE
231,200214010053,"ADLY'S CHEVRON, LLC",,9030 NATIONAL BLVD  LOS ANGELES CA 90034,9030 NATIONAL BLVD  LOS ANGELES CA 90034,ADLY ABDELMALAK,9030 NATIONAL BLVD LOS ANGELES CA 90034,CANCELED
231,198422900099,"ADOBE FALLS CHEVRON SERVICE, A CALIFORNIA LIMITED PARTNERSHIP",,4525 WARING RD.  SAN DIEGO CA 92120,4525 WARING RD.  SAN DIEGO CA 92120,DENNIS LAMBERT SWANSON,2215 LINCOLN AVE. SAN DIEGO CA 92104,ACTIVE
231,198415600154,BOB RISNER CHEVRON,,2501 EAST LINCOLN  ANAHEIM CA 92800,2501 EAST LINCOLN  ANAHEIM CA 92800,KEITH VAN HOESEN,5992 WESTMINSTER AVENUE WESTMINSTER CA 92683,CANCELED
231,200807400009,CHESTER CHEVRON L.P.,,225 MAIN STREET  CHESTER CA 96020,225 MAIN STREET  CHESTER CA 96020,MAIN SINGH,16 E SIERRA STREET PORTOLA CA 96122,ACTIVE
231,199733510017,CHEVRON CHEMICAL COMPANY LLC,,575 MARKET STREET  SAN FRANCISCO CA 94105,575 MARKET STREET  SAN FRANCISCO CA 94105,H P WALKER,575 MARKET STREET SAN FRANCISCO  94105,CANCELED
231,198418200727,CHEVRON CONSTRUCTION CO,,"2120 WILSHIRE BLVD,. STE. 200  SANTA MONICA CA 90403","2120 WILSHIRE BLVD,. STE. 200  SANTA MONICA CA 90403",MARIO MORY,"2120 WILSHIRE BLVD., STE. 200 SANTA MONICA CA 90403",CANCELED
231,199931410061,CHEVRON EBUSINESS DEVELOPMENT COMPANY LLC,,6001 BOLILNGER CANYON ROAD  SAN RAMON CA 94583,6001 BOLILNGER CANYON ROAD  SAN RAMON CA 94583,THE PRENTICE-HALL CORPORATION SYSTEM INC,* ,CANCELED
231,200015200015,CHEVRON ENERGY SOLUTIONS L.P.,,575 MARKET ST  SAN FRANCISCO CA 94105,575 MARKET ST  SAN FRANCISCO CA 94105,,,CANCELED
231,199914010075,CHEVRON EUROPEAN HOLDINGS LLC,6001 BOLLINGER CANYON RD V2322A  SAN RAMON CA 94583,6001 BOLLINGER CANYON RD  SAN RAMON CA 94583,6001 BOLLINGER CANYON RD  SAN RAMON CA 94583,,,CANCELED
232,C3023181,''SAN JOAQUIN VALLEY CLEAN ENERGY ORGANIZATION'',"4747 N. FIRST STREET, SUITE 140  FRESNO CA 93726","4747 N. FIRST STREET, SUITE 140  FRESNO CA 93726","4747 N. FIRST STREET, SUITE 140  FRESNO CA 93726",COURTNEY BLORE KALASHIAN,"4747 N. FIRST STREET, SUITE 140 FRESNO CA 93726",ACTIVE
232,C3551313,AMERICAN CLEAN ENERGY FOUNDATION,769 132ND AVE  HUDSON WI 54016,769 132ND AVE  HUDSON WI 54016,769 132ND AVE  HUDSON WI 54016,,,SOS/FTB SUSPENDED
232,C3500091,"APEX CLEAN ENERGY, INC.","310 4TH STREET NE, STE 200  CHARLOTTESVILLE VA 22902","310 4TH STREET NE, STE 200  CHARLOTTESVILLE VA 22902","310 4TH STREET NE, STE 200  CHARLOTTESVILLE VA 22902",,,SURRENDER
232,C3262210,"ASIA CLEAN ENERGY INNOVATION INITIATIVE, INC.","CATF, 18 TREMONT ST STE 530STE 530  BOSTON MA 02108",,"CATF, 18 TREMONT ST STE 530STE 530  BOSTON MA 02108",,,DISSOLVED
232,C2600472,"AUS CLEAN ENERGY SERVICES, INC.",9371 IRVINE BOULEVARD  IRVINE CA 92618,9371 IRVINE BOULEVARD  IRVINE CA 92618,9371 IRVINE BOULEVARD  IRVINE CA 92618,WESLEY L DAVIS,15707 ROCKFIELD BOULEVARD SUITE 205 IRVINE CA 92618,DISSOLVED
232,C3830281,BCI CLEAN ENERGY INC.,3440 WILSHIRE BLVD STE 807  LOS ANGELES CA 90010,17831 SKY PARK CIRCLE STE H  IRVINE CA 92614,17831 SKY PARK CIRCLE STE H  IRVINE CA 92614,STANLEY CHA,3440 WILSHIRE BLVD STE 807 LOS ANGELES CA 90010,ACTIVE
232,C3035099,CALIFORNIA CLEAN ENERGY COMMITTEE,503 DEL ORO AVE  DAVIS CA 95616,503 DEL ORO AVE  DAVIS CA 95616,503 DEL ORO AVE  DAVIS CA 95616,EUGENE SAMUEL WILSON,503 DEL ORO AVE DAVIS CA 95616,ACTIVE
232,C2655705,CALIFORNIA CLEAN ENERGY FUND,436 14TH ST. STE. 1220  OAKLAND CA 94612,436 14TH ST. STE. 1220  OAKLAND CA 94612,436 14TH ST. STE. 1220  OAKLAND CA 94612,DANIEL IAN KENNEDY,436 14TH ST. STE. 1220 OAKLAND CA 94612,ACTIVE
232,C3162834,CALIFORNIANS FOR A CLEAN ENERGY FUTURE,350 S GRAND AVE_25TH FL  LOS ANGELES CA 90071-1503,,350 S GRAND AVE_25TH FL  LOS ANGELES CA 90071-1503,,,DISSOLVED
232,C2847750,CALIFORNIANS FOR CLEAN ENERGY,201 DOLORES AVENUE  SAN LEANDRO CA 94577,201 DOLORES AVENUE  SAN LEANDRO CA 94577,201 DOLORES AVENUE  SAN LEANDRO CA 94577,JAMES C. HARRISON,201 DOLORES AVENUE SAN LEANDRO CA 94577,DISSOLVED
232,201420910365,50/50 CLEAN ENERGY LLC,PO BOX 26  BAKERSFIELD CA 93302,1401 S ST STE 223  BAKERSFIELD CA 93301,1401 S ST STE 223  BAKERSFIELD CA 93301,,,FTB SUSPENDED
232,200836210018,ADAM CAPITAL CLEAN ENERGY ASSET FINANCE LLC,,579 1ST ST WEST  SONOMA CA 95476,579 1ST ST WEST  SONOMA CA 95476,ADAM BOUCHER,579 1ST ST WEST SONOMA CA 95476,SOS FORFEITED
232,201117910152,ADAM CAPITAL CLEAN ENERGY FINANCE LLC,,579 1ST ST W  SONOMA CA 95476-6638,579 1ST ST W  SONOMA CA 95476-6638,ADAM BOUCHER,579 1ST ST W SONOMA CA 95476-6638,CANCELED
232,201629310338,"AMERICAN A. S. CLEAN ENERGY CONSULTING, LLC",2857 CHIANTI AVE  MADERA CA 93637,2857 CHIANTI AVE  MADERA CA 93637,2857 CHIANTI AVE  MADERA CA 93637,ROBERT GUILLEN,2857 CHIANTI AVE MADERA CA 93637,FTB SUSPENDED
232,201816510262,AMERICAN CLEAN ENERGY REPRESENTATIVES LLC,5314 VIA DOLORES  THOUSAND OAKS CA 91320,5314 VIA DOLORES  THOUSAND OAKS CA 91320,5314 VIA DOLORES  THOUSAND OAKS CA 91320,,,ACTIVE
232,201517310496,"AQUA CLEAN ENERGY FUND, LLC",15617 RISING RIVER PLACE N  SAN DIEGO CA 92127,15617 RISING RIVER PLACE N  SAN DIEGO CA 92127,15617 RISING RIVER PLACE N  SAN DIEGO CA 92127,KARINA JUAREZ,701 B ST STE 236 SAN DIEGO CA 92101,CANCELED
232,201507810259,"AQUA CLEAN ENERGY, LLC",15024 HUNTINGTON GATE DR  POWAY CA 92064,15024 HUNTINGTON GATE DR  POWAY CA 92064,15024 HUNTINGTON GATE DR  POWAY CA 92064,KARINA JUAREZ,701 B ST STE 236 SAN DIEGO CA 92101,CANCELED
232,201505910395,"ATLANTIC CLEAN ENERGY SUPPLY, LLC",4378 OTHELLO DR  FREMONT CA 94555,4378 OTHELLO DR  FREMONT CA 94555,4378 OTHELLO DR  FREMONT CA 94555,XIN ZHU,4378 OTHELLO DR FREMONT CA 94555,ACTIVE
232,201601910064,"ATLAS CLEAN ENERGY, LLC",1620 5TH AVE STE 650  SAN DIEGO CA 92101,1620 5TH AVE STE 650  SAN DIEGO CA 92101,1620 5TH AVE STE 650  SAN DIEGO CA 92101,AJAY GUPTA,1620 5TH AVE STE 650 SAN DIEGO CA 92101,SOS/FTB SUSPENDED
232,201821110672,"BE CLEAN ENERGY RESOURCES, LLC",4353 N 1ST ST  SAN JOSE CA 95134,4353 N 1ST ST  SAN JOSE CA 95134,4353 N 1ST ST  SAN JOSE CA 95134,,,ACTIVE
233,C4229873,"BC COUNTRY CLUB LIQUORS, INC",3473 MCKEE RD  SAN JOSE CA 95127,3473 MCKEE RD  SAN JOSE CA 95127,3473 MCKEE RD  SAN JOSE CA 95127,BAO Q CHAU,3473 MCKEE RD SAN JOSE CA 95127,ACTIVE
233,C0511711,"COUNTRY CLUB LIQUORS, INC.",,,,,,FTB SUSPENDED
233,C0830288,"COUNTRY CLUB LIQUORS, INC.",74-495 HWY 111  PALM DESERT CA 92260,74-495 HWY 111  PALM DESERT CA 92260,74-495 HWY 111  PALM DESERT CA 92260,JAMES KRIEG,74-495 HWY 111 PALM DESERT CA 92260,FTB SUSPENDED
233,C2954180,DISCOUNT CLUB LIQUORS,3543 DEER CREST DR  DANVILLE CA 94506,,3543 DEER CREST DR  DANVILLE CA 94506,LATIF FAED,3543 DEER CREST DR DANVILLE CA 94506,FTB SUSPENDED
233,198903900030,"COUNTRY CLUB LIQUORS, A CALIFORNIA LIMITED PARTNERSHIP",,3737 COLUMBUS  BAKERSFIELD CA 93306,3737 COLUMBUS  BAKERSFIELD CA 93306,JACK R. WATERS,3737 COLUMBUS BAKERSFIELD CA 93306,CANCELED
234,C3554303,"805 MARKET & DELI, INC.",135 E CARRILLO STREET  SANTA BARBARA CA 93101,135 E CARRILLO STREET  SANTA BARBARA CA 93101,135 E CARRILLO STREET  SANTA BARBARA CA 93101,SIMON MAIDA,135 E CARRILLO STREET SANTA BARBARA CA 93101,ACTIVE
234,C2610440,AL'S MARKET & DELI,3711 LONG BEACH BLVD. #809  LONG BEACH CA 90807,,3711 LONG BEACH BLVD. #809  LONG BEACH CA 90807,SHIRLEY A. JOHNSON,1422 E. HELMICK STREET CARSON CA 90746-3110,SOS/FTB SUSPENDED
234,C3721781,"ALAMEDA DELI MARKET, INC.",906 S GLENAOKS BLVD  BURBANK CA 91502,906 S GLENAOKS BLVD  BURBANK CA 91502,906 S GLENAOKS BLVD  BURBANK CA 91502,RAYMOND BARSEGAR NAZARI,906 S GLENAOKS BLVD BURBANK CA 91502,DISSOLVED
234,C4132582,"ALI'S DELI & MARKET, INC.",683 E. WALKER ST.  ORLAND CA 95963,647 E. WALKER ST.  ORLAND CA 95963,647 E. WALKER ST.  ORLAND CA 95963,DANIEL ALEXANDER,"901 BRUCE RD., STE. 230 CHICO CA 95928",ACTIVE
234,C2490513,"ALVAND MARKET & DELI, INC.",3033 BRISTOL ST STE G  COSTA MESA CA 92626,3033 BRISTOL ST STE G  COSTA MESA CA 92626,3033 BRISTOL ST STE G  COSTA MESA CA 92626,ASGHAR SALIMI,3033 BRISTOL ST STE G COSTA MESA CA 92626,DISSOLVED
234,C2832508,AMBIKA MARKET & DELI CORPORATION,1225 W 17TH STREET  SANTA ANA CA 92706,1225 W 17TH STREET  SANTA ANA CA 92706,1225 W 17TH STREET  SANTA ANA CA 92706,DAXA D PATEL,1225 W 17TH STREET SANTA ANA CA 92706,FTB SUSPENDED
234,C4131605,AMO MAC LIQUOR & DELI MARKET CORPORATION,31595 CASTAIC RD  CASTAIC CA 91384,31595 CASTAIC RD  CASTAIC CA 91384,31595 CASTAIC RD  CASTAIC CA 91384,,,ACTIVE
234,C4149529,ARDEN MARKET & DELI,3027 ARDEN WAY  SACRAMENTO CA 95285,3027 ARDEN WAY  SACRAMENTO CA 95285,3027 ARDEN WAY  SACRAMENTO CA 95285,TEHSEEN KARIM,3017 ARDEN WAY SACRAMENTO CA 95828,ACTIVE
234,C1466395,"ARENA MARKET & DELI, INC.",3990 SOUTH FIRGUEROA ST  LOS ANGELES CA 90037,3990 SOUTH FIRGUEROA ST  LOS ANGELES CA 90037,3990 SOUTH FIRGUEROA ST  LOS ANGELES CA 90037,JIMMIE L. POWELL,3990 SOUTH FIRGUEROA ST LOS ANGELES CA 90037,FTB SUSPENDED
234,C2614551,"ASHLEY'S DELI & MARKET, INC.",828 HERMOSA AVE  HERMOSA BEACH CA 90254,828 HERMOSA AVE  HERMOSA BEACH CA 90254,828 HERMOSA AVE  HERMOSA BEACH CA 90254,KRISTINE M ASHLEY,828 HERMOSA AVE HERMOSA BEACH CA 90254,ACTIVE
234,201529310189,BAY AREA EUROPEAN MARKET & DELI LLC,402 W BROADWAY STE 770  SAN DIEGO CA 92101,402 W BROADWAY STE 770  SAN DIEGO CA 92101,402 W BROADWAY STE 770  SAN DIEGO CA 92101,FIONA BENNUN,1449 CREEKSIDE DR #3042 WALNUT CREEK CA 94596,CONVERTED-OUT
234,200600910257,"BON AIR MARKET AND DELI, LLC",,2531 J STREET  SACRAMENTO CA 95816,2531 J STREET  SACRAMENTO CA 95816,LARRY WRIGHT,4901 MARCONI AVENUE STE B SACRAMENTO CA 95816,ACTIVE
234,201405010333,BROOKLYN DELI & MINI MARKET LLC,3800 S NORTON AVE  LOS ANGELES CA 90008,3800 S NORTON AVE  LOS ANGELES CA 90008,3800 S NORTON AVE  LOS ANGELES CA 90008,HAKEEM DOLPHIN,3800 S NORTON AVE LOS ANGELES CA 90008,ACTIVE
234,200934110067,"CARDELLI'S ITALIAN MARKET, DELI, & CATERING ""LLC""",,8319 WHISPERING TREE DR  RIVERSIDE CA 92509,8319 WHISPERING TREE DR  RIVERSIDE CA 92509,TERESA GUZIEJKA,8319 WHISPERING TREE DR RIVERSIDE CA 92509,FTB SUSPENDED
234,200912010126,"CHATSWORTH INTERNATIONAL DELI MARKET, LLC",,6314 VAN NUYS BLVD #202  VAN NUYS CA 91401,6314 VAN NUYS BLVD #202  VAN NUYS CA 91401,,,CANCELED
234,201627110206,"COMMUNITY TABLE DELI + MARKET, LLC",PO BOX 1756  TRUCKEE CA 96161,15881 WINDSOR WAY  TRUCKEE CA 96161,15881 WINDSOR WAY  TRUCKEE CA 96161,RICHARD E MOLSBY,10280 DONNER PASS RD TRUCKEE CA 96161,CANCELED
234,201615810447,CORONA HEIGHTS MARKET AND DELI LLC,4400 17TH STREET  SAN FRANCISCO CA 94114,4400 17TH STREET  SAN FRANCISCO CA 94114,4400 17TH STREET  SAN FRANCISCO CA 94114,MAZEN SALFITI,236 WEST PORTAL STE 174 SAN FRANCISCO CA 94127,CANCELED
234,201405510353,CROSSROADS MARKET & DELI LLC,8481 WHITE HAWK RD  SHINGLE SPRINGS CA 95682,8481 WHITE HAWK RD  SHINGLE SPRINGS CA 95682,8481 WHITE HAWK RD  SHINGLE SPRINGS CA 95682,,,SOS/FTB SUSPENDED
234,200123310070,DOWNTOWN MARKET AND DELI LLC,,8 N. SCHOOL ST.  LODI CA 95240,8 N. SCHOOL ST.  LODI CA 95240,MONEER A. BANDY,8 N. SCHOOL ST. LODI CA 95240,SOS/FTB SUSPENDED
234,199803610006,"GOOD NEIGHBOR EUROPEAN DELI MARKET, LLC",5111 COLLEGE OAK DR STE A& B  SACRAMENTO CA 95841,5111 COLLEGE OAK DR STE A& B  SACRAMENTO CA 95841,5111 COLLEGE OAK DR STE A& B  SACRAMENTO CA 95841,PAUL MOSKALETS,5111 COLLEGE OAK DR STE A& B SACRAMENTO CA 95841,ACTIVE
235,C3713389,CHOICE KITCHEN FRESH & EASY,916 N. MOUNTAIN AVE.  UPLAND CA 91786,916 N. MOUNTAIN AVE.  UPLAND CA 91786,916 N. MOUNTAIN AVE.  UPLAND CA 91786,,,FTB SUSPENDED
235,C3429982,FRESH & EASY NEIGHBORHOOD FOUNDATION,6080 CENTER DRIVE 6TH FLOOR  LOS ANGELES CA 90045,20101 HAMILTON AVENUE SUITE 350  TORRANCE CA 90502,20101 HAMILTON AVENUE SUITE 350  TORRANCE CA 90502,,,SURRENDER
235,C3167625,"FRESH & EASY, INC.",8855 GREENBACK LANE  ORANGEVALE CA 95662,8855 GREENBACK LANE  ORANGEVALE CA 95662,8855 GREENBACK LANE  ORANGEVALE CA 95662,KAREN FARAGPUR,8855 GREENBACK LANE ORANGEVALE CA 95662,DISSOLVED
235,C3334870,"FRESH AND EASY CATERING MARKET, INC.",11715 WASHINGTON PL.  LOS ANGELES CA 90066,11715 WASHINGTON PL.  LOS ANGELES CA 90066,11715 WASHINGTON PL.  LOS ANGELES CA 90066,GAUTAM KUMAR,7138 SALE AVE WEST HILLS CA 91307,ACTIVE
235,C4154964,FRESH N EASY AIR CONDITIONING AND HEATING,19150 COMMUNITY ST  NORTHRIDGE CA 91324,19150 COMMUNITY ST  NORTHRIDGE CA 91324,19150 COMMUNITY ST  NORTHRIDGE CA 91324,FREDDIE M CUEVAS,19150 COMMUNITY ST NORTHRIDGE CA 91324,ACTIVE
235,201606310275,EASY FRESH START FUNDING LLC,151 LINDBERGH AVE STE E  LIVERMORE CA 94551,151 LINDBERGH AVE STE E  LIVERMORE CA 94551,151 LINDBERGH AVE STE E  LIVERMORE CA 94551,KYLE HARPER,151 LINDBERGH AVE STE E LIVERMORE CA 94551,SOS SUSPENDED
235,201328810028,"FRESH & EASY, LLC",6080 CENTER DR #600  LOS ANGELES CA 90045,6080 CENTER DR #600  LOS ANGELES CA 90045,6080 CENTER DR #600  LOS ANGELES CA 90045,,,SOS FORFEITED
238,C2857226,"BETTER HEALTH PHARMACY, INC. DBA THE MEDICINE SHOPPE",20843 TIMBERLINE LN  DIAMOND BAR CA 91789,20843 TIMBERLINE LN  DIAMOND BAR CA 91789,20843 TIMBERLINE LN  DIAMOND BAR CA 91789,ALBERT WONG,20843 TIMBERLINE LN DIAMOND BAR CA 91789,DISSOLVED
238,C3793575,"CFK, INC. DBA THE MEDICINE SHOPPE #863",47 E 500 S  BOUNTIFUL UT 84010,47 E 500 S  BOUNTIFUL UT 84010,47 E 500 S  BOUNTIFUL UT 84010,,,FTB FORFEITED
238,C1142416,"CHULA VISTA MEDICINE SHOPPE, INC.",23 1/2 NAPLES ST  CHULA VISTA CA 92011,23 1/2 NAPLES ST  CHULA VISTA CA 92011,23 1/2 NAPLES ST  CHULA VISTA CA 92011,JOHN PRINCE,23 1/2 NAPLES ST CHULA VISTA CA 92011,DISSOLVED
238,C2152375,"MEDICINE SHOPPE OF NEWBURY PARK, INC.",2241 MICHAEL DRIVE  NEWBURY PARK CA 91320,2241 MICHAEL DRIVE  NEWBURY PARK CA 91320,2241 MICHAEL DRIVE  NEWBURY PARK CA 91320,ROGER H WANG,5325 VIA PISA NEWBURY PARK CA 91320,ACTIVE
238,C0683082,MEDICINE SHOPPE PHARMACY,21777 VENTURA BOULEVARD  WOODLAND HILLS CA 91364,21777 VENTURA BLVD.  WOODLAND HILLS CA 91364,21777 VENTURA BLVD.  WOODLAND HILLS CA 91364,,,FTB SUSPENDED
238,C1159186,"THE MEDICINE SHOPPE PHARMACY, INC.",431 N OJAI RD  SANTA PAULA CA 93060,,431 N OJAI RD  SANTA PAULA CA 93060,STEVEN R ROSE,431 N OJAI RD SANTA PAULA CA 93060,DISSOLVED
240,C2779047,"101 GAS STATION, INC.",32655 SILLIMAN ROAD  SOLEDAD CA 93960,32655 SILLIMAN ROAD  SOLEDAD CA 93960,32655 SILLIMAN ROAD  SOLEDAD CA 93960,STAN SUAREZ,32655 SILLIMAN ROAD SOLEDAD CA 93960,ACTIVE
240,C2566125,"3374 GRAND AVENUE GAS STATION, INC.",3374 GRAND AVE  OAKLAND CA 94610,3374 GRAND AVE  OAKLAND CA 94610,3374 GRAND AVE  OAKLAND CA 94610,HAI THANH PHAM,3374 GRAND AVE OAKLAND CA 94610,FTB SUSPENDED
240,C2565351,"3420 35TH AVENUE GAS STATION, INC.",3420 35TH AVE  OAKLAND CA 94619,3420 35TH AVE  OAKLAND CA 94619,3420 35TH AVE  OAKLAND CA 94619,SON THANH NGUYEN,3420 35TH AVE OAKLAND CA 94619,FTB SUSPENDED
240,C2565350,3530 MACARTHUR BLVD. GAS STATION INC.,3530 MACARTHUR BLVD  OAKLAND CA 94619,3530 MACARTHUR BLVD  OAKLAND CA 94619,3530 MACARTHUR BLVD  OAKLAND CA 94619,LE THI HONG PHAM,5022 CRYSTAL RIDGE OAKLAND CA 94605,ACTIVE
240,C4065144,420 GAS STATION,2010 W AVE K #130  LANCASTER CA 93536,2010 W AVE K #130  LANCASTER CA 93536,2010 W AVE K #130  LANCASTER CA 93536,CIJI MAURINE ALEX,2010 W AVE K #130 LANCASTER CA 93536,CANCELED
240,C4155566,420 GAS STATION INC.,813 HARBOR BLVD. #112  WEST SACRAMENTO CA 95691,813 HARBOR BLVD. #112  WEST SACRAMENTO CA 95691,813 HARBOR BLVD. #112  WEST SACRAMENTO CA 95691,BLAKE HANSEN,1720 LISBON AVE. WEST SACRAMENTO CA 95605,DISSOLVED
240,C3112529,"54TH STREET GAS STATION, INC.",1401 S BENTLEY AVE #401  LOS ANGELES CA 90025,3227 W 54TH ST  LOS ANGELES CA 90043,3227 W 54TH ST  LOS ANGELES CA 90043,DAVID MELAMED,1401 S BENTLEY AVE #401 LOS ANGELES CA 90025,DISSOLVED
240,C3933840,"710 GAS STATION, A CA NON-PROFIT MUTUAL BENEFIT CORP.",4471 WHITTIER BLVD  EAST LOS ANGELES CA 90022,4471 WHITTIER BLVD  EAST LOS ANGELES CA 90022,4471 WHITTIER BLVD  EAST LOS ANGELES CA 90022,DESTINI HOWELL,4471 WHITTIER BLVD EAST LOS ANGELES CA 90022,SOS SUSPENDED
240,C3441763,A & F GAS STATION INC.,1131 S MAIN ST  SANTA ANA CA 92707,,1131 S MAIN ST  SANTA ANA CA 92707,SALEM ATTLIA,4028 WALNUT AVE LYNWOOD CA 90262,FTB SUSPENDED
240,C3288147,"ARCADIA GAS STATION, INC.",20021 VENTURA BLVD  WOODLAND HILLS CA 91364,20021 VENTURA BLVD  WOODLAND HILLS CA 91364,20021 VENTURA BLVD  WOODLAND HILLS CA 91364,AHMAD N NIKAKHTAR,20021 VENTURA BLVD WOODLAND HILLS CA 91364,ACTIVE
240,201635510512,"ASHLAND GAS STATION, LLC",PO BOX 18590  OAKLAND CA 95619,4370 ARCADIA DRIVE  SAN DIEGO CA 92103,4370 ARCADIA DRIVE  SAN DIEGO CA 92103,JOHN G PRICE,"JRA LAW PARTNERS, LLP, 450 PACIFIC AVE, STE 200 SAN FRANCISCO CA 94133",ACTIVE
240,200115510056,"BEST FIVE GAS STATION, LLC",,7667 E. SLAUSON AVE  CITY OF COMMERCE CA 90040,7667 E. SLAUSON AVE  CITY OF COMMERCE CA 90040,RALPH KIM,7667 E. SLAUSON AVE CITY OF COMMERCE CA 90040,SOS/FTB SUSPENDED
240,200400210135,"CALIFORNIA GAS STATION, L.L.C",,2420 W GRANTLINE RO  TRACY CA 95376,2420 W GRANTLINE RO  TRACY CA 95376,ROSHAN MINHAS,1484 GABLE CT TRACYELL CA 95376,SOS/FTB SUSPENDED
240,201427310451,"CENTRAL VALLEY GAS STATION DEVELOPMENT, LLC",2377 GOLD MEADOW WAY STE 100-13  GOLD RIVER CA 95670,2377 GOLD MEADOW WAY STE 100-13  GOLD RIVER CA 95670,2377 GOLD MEADOW WAY STE 100-13  GOLD RIVER CA 95670,SUNEET SINGAL,101 BARNHART CIRCLE SACRAMENTO CA 95835,FTB FORFEITED
240,200721810096,"CHUMASH CALIFORNIA GAS STATION NO. 1, LLC",PO BOX 517  SANTA YNEZ CA 93460,100 VIA JUANA LN  SANTA YNEZ CA 93460,100 VIA JUANA LN  SANTA YNEZ CA 93460,KENNETH PAUL KAHN,100 VIA JUANA LN SANTA YNEZ CA 93460,ACTIVE
240,200813610291,"CHUMASH CALIFORNIA GAS STATION NO. 2, LLC",PO BOX 517  SANTA YNEZ CA 93460,100 VIA JUANA LN  SANTA YNEZ CA 93460,100 VIA JUANA LN  SANTA YNEZ CA 93460,KENNETH PAUL KAHN,100 VIA JUANA LN SANTA YNEZ CA 93460,CANCELED
240,201118210036,"CHUMASH CALIFORNIA GAS STATION NO. 3, LLC",PO BOX 517  SANTA YNEZ CA 93460,100 VIA JUANA LN  SANTA YNEZ CA 93460,100 VIA JUANA LN  SANTA YNEZ CA 93460,KENNETH PAUL KAHN,100 VIA JUANA LN SANTA YNEZ CA 93460,ACTIVE
240,201328410122,"CITY GILROY GAS STATION, LLC",700 1ST ST  GILROY CA 95020,700 1ST ST  GILROY CA 95020,700 1ST ST  GILROY CA 95020,MADISON N NGUYEN,152 NORTH THIRD ST STE 800 SAN JOSE CA 95112,ACTIVE
240,201618710302,"GAS STATION - EL CAJON, LLC",18 CHAMPIONSHIP PKWY  HAWTHORN WOODS IL 60047,18 CHAMPIONSHIP PKWY  HAWTHORN WOODS IL 60047,18 CHAMPIONSHIP PKWY  HAWTHORN WOODS IL 60047,MICHAEL BERK,4 SILVER CIR RANCHO MIRAGE CA 92270,ACTIVE
240,201720810619,"GAS STATION 420, LLC",3500 VIA REAL  CARPINTERIA CA 93013,3500 VIA REAL  CARPINTERIA CA 93013,3500 VIA REAL  CARPINTERIA CA 93013,JASON WILSON,3500 VIA REAL CARPINTERIA CA 93013,ACTIVE
241,C2023958,"PMDL & COMPANY, INC.",777 E TAHQUITZ CANYON #200-42  PALM SPRINGS CA 92262,777 E TAHQUITZ CANYON #200-42  PALM SPRINGS CA 92262,777 E TAHQUITZ CANYON #200-42  PALM SPRINGS CA 92262,PIERRE LEMIEUX,777 E TAHQUITZ CANYON #200-42 PALM SPRINGS CA 92262,ACTIVE
242,C0787853,"RALPH'S PHARMACY, INC.",2766 FORRESTER DR  LOS ANGELES CA 90064,,2766 FORRESTER DR  LOS ANGELES CA 90064,RALPH SWARTZ,2766 FORRESTER DR LOS ANGELES CA 90064,FTB SUSPENDED
244,200017810183,"AMERICA INSHAPE, LLC",,429 WEST PLUMB LANE  RENO NV 89509,429 WEST PLUMB LANE  RENO NV 89509,ALAN DANIELS,302 DONNER AVE VENTURA CA 93003,CANCELED
244,200300710090,"INSHAPE, LLC.",,3133 FRONTERA WY STE 103  BURLINGAME CA 94010,3133 FRONTERA WY STE 103  BURLINGAME CA 94010,JUSTIN BROWN,3133 FRONTERA WY STE 103 BURLINGAME CA 94010,FTB SUSPENDED
247,C3417083,AZTLAN CASINO RESORT AND SPA,6551 FRY ST  BELL GARDENS CA 90201,,6551 FRY ST  BELL GARDENS CA 90201,ROBERTO VALENZUELA,6551 FRY ST BELL GARDENS CA 90201,FTB SUSPENDED
248,C0548527,STATER BROS. MARKETS,301 SOUTH TIPPECANOE AVENUE  SAN BERNARDINO CA 92408,301 SOUTH TIPPECANOE AVENUE  SAN BERNARDINO CA 92408,301 SOUTH TIPPECANOE AVENUE  SAN BERNARDINO CA 92408,BRUCE D. VARNER,"3750 UNIVERSITY AVENUE, SUITE 610 RIVERSIDE CA 92501",ACTIVE
248,C0352742,STATER BROS. MARKETS,,,,,,MERGED OUT
260,C2398170,"PLAY STATION FOR CHEEKY MONKEYS, INC.",10800 W PICO BLVD STE 271  LOS ANGELES CA 90064,10800 W PICO BLVD STE 271  LOS ANGELES CA 90064,10800 W PICO BLVD STE 271  LOS ANGELES CA 90064,WALLACE ALAN HARVEY,10800 W PICO BLVD STE 271 LOS ANGELES CA 90064,SOS/FTB SUSPENDED
263,201827110139,GEIGER'S LONG VALLEY MARKET LLC,44951 US HWY 101  LAYTONVILLE CA 95454,44951 US HWY 101  LAYTONVILLE CA 95454,44951 US HWY 101  LAYTONVILLE CA 95454,MICHAEL  BRAUGHT,44951 US HWY 101 LAYTONVILLE CA 95454,ACTIVE
278,C1854224,"HUB LIQUOR, INC.",2118 WINTERHAVEN DRIVE  WINTERHAVEN CA 92283,2118 WINTERHAVEN DRIVE  WINTERHAVEN CA 92283,2118 WINTERHAVEN DRIVE  WINTERHAVEN CA 92283,GARY ALLEN JAMES,2118 WINTERHAVEN DRIVE WINTERHAVEN CA 92283,DISSOLVED
278,C3625835,"HUB LIQUOR, INC.",1542 SAN FERNANDO RD  SAN FERNANDO CA 91340,1542 SAN FERNANDO RD  SAN FERNANDO CA 91340,1542 SAN FERNANDO RD  SAN FERNANDO CA 91340,FAYAD TAKLA,1542 SAN FERNANDO RD SAN FERNANDO CA 91340,ACTIVE
302,C3247182,"001 SMOKE SHOP, INC.","2815 W SUNSET BLVD, STE 107  LOS ANGELES CA 90026","2815 W SUNSET BLVD, STE 107  LOS ANGELES CA 90026","2815 W SUNSET BLVD, STE 107  LOS ANGELES CA 90026",ARMINE BABAYAN,750 GLENVIA ST APT 314 GLENDALE CA 91206,ACTIVE
302,C4183467,"1 STOP SMOKE SHOP & MORE, INC.",2221 SCENIC DR  MODESTO CA 95355,2221 SCENIC DR  MODESTO CA 95355,2221 SCENIC DR  MODESTO CA 95355,EMAD MOHSEN,3654 WHITEHAVEN AVE CERES CA 95307,ACTIVE
302,C3506874,"101 SMOKE SHOP, INC.",3266 W CAHUENGA BLVD  LOS ANGELES CA 90068,3266 W CAHUENGA BLVD  LOS ANGELES CA 90068,3266 W CAHUENGA BLVD  LOS ANGELES CA 90068,ARUTYUN KEPENYAN,3266 W CAHUENGA BLVD LOS ANGELES CA 90068,DISSOLVED
302,C2611394,"29 SMOKE SHOP, INC.","71757 29 PALMS HWY, #D  TWENTYNINE PALMS CA 92277","71757 29 PALMS HWY, #D  TWENTYNINE PALMS CA 92277","71757 29 PALMS HWY, #D  TWENTYNINE PALMS CA 92277",ELIZABETH PRIETO,5494 MORONGO RD 29 PALMS CA 92277,DISSOLVED
302,C4121558,888 SMOKE SHOP,11722 SALVIA ST  JURUPA VALLEY CA 91752,11722 SALVIA ST  JURUPA VALLEY CA 91752,11722 SALVIA ST  JURUPA VALLEY CA 91752,SAURAB KUMAR,11722 SALVIA ST JURUPA VALLEY CA 91752,ACTIVE
302,C3670208,A2Z SMOKE SHOP,213 S VERMONT AVE  LOS ANGELES CA 93110,213 S VERMONT AVE  LOS ANGELES CA 90004,213 S VERMONT AVE  LOS ANGELES CA 90004,SAHAK VARDANYAN,213 S VERMONT AVE LOS ANGELES CA 90004,ACTIVE
302,C4121435,AA SMOKE SHOP INC,2334 FLETCHER DR  LOS ANGELES CA 90039,2334 FLETCHER DR  LOS ANGELES CA 90039,2334 FLETCHER DR  LOS ANGELES CA 90039,DAVID AVETISYAN,2334 FLETCHER DR LOS ANGELES CA 90039,ACTIVE
302,C4133996,"AA SMOKE SHOP PLUS, INC.",4213 MCHENRY AVE  MODESTO CA 95356,4213 MCHENRY AVE  MODESTO CA 95356,4213 MCHENRY AVE  MODESTO CA 95356,BASMA MUTHANA,4213 MCHENRY AVE MODESTO CA 95356,ACTIVE
302,C4203433,"ABC SMOKE SHOP, INC.",5621 BALBOA AVE  SAN DIEGO CA 92111,5621 BALBOA AVE  SAN DIEGO CA 92111,5621 BALBOA AVE  SAN DIEGO CA 92111,MELAD SHABA,5621 BALBOA AVE SAN DIEGO CA 92111,ACTIVE
302,C3680656,"ALEX SMOKE SHOP & MINI MART, INC",718 N LA BREA AVE  INGLEWOOD CA 90302,718 N LA BREA AVE  INGLEWOOD CA 90302,718 N LA BREA AVE  INGLEWOOD CA 90302,ELSADIG BASHIR,718 N LA BREA AVE INGLEWOOD CA 90302,DISSOLVED
302,201605410153,"1 STOP SMOKE SHOP & MORE, LLC",2221 SCENIC DRIVE  MODESTO CA 95355-4502,2221 SCENIC DRIVE  MODESTO CA 95355-4502,2221 SCENIC DRIVE  MODESTO CA 95355-4502,ZINAH QASEM,1133 N CARPENTER RD MODESTO CA 95351,ACTIVE
302,201610310529,1STOP SMOKE SHOP LLC,6311 VAN NUYS BLVD #418  VAN NUYS CA 91401,6311 VAN NUYS BLVD #418  VAN NUYS CA 91401,6311 VAN NUYS BLVD #418  VAN NUYS CA 91401,DERRICK WILLIAMS,15540 SHERMAN WAY #14 VAN NUYS CA 91406,SOS/FTB SUSPENDED
302,201513910589,3 BROS SMOKE SHOP LLC,10750 GLENOAKS BLVD #2  PACOIMA CA 91331,10750 GLENOAKS BLVD #2  PACOIMA CA 91331,10750 GLENOAKS BLVD #2  PACOIMA CA 91331,SARKIS GURYUNLYAN,10750 GLENOAKS BLVD #2 PACOIMA CA 91331,SOS/FTB SUSPENDED
302,201507810175,"3 KINGZ SMOKE SHOP, LLC",7453 OAKWOOD AVE  LOS ANGELES CA 90036,7453 OAKWOOD AVE  LOS ANGELES CA 90036,7453 OAKWOOD AVE  LOS ANGELES CA 90036,ERICK GURROLA,7453 OAKWOOD AVE LOS ANGELES CA 90036,SOS/FTB SUSPENDED
302,201326210162,"710 BLUNTS AND STUFF SMOKE SHOP, LLC",1501 E LINCOLN  ANAHEIM CA 92805,1501 E LINCOLN  ANAHEIM CA 92805,1501 E LINCOLN  ANAHEIM CA 92805,MALCOLM EQUINOA,1501 E LINCOLN ANAHEIM CA 92805,SOS/FTB SUSPENDED
302,201700510303,A TO Z SMOKE SHOP AND MINI MART LLC,5067 LOGAN AVE  SAN DIEGO CA 92113,5067 LOGAN AVE  SAN DIEGO CA 92113,5067 LOGAN AVE  SAN DIEGO CA 92113,MENA W SALAMA,5067 LOGAN AVE SAN DIEGO CA 92113,ACTIVE
302,200101310012,"ADAMS SMOKE SHOP, LLC.",,3546 ADAMS ST  RIVERSIDE CA 92504,3546 ADAMS ST  RIVERSIDE CA 92504,HISHAM ZAAI,3546 ADAMS ST RIVERSIDE CA 92504,FTB SUSPENDED
302,201810210324,"ANOTHER SMOKE SHOP, LLC",13134 DAY ST #F301  MORENO VALLEY CA 92553,13134 DAY ST #F301  MORENO VALLEY CA 92553,13134 DAY ST #F301  MORENO VALLEY CA 92553,,,ACTIVE
302,201234910008,"AREA 51 SMOKE SHOP, LLC",1001 SOUTH CENTRAL AVE  GLENDALE CA 91204-2210,1001 SOUTH CENTRAL AVE  GLENDALE CA 91204-2210,1001 SOUTH CENTRAL AVE  GLENDALE CA 91204-2210,RAHEEL LAKHANY,1001 SOUTH CENTRAL AVE GLENDALE CA 91204-2210,ACTIVE
302,200923310084,"ARTESIA BOULEVARD SMOKE SHOP, LLC",,2801 E ARTESIA BOULEVARD UNIT A  LONG BEACH CA 90805,2801 E ARTESIA BOULEVARD UNIT A  LONG BEACH CA 90805,TING YUAN TAO,2801 E ARTESIA BOULEVARD UNIT A LONG BEACH CA 90805,FTB SUSPENDED
309,C4067380,"11TH STREET CHEVRON, INC.",1294 DALTON STREET  TULARE CA 93274,1294 DALTON STREET  TULARE CA 93274,1294 DALTON STREET  TULARE CA 93274,MUSSA M KAID,1294 DALTON STREET TULARE CA 93274,ACTIVE
309,C1152140,ADAM'S CHEVRON SERVICE,2505 PRIMROSE LANE  UPLAND CA 91786,2505 PRIMROSE LANE  UPLAND CA 91786,2505 PRIMROSE LANE  UPLAND CA 91786,ALBERT ADAM,2505 PRIMROSE LANE UPLAND CA 91786,DISSOLVED
309,C3311410,"ADOBE ROAD CHEVRON, INC.",8747 SHASTA LILY WAY  ELK GROVE CA 95758,8747 SHASTA LILY WAY  ELK GROVE CA 95758,8747 SHASTA LILY WAY  ELK GROVE CA 95758,** RESIGNED ON 01/29/2018,* ,FTB SUSPENDED
309,C0964842,"AIRPORT CHEVRON AND TOWING, INC.",561 BUENA VISTA AVE  OXNARD CA 93030-5103,561 BUENA VISTA AVE  OXNARD CA 93030-5103,561 BUENA VISTA AVE  OXNARD CA 93030-5103,GARY LEE NORRIS,561 BUENA VISTA AVE OXNARD CA 93030-5103,ACTIVE
309,C1022774,"AL JENSEN CHEVRON, INC.",1056 LORRAINE DR  REDDING CA 96002,1056 LORRAINE DR  REDDING CA 96002,1056 LORRAINE DR  REDDING CA 96002,A E JENSEN,1056 LORRAINE DR REDDING CA 96002,DISSOLVED
309,C0580001,"ALDERSON'S CHEVRON STATION, INC.",,,,,,FTB SUSPENDED
309,C1094286,"ALLIED GARDENS CHEVRON, INC.",8692 LA MESA BLVD  LA MESA CA 92041,,8692 LA MESA BLVD  LA MESA CA 92041,CHESLEY J GENTRY,88 VALLECITO WY CHULA VISTA CA 92010,DISSOLVED
309,C2527546,"ALONDRA CHEVRON, INC.",840 N BROADWAY STE 202  LA CA 90012,6602 ALONDRA BL  PARAMOUNT CA 90723,6602 ALONDRA BL  PARAMOUNT CA 90723,SANG M LIM,6602 ALONDRA BL PARAMOUNT CA 90723,DISSOLVED
309,C4230553,"ALTADENA CHEVRON SERVICE CENTER, INC.",907 E ALTADENA DR  ALTADENA CA 91001,907 E ALTADENA DR  ALTADENA CA 91001,907 E ALTADENA DR  ALTADENA CA 91001,FAWZI FAKHOURY,5819 TEMPLE CITY BLVD TEMPLE CITY CA 91780,ACTIVE
309,C3433863,ALTURAS CHEVRON INC.,1080 N MAIN ST  ALTURAS CA 96101,1080 N MAIN ST  ALTURAS CA 96101,1080 N MAIN ST  ALTURAS CA 96101,MANPREET SINGH KAHLON,153 COLLEGE HILL WAY YUBA CITY CA 95993,ACTIVE
309,198432100004,"70TH STREET CHEVRON, A CALIFORNIA LIMITED PARTNERSHIP",,6992 EL CAJON BLVD.  SAN DIEGO CA 92115,6992 EL CAJON BLVD.  SAN DIEGO CA 92115,HILBERT MURILLO,6992 EL CAJON BLVD. SAN DIEGO CA 92115,ACTIVE
309,200214010053,"ADLY'S CHEVRON, LLC",,9030 NATIONAL BLVD  LOS ANGELES CA 90034,9030 NATIONAL BLVD  LOS ANGELES CA 90034,ADLY ABDELMALAK,9030 NATIONAL BLVD LOS ANGELES CA 90034,CANCELED
309,198422900099,"ADOBE FALLS CHEVRON SERVICE, A CALIFORNIA LIMITED PARTNERSHIP",,4525 WARING RD.  SAN DIEGO CA 92120,4525 WARING RD.  SAN DIEGO CA 92120,DENNIS LAMBERT SWANSON,2215 LINCOLN AVE. SAN DIEGO CA 92104,ACTIVE
309,198415600154,BOB RISNER CHEVRON,,2501 EAST LINCOLN  ANAHEIM CA 92800,2501 EAST LINCOLN  ANAHEIM CA 92800,KEITH VAN HOESEN,5992 WESTMINSTER AVENUE WESTMINSTER CA 92683,CANCELED
309,200807400009,CHESTER CHEVRON L.P.,,225 MAIN STREET  CHESTER CA 96020,225 MAIN STREET  CHESTER CA 96020,MAIN SINGH,16 E SIERRA STREET PORTOLA CA 96122,ACTIVE
309,199733510017,CHEVRON CHEMICAL COMPANY LLC,,575 MARKET STREET  SAN FRANCISCO CA 94105,575 MARKET STREET  SAN FRANCISCO CA 94105,H P WALKER,575 MARKET STREET SAN FRANCISCO  94105,CANCELED
309,198418200727,CHEVRON CONSTRUCTION CO,,"2120 WILSHIRE BLVD,. STE. 200  SANTA MONICA CA 90403","2120 WILSHIRE BLVD,. STE. 200  SANTA MONICA CA 90403",MARIO MORY,"2120 WILSHIRE BLVD., STE. 200 SANTA MONICA CA 90403",CANCELED
309,199931410061,CHEVRON EBUSINESS DEVELOPMENT COMPANY LLC,,6001 BOLILNGER CANYON ROAD  SAN RAMON CA 94583,6001 BOLILNGER CANYON ROAD  SAN RAMON CA 94583,THE PRENTICE-HALL CORPORATION SYSTEM INC,* ,CANCELED
309,200015200015,CHEVRON ENERGY SOLUTIONS L.P.,,575 MARKET ST  SAN FRANCISCO CA 94105,575 MARKET ST  SAN FRANCISCO CA 94105,,,CANCELED
309,199914010075,CHEVRON EUROPEAN HOLDINGS LLC,6001 BOLLINGER CANYON RD V2322A  SAN RAMON CA 94583,6001 BOLLINGER CANYON RD  SAN RAMON CA 94583,6001 BOLLINGER CANYON RD  SAN RAMON CA 94583,,,CANCELED
314,C3097535,"CONNOR CARDLOCK, INC.",P O BOX 376  HAPPY CAMP CA 96039,63708 HWY 96  HAPPY CAMP CA 96039,63708 HWY 96  HAPPY CAMP CA 96039,DARRIN W MERCIER,409 W CENTER ST YREKA CA 96097,ACTIVE
314,199711910038,"CONNOR CARDLOCK, LLC",,63708 HWY. 96  HAPPY CAMP CA 96039,63708 HWY. 96  HAPPY CAMP CA 96039,PAUL S. CONNOR,63708 HWY 96 HAPPY CAMP CA 96039,CANCELED
339,C3420874,EAGLE FEATHER TRADING POST #2 INC.,40103 HIGHWAY 33  KETTLEMAN CITY CA 93239,,40103 HIGHWAY 33  KETTLEMAN CITY CA 93239,FRED GRUND,780 YOWLUMNE AVE STE A PORTERVILLE CA 93257,DISSOLVED
340,C3420874,EAGLE FEATHER TRADING POST #2 INC.,40103 HIGHWAY 33  KETTLEMAN CITY CA 93239,,40103 HIGHWAY 33  KETTLEMAN CITY CA 93239,FRED GRUND,780 YOWLUMNE AVE STE A PORTERVILLE CA 93257,DISSOLVED
355,200826900014,CIGARETTE PALACE L.P.,,200 N 'G' STREET  PORTERVILLE CA 93257,200 N 'G' STREET  PORTERVILLE CA 93257,ANWER BALOCH,200 N 'G' STREET PORTERVILLE CA 93257,ACTIVE
356,C3243157,CIGARETTES 4 LESS INC.,6277 BALL RD.  CYPRESS CA 90630,6277 BALL RD.  CYPRESS CA 90630,6277 BALL RD.  CYPRESS CA 90630,SULAIMAN GHANAIMEH,"6277 BALL RD, CYPRESS CA 90630",DISSOLVED
356,C4217994,CIGARETTES FOR LESS,901 N CARPENTER RD STE 8  MODESTO CA 95351,901 N CARPENTER RD STE 8  MODESTO CA 95351,901 N CARPENTER RD STE 8  MODESTO CA 95351,GURMUKH SINGH KAHLON,901 N CARPENTER RD STE 8 MODESTO CA 95351,ACTIVE
356,C2016377,"CIGARETTES FOR LESS, INC.",9662 WINTER GARDEN BLVD STE A  LAKESIDE CA 92040,9662 WINTER GARDEN BLVD STE A  LAKESIDE CA 92040,9662 WINTER GARDEN BLVD STE A  LAKESIDE CA 92040,LOUIE HAMI,9662 WINTER GARDEN BLVD STE A LAKESIDE CA 92040,DISSOLVED
356,C3473297,DESERT CIGARETTES 4 LESS INC.,135 W POLK  COALINGA CA 93210,135 W POLK  COALINGA CA 93210,135 W POLK  COALINGA CA 93210,MAHER ABOU KHZAM,1366 DEERPARK DR #69 FULLERTON CA 92831,FTB SUSPENDED
356,200026210003,"S & K CIGARETTES 4 LESS, LLC",,2112 W WHITTIER BLVD STE 101  MONTEBELLO CA 90640,2112 W WHITTIER BLVD STE 101  MONTEBELLO CA 90640,KARAM TOUMA,2112 W WHITTIER BLVD STE 101 MONTEBELLO CA 90640,FTB SUSPENDED
360,C4026209,INTERNATIONAL LIQUORS & TOBACCO TRADING (ILTT) OF NORTH AMERICA,707 W 168TH STREET  GARDENA CA 90247,707 W 168TH STREET  GARDENA CA 90247,707 W 168TH STREET  GARDENA CA 90247,MARVIN BON,707 W 168TH STREET GARDENA CA 90247,ACTIVE
360,C2512718,"INTERNATIONAL TOBACCO TRADING, INC.",1246 EAST MAIN ST #112  EL CAJON CA 92021,1246 EAST MAIN ST #112  EL CAJON CA 92021,1246 EAST MAIN ST #112  EL CAJON CA 92021,ABIER KALASHO,1246 EAST MAIN ST #112 EL CAJON CA 92021,FTB SUSPENDED
363,C4207636,EMPIRE SMOKE & VAPE,27140 SHADEL ROAD  MENIFEE CA 92586,27140 SHADEL ROAD  MENIFEE CA 92586,27140 SHADEL ROAD  MENIFEE CA 92586,KHAMES ABDELRAHMAN,27140 SHADEL ROAD MENIFEE CA 92586,ACTIVE
363,C4217311,EMPIRE SMOKE SHOP INC,304 PETALUMA BLVD N  PETALUMA CA 94952,304 PETALUMA BLVD N  PETALUMA CA 94952,304 PETALUMA BLVD N  PETALUMA CA 94952,KAMEL ASFOUR,304 PETALUMA BLVD N PETALUMA CA 94952,ACTIVE
364,C0452898,'S NO SPOT CORP.,1230 J STREET  SACRAMENTO CA 95814,,1230 J STREET  SACRAMENTO CA 95814,,,SOS SUSPENDED
364,C2805274,2 CLEAN EVERY SPOT INC.,17227 GARDENLAND AVE  BELLFLOWER CA 90706,17227 GARDENLAND AVE  BELLFLOWER CA 90706,17227 GARDENLAND AVE  BELLFLOWER CA 90706,JANIS MARIE PERKINS,17227 GARDENLAND AVE BELLFLOWER CA 90706,ACTIVE
364,C3433012,"20 SPOT MANAGEMENT, INC.",3565 20TH ST  SAN FRANCISCO CA 94110,3565 20TH ST  SAN FRANCISCO CA 94110,3565 20TH ST  SAN FRANCISCO CA 94110,ROBERTA ECONOMIDIS,235 MONTGOMERY ST STE 600 SAN FRANCISCO CA 94104,ACTIVE
364,C2972771,"5 SPOT CHIVAS GRILL, INC.",1541 NORMAN AVE  SAN JOSE CA 95125,1541 NORMAN AVE  SAN JOSE CA 95125,1541 NORMAN AVE  SAN JOSE CA 95125,ROSA DURAN,1541 NORMAN AVE SAN JOSE CA 95125,ACTIVE
364,C0704690,A & P SPOT BLENDING SERVICE,16337 KENNARD STREET  HACIENDA HEIGHTS CA 91745,,16337 KENNARD STREET  HACIENDA HEIGHTS CA 91745,EDWARD ROBERT SMITH,16337 KENNARD ST HACIENDA HEIGHTS CA 91745,FTB SUSPENDED
364,C3248949,A SPOT IN HEAVEN,715 GOODSON DR  LA PUENTE CA 91744,715 GOODSON DR  LA PUENTE CA 91744,715 GOODSON DR  LA PUENTE CA 91744,KELLY LIEN,715 GOODSON DR LA PUENTE CA 91744,DISSOLVED
364,C3501466,"A SPOT IN THE SUN, INC.",2148 STANLEY HILLS DR  LOS ANGELES CA 90046,2148 STANLEY HILLS DR  LOS ANGELES CA 90046,2148 STANLEY HILLS DR  LOS ANGELES CA 90046,MATTHEW A FRIEDMAN,2148 STANLEY HILLS DR LOS ANGELES CA 90046,DISSOLVED
364,C0608098,"ABC RADIO SPOT SALES, INC.",1330 AVE OF AMERICAS  NEW YORK NY 10032,,1330 AVE OF AMERICAS  NEW YORK NY 10032,,,SURRENDER
364,C0320633,"ALLOY SPOT WELDERS, INC.",P. O. BOX 25975  LOS ANGELES CA 90025,,P. O. BOX 25975  LOS ANGELES CA 90025,HARRY C FEICK,2035 GRANVILLE AVE LOS ANGELES CA 90025,DISSOLVED
364,C1338951,"ALLOY SPOT WELDERS, INC., II",626 WILSHIRE BLVD #700  LOS ANGELES CA 90017,,626 WILSHIRE BLVD #700  LOS ANGELES CA 90017,MARK G ANCEL,626 WILSHIRE BLVD STE 700 LOS ANGELES CA 90017,DISSOLVED
364,201130210464,"20 SPOT MISSION, LLC",3565 20TH ST  SAN FRANCISCO CA 94110,3565 20TH ST  SAN FRANCISCO CA 94110,3565 20TH ST  SAN FRANCISCO CA 94110,ROBERTA ECONOMIDIS,235 MONTGOMERY ST STE 600 SAN FRANCISCO CA 94104,ACTIVE
364,201329110099,3 SPOT DOMAINS LLC,1712 PIONEER AVE STE 142  CHEYENNE WY 82001,1712 PIONEER AVE STE 142  CHEYENNE WY 82001,1712 PIONEER AVE STE 142  CHEYENNE WY 82001,(AGENT RESIGNED 10/22/2014),* ,CANCELED
364,201825010243,"A CONSULTING SPOT, LLC",8003 BRIMFIELD AVE  PANORAMA CITY CA 91402,8003 BRIMFIELD AVE  PANORAMA CITY CA 91402,8003 BRIMFIELD AVE  PANORAMA CITY CA 91402,,,ACTIVE
364,201826710052,ABA SPOT LLC,920 SARATOGA AVENUE SUITE 102  SAN JOSE CA 95129,920 SARATOGA AVENUE SUITE 102  SAN JOSE CA 95129,920 SARATOGA AVENUE SUITE 102  SAN JOSE CA 95129,SAMRAT S ROY,2421 MONROE STREET SANTA CLARA CA 95051,ACTIVE
364,201335710463,"ACOUSTIC SPOT LLC, THE",930 VIA MIL CUMBRES #216  SOLANA BEACH CA 92075,930 VIA MIL CUMBRES #216  SOLANA BEACH CA 92075,930 VIA MIL CUMBRES #216  SOLANA BEACH CA 92075,JOSHUA WILLIFORD,930 VIA MIL CUMBRES #216 SOLANA BEACH CA 92075,ACTIVE
364,201007810076,ACTING SPOT LLC,7080 HOLLYWOOD BLVD. STE. 100  LOS ANGELES CA 90028,7080 HOLLYWOOD BLVD. STE. 100  LOS ANGELES CA 90028,7080 HOLLYWOOD BLVD. STE. 100  LOS ANGELES CA 90028,NELSON PAREDEZ,6230 WILSHIRE BLVD  #189 LOS ANGELES CA 90048,CANCELED
364,200714910033,AD SPOT NETWORK LLC,,3211 ADELANTO LANE  SAN JOSE CA 95135,3211 ADELANTO LANE  SAN JOSE CA 95135,SAM TRINH,1590 OAKLAND RD #B-100 SAN JOSE CA 95131,CANCELED
364,201330810222,ADS ON THE SPOT LLC,PO BOX 2122  MONROVIA CA 91017,14730 GENESEE RD  APPLE VALLEY CA 92307,14730 GENESEE RD  APPLE VALLEY CA 92307,ABRAHAM GRAIR,720 FOOTHILL BLVD APT #6 MONROVIA CA 91017,CANCELED
364,201106110483,"ALAMEDA'S SEE SPOT RUN, LLC",3216 GARFIELD AVE  ALAMEDA CA 94501,2510 SANTA CLARA AVE  ALAMEDA CA 94501,2510 SANTA CLARA AVE  ALAMEDA CA 94501,,,ACTIVE
364,201804510331,"ALEXIS MARKS THE SPOT VACATIONS, LLC",4335 VINELAND AVE. APT 112  STUDIO CITY CA 91602,4335 VINELAND AVE. APT 112  STUDIO CITY CA 91602,4335 VINELAND AVE. APT 112  STUDIO CITY CA 91602,,,ACTIVE
365,C0410696,"THE TINDER BOX INTERNATIONAL, LTD.",391 W. LANCASTER AVE  HAVERFORD PA 19041,391 W. LANCASTER AVE  HAVERFORD PA 19041,391 W. LANCASTER AVE  HAVERFORD PA 19041,,,ACTIVE
365,200229010120,"TINDER BOX WHOLESALE, LLC",,3 BALA PLAZA EAST STE 102  BALALYNWYD PA 19004,3 BALA PLAZA EAST STE 102  BALALYNWYD PA 19004,**AGT RESIGNED EFF. 7/23/07**,* ,FTB FORFEITED
368,201706610521,"BOB'S ONE STOP SHOP, LLC",16430 MAIN ST  GUERNEVILLE CA 95446,16430 MAIN ST  GUERNEVILLE CA 95446,16430 MAIN ST  GUERNEVILLE CA 95446,VINCENT SOTO,16430 MAIN ST GUERNEVILLE CA 95446,ACTIVE
1932,C2543240,"CVS PHARMACY, INC.","ONE CVS DRIVE, LEGAL DEPT.  WOONSOCKET RI 02895",ONE CVS DRIVE  WOONSOCKET RI 02895,ONE CVS DRIVE  WOONSOCKET RI 02895,,,ACTIVE
1932,200522210067,"CALIFORNIA CVS PHARMACY, L.L.C.",,ONE CVS DR  WOONSOCKET RI 02895,ONE CVS DR  WOONSOCKET RI 02895,,,MERGED OUT
1954,C2830626,WHITE CROSS PHARMACY INC.,1412 W. GLENOAKS BLVD #E  GLENDALE CA 91201,,1412 W. GLENOAKS BLVD #E  GLENDALE CA 91201,MART ROTH,1412 W. GLENOAKS BLVD. #E GLENDALE CA 91201,SOS/FTB SUSPENDED
1954,C0533996,"WHITE CROSS PHARMACY, INC.",42851 15TH ST WEST RM #2  LANCASTER CA 93534,,42851 15TH ST WEST RM #2  LANCASTER CA 93534,,,FTB SUSPENDED
1962,C4063688,"PALM LIQUOR & DELI, INC.",44345 MARIGOLD LN  LA QUINTA CA 92253,440 S EL CIELO RD B1 & B2  PALM SPRINGS CA 92262,440 S EL CIELO RD B1 & B2  PALM SPRINGS CA 92262,ABDULMASSIH DOURGHALLI,44345 MARIGOLD LN LA QUINTA CA 92253,ACTIVE
1966,C3112206,FIESTA MARKET CORP.,110 DEMPSEY ROAD  MILPITAS CA 95035,110 DEMPSEY ROAD  MILPITAS CA 95035,110 DEMPSEY ROAD  MILPITAS CA 95035,MAYELA DOMINGUEZ,110 DEMPSEY ROAD MILPITAS CA 95035,FTB SUSPENDED
1966,C1031491,"FIESTA MARKET, INC.",452 N LOS ROBLES  PASADENA CA 91101,452 N LOS ROBLES  PASADENA CA 91101,452 N LOS ROBLES  PASADENA CA 91101,DENNIS M WILKIN,452 N LOS ROBLES PASADENA CA 91101,SOS/FTB SUSPENDED
1966,C4131941,"FIESTA MEAT MARKET, INC.",6746 ELK GROVE-FLORIN RD  ELK GROVE CA 95624,6746 ELK GROVE-FLORIN RD  ELK GROVE CA 95624,6746 ELK GROVE-FLORIN RD  ELK GROVE CA 95624,MAYRA S CUEVAS,504 E DR MLK JR BLVD STOCKTON CA 92506,ACTIVE
1966,C3072938,"LA FIESTA GRANDE MARKET, INC.",343 RICHMAR AVE  SAN MARCOS CA 92069,343 RICHMAR AVE  SAN MARCOS CA 92069,343 RICHMAR AVE  SAN MARCOS CA 92069,ROBERT Y MARCOS,343 RICHMAR AVE SAN MARCOS CA 92069,DISSOLVED
1966,C3952347,LA FIESTA MARKET INC.,307 S. MADERA AVE  KERMAN CA 93630,307 S. MADERA AVE  KERMAN CA 93630,307 S. MADERA AVE  KERMAN CA 93630,AMER NACKOUD,24301 1/2 MAIN ST NEWHALL CA 91321,ACTIVE
1966,C2442834,LA FIESTA MEAT MARKET,15020 S HAWTHORNE BLVD STE H  LAWNDALE CA 90260,15020 S HAWTHORNE BLVD STE H  LAWNDALE CA 90260,15020 S HAWTHORNE BLVD STE H  LAWNDALE CA 90260,MARTIN RAMIREZ-TROCHE,4060 W 134TH ST HAWTHORNE CA 90250,FTB SUSPENDED
1966,C3231140,LA FIESTA MEAT MARKET INC.,15020 HAWTHORNE BLVD STE H  LAWNDALE CA 90260,15020 HAWTHORNE BLVD STE H  LAWNDALE CA 90260,15020 HAWTHORNE BLVD STE H  LAWNDALE CA 90260,MARTIN RAMIREZ TROCHE,15020 HAWTHORNE BLVD STE H LAWNDALE CA 90260,SOS SUSPENDED
1966,C3842377,"LA FIESTA MEXICANA MARKET, INC",620 PORT CHICAGO HWY  BAY POINT CA 94565,620 PORT CHICAGO HWY  BAY POINT CA 94565,620 PORT CHICAGO HWY  BAY POINT CA 94565,ADAM BLAIR CORREN,"5345 N. EL DORADO ST, SUITE 7 STOCKTON CA 95207",ACTIVE
1966,C3010356,"MI FIESTA MARKET IV, INC.",291 ARAPAHO STREET  VENTURA CA 93001,291 ARAPAHO STREET  VENTURA CA 93001,291 ARAPAHO STREET  VENTURA CA 93001,ELIAN HANNA,291 ARAPAHO STREET VENTURA CA 93001,DISSOLVED
1966,C4114865,"MI FIESTA MARKET, INC.",410 S SALINAS ST  SANTA BARBARA CA 93103,410 S SALINAS ST  SANTA BARBARA CA 93103,410 S SALINAS ST  SANTA BARBARA CA 93103,ELIAN HANNA,410 S SALINAS ST SANTA BARBARA CA 93103,ACTIVE
1966,199600500003,"FIESTA MEXICANA MARKET, L.P.",8141 E KAISER BLVD STE 203  ANAHEIM HILLS CA 92808,8141 E KAISER BLVD STE 203  ANAHEIM HILLS CA 92808,8141 E KAISER BLVD STE 203  ANAHEIM HILLS CA 92808,ANGEL BEN BEQUER,1950 S. STERLING AVENUE ONTARIO CA 91761-7636,CANCELED
1966,200611000001,"LA FIESTA MARKET ""L.P.""",,430 S. MAIN ST.  LAKEPORT CA 95453,430 S. MAIN ST.  LAKEPORT CA 95453,MANUEL GARCIA,38 BRANNAN ST APT. #105 CALISTOGA CA 94515,ACTIVE
1970,C2367993,RITE AID CORPORATION,30 HUNTER LANE  CAMP HILL PA 17011,30 HUNTER LANE  CAMP HILL PA 17011,30 HUNTER LANE  CAMP HILL PA 17011,,,ACTIVE
1970,C2349501,RITE AID HDQTRS. CORP.,PO BOX 839  CAMP HILL PA 17001,30 HUNTER LANE  CAMP HILL PA 17011,30 HUNTER LANE  CAMP HILL PA 17011,,,ACTIVE
1970,C0490237,RITE AID LEASE MANAGEMENT COMPANY,PO BOX 839  CAMP HILL PA 17001,30 HUNTER LANE  CAMP HILL PA 17011,30 HUNTER LANE  CAMP HILL PA 17011,,,ACTIVE
1970,C2083663,RITE AID REALTY CORP.,30 HUNTER LANE  CAMP HIL PA 17011,30 HUNTER LANE  CAMP HIL PA 17011,30 HUNTER LANE  CAMP HIL PA 17011,,,ACTIVE
1970,C4018758,RITE AID ROOTER INC,8675 NAGLE AVE  PANORAMA CITY CA 91402,8675 NAGLE AVE  PANORAMA CITY CA 91402,8675 NAGLE AVE  PANORAMA CITY CA 91402,KARAPET TAGARYAN,8675 NAGLE AVE PANORAMA CITY CA 91402,ACTIVE
1970,C2071407,"RITE AID TRANSPORT, INC.",PO BOX 839  CAMP HILL PA 17001,30 HUNTER LANE  CAMP HILL PA 17011,30 HUNTER LANE  CAMP HILL PA 17011,,,ACTIVE
1970,200222500010,"B.A.G. RITE AID #188, L.P.",10100 CULVER BLVD STE D  CULVER CITY CA 90232,10100 CULVER BLVD STE D  CULVER CITY CA 90232,10100 CULVER BLVD STE D  CULVER CITY CA 90232,ALAN J GINDI,10100 CULVER BLVD STE D CULVER CITY CA 90232,ACTIVE
1970,201316910587,"BRIXTON RITE AID - DAYTON #2, LLC",4435 EASTGATE MALL STE 300  SAN DIEGO CA 92121,4435 EASTGATE MALL STE 300  SAN DIEGO CA 92121,4435 EASTGATE MALL STE 300  SAN DIEGO CA 92121,,,CANCELED
1970,201312910096,"BRIXTON RITE AID-CB RITE AIDS, LLC",4435 EASTGATE MALL STE 300  SAN DIEGO CA 92121,4435 EASTGATE MALL STE 300  SAN DIEGO CA 92121,4435 EASTGATE MALL STE 300  SAN DIEGO CA 92121,,,CANCELED
1970,201312910101,"BRIXTON RITE AID-DAYTON #1, LLC",4435 EASTGATE MALL STE 310  SAN DIEGO CA 92121,4435 EASTGATE MALL STE 310  SAN DIEGO CA 92121,4435 EASTGATE MALL STE 310  SAN DIEGO CA 92121,,,CANCELED
1970,200105110024,DAYTON RITE AID LLC,,15915 VENTURA BLVD. PH2  ENCINO CA 91436,15915 VENTURA BLVD. PH2  ENCINO CA 91436,MICHAEL A. WATERMAN,15915 VENTURA BLVD. PH2 ENCINO CA 91436,CANCELED
1970,201523710145,ERH RITE AID LLC,15 WEST SOUTH TEMPLE STE 900  SALT LAKE CTIY UT 84101,15 WEST SOUTH TEMPLE STE 900  SAL LAKE CITY UT 84101,15 WEST SOUTH TEMPLE STE 900  SAL LAKE CITY UT 84101,,,ACTIVE
1970,199731810037,RITE AID FUNDING LLC,,30 HUNTER LANE  CAMP HILL PA 17011,30 HUNTER LANE  CAMP HILL PA 17011,CT CORPORATION SYSTEM,* ,MERGED OUT
1970,200616110214,RITE AID LANSING LLC,,17721 SEMINOLE WAY  YORBA LINDA CA 92886,17721 SEMINOLE WAY  YORBA LINDA CA 92886,,,CANCELED
1970,200909210019,"RITE AID NY, LLC",19001 TUBA ST  NORTHRIDGE CA 91324,19001 TUBA ST  NORTHRIDGE CA 91324,19001 TUBA ST  NORTHRIDGE CA 91324,MAUREEN KOPPEL,19001 TUBA ST NORTHRIDGE CA 91324,ACTIVE
1970,201434510223,"SANDERSON J. RAY RITE AID LAGUNA WOODS, LLC",2699 WHITE RD STE 150  IRVINE CA 92614,2699 WHITE RD STE 150  IRVINE CA 92614,2699 WHITE RD STE 150  IRVINE CA 92614,GARY P LONG,2699 WHITE RD STE 150 IRVINE CA 92614,CANCELED
1972,C2367993,RITE AID CORPORATION,30 HUNTER LANE  CAMP HILL PA 17011,30 HUNTER LANE  CAMP HILL PA 17011,30 HUNTER LANE  CAMP HILL PA 17011,,,ACTIVE
1972,C2349501,RITE AID HDQTRS. CORP.,PO BOX 839  CAMP HILL PA 17001,30 HUNTER LANE  CAMP HILL PA 17011,30 HUNTER LANE  CAMP HILL PA 17011,,,ACTIVE
1972,C0490237,RITE AID LEASE MANAGEMENT COMPANY,PO BOX 839  CAMP HILL PA 17001,30 HUNTER LANE  CAMP HILL PA 17011,30 HUNTER LANE  CAMP HILL PA 17011,,,ACTIVE
1972,C2083663,RITE AID REALTY CORP.,30 HUNTER LANE  CAMP HIL PA 17011,30 HUNTER LANE  CAMP HIL PA 17011,30 HUNTER LANE  CAMP HIL PA 17011,,,ACTIVE
1972,C4018758,RITE AID ROOTER INC,8675 NAGLE AVE  PANORAMA CITY CA 91402,8675 NAGLE AVE  PANORAMA CITY CA 91402,8675 NAGLE AVE  PANORAMA CITY CA 91402,KARAPET TAGARYAN,8675 NAGLE AVE PANORAMA CITY CA 91402,ACTIVE
1972,C2071407,"RITE AID TRANSPORT, INC.",PO BOX 839  CAMP HILL PA 17001,30 HUNTER LANE  CAMP HILL PA 17011,30 HUNTER LANE  CAMP HILL PA 17011,,,ACTIVE
1972,200222500010,"B.A.G. RITE AID #188, L.P.",10100 CULVER BLVD STE D  CULVER CITY CA 90232,10100 CULVER BLVD STE D  CULVER CITY CA 90232,10100 CULVER BLVD STE D  CULVER CITY CA 90232,ALAN J GINDI,10100 CULVER BLVD STE D CULVER CITY CA 90232,ACTIVE
1972,201316910587,"BRIXTON RITE AID - DAYTON #2, LLC",4435 EASTGATE MALL STE 300  SAN DIEGO CA 92121,4435 EASTGATE MALL STE 300  SAN DIEGO CA 92121,4435 EASTGATE MALL STE 300  SAN DIEGO CA 92121,,,CANCELED
1972,201312910096,"BRIXTON RITE AID-CB RITE AIDS, LLC",4435 EASTGATE MALL STE 300  SAN DIEGO CA 92121,4435 EASTGATE MALL STE 300  SAN DIEGO CA 92121,4435 EASTGATE MALL STE 300  SAN DIEGO CA 92121,,,CANCELED
1972,201312910101,"BRIXTON RITE AID-DAYTON #1, LLC",4435 EASTGATE MALL STE 310  SAN DIEGO CA 92121,4435 EASTGATE MALL STE 310  SAN DIEGO CA 92121,4435 EASTGATE MALL STE 310  SAN DIEGO CA 92121,,,CANCELED
1972,200105110024,DAYTON RITE AID LLC,,15915 VENTURA BLVD. PH2  ENCINO CA 91436,15915 VENTURA BLVD. PH2  ENCINO CA 91436,MICHAEL A. WATERMAN,15915 VENTURA BLVD. PH2 ENCINO CA 91436,CANCELED
1972,201523710145,ERH RITE AID LLC,15 WEST SOUTH TEMPLE STE 900  SALT LAKE CTIY UT 84101,15 WEST SOUTH TEMPLE STE 900  SAL LAKE CITY UT 84101,15 WEST SOUTH TEMPLE STE 900  SAL LAKE CITY UT 84101,,,ACTIVE
1972,199731810037,RITE AID FUNDING LLC,,30 HUNTER LANE  CAMP HILL PA 17011,30 HUNTER LANE  CAMP HILL PA 17011,CT CORPORATION SYSTEM,* ,MERGED OUT
1972,200616110214,RITE AID LANSING LLC,,17721 SEMINOLE WAY  YORBA LINDA CA 92886,17721 SEMINOLE WAY  YORBA LINDA CA 92886,,,CANCELED
1972,200909210019,"RITE AID NY, LLC",19001 TUBA ST  NORTHRIDGE CA 91324,19001 TUBA ST  NORTHRIDGE CA 91324,19001 TUBA ST  NORTHRIDGE CA 91324,MAUREEN KOPPEL,19001 TUBA ST NORTHRIDGE CA 91324,ACTIVE
1972,201434510223,"SANDERSON J. RAY RITE AID LAGUNA WOODS, LLC",2699 WHITE RD STE 150  IRVINE CA 92614,2699 WHITE RD STE 150  IRVINE CA 92614,2699 WHITE RD STE 150  IRVINE CA 92614,GARY P LONG,2699 WHITE RD STE 150 IRVINE CA 92614,CANCELED
1977,C2543240,"CVS PHARMACY, INC.","ONE CVS DRIVE, LEGAL DEPT.  WOONSOCKET RI 02895",ONE CVS DRIVE  WOONSOCKET RI 02895,ONE CVS DRIVE  WOONSOCKET RI 02895,,,ACTIVE
1977,200522210067,"CALIFORNIA CVS PHARMACY, L.L.C.",,ONE CVS DR  WOONSOCKET RI 02895,ONE CVS DR  WOONSOCKET RI 02895,,,MERGED OUT
2009,C3247182,"001 SMOKE SHOP, INC.","2815 W SUNSET BLVD, STE 107  LOS ANGELES CA 90026","2815 W SUNSET BLVD, STE 107  LOS ANGELES CA 90026","2815 W SUNSET BLVD, STE 107  LOS ANGELES CA 90026",ARMINE BABAYAN,750 GLENVIA ST APT 314 GLENDALE CA 91206,ACTIVE
2009,C4183467,"1 STOP SMOKE SHOP & MORE, INC.",2221 SCENIC DR  MODESTO CA 95355,2221 SCENIC DR  MODESTO CA 95355,2221 SCENIC DR  MODESTO CA 95355,EMAD MOHSEN,3654 WHITEHAVEN AVE CERES CA 95307,ACTIVE
2009,C3506874,"101 SMOKE SHOP, INC.",3266 W CAHUENGA BLVD  LOS ANGELES CA 90068,3266 W CAHUENGA BLVD  LOS ANGELES CA 90068,3266 W CAHUENGA BLVD  LOS ANGELES CA 90068,ARUTYUN KEPENYAN,3266 W CAHUENGA BLVD LOS ANGELES CA 90068,DISSOLVED
2009,C2611394,"29 SMOKE SHOP, INC.","71757 29 PALMS HWY, #D  TWENTYNINE PALMS CA 92277","71757 29 PALMS HWY, #D  TWENTYNINE PALMS CA 92277","71757 29 PALMS HWY, #D  TWENTYNINE PALMS CA 92277",ELIZABETH PRIETO,5494 MORONGO RD 29 PALMS CA 92277,DISSOLVED
2009,C4121558,888 SMOKE SHOP,11722 SALVIA ST  JURUPA VALLEY CA 91752,11722 SALVIA ST  JURUPA VALLEY CA 91752,11722 SALVIA ST  JURUPA VALLEY CA 91752,SAURAB KUMAR,11722 SALVIA ST JURUPA VALLEY CA 91752,ACTIVE
2009,C3670208,A2Z SMOKE SHOP,213 S VERMONT AVE  LOS ANGELES CA 93110,213 S VERMONT AVE  LOS ANGELES CA 90004,213 S VERMONT AVE  LOS ANGELES CA 90004,SAHAK VARDANYAN,213 S VERMONT AVE LOS ANGELES CA 90004,ACTIVE
2009,C4121435,AA SMOKE SHOP INC,2334 FLETCHER DR  LOS ANGELES CA 90039,2334 FLETCHER DR  LOS ANGELES CA 90039,2334 FLETCHER DR  LOS ANGELES CA 90039,DAVID AVETISYAN,2334 FLETCHER DR LOS ANGELES CA 90039,ACTIVE
2009,C4133996,"AA SMOKE SHOP PLUS, INC.",4213 MCHENRY AVE  MODESTO CA 95356,4213 MCHENRY AVE  MODESTO CA 95356,4213 MCHENRY AVE  MODESTO CA 95356,BASMA MUTHANA,4213 MCHENRY AVE MODESTO CA 95356,ACTIVE
2009,C4203433,"ABC SMOKE SHOP, INC.",5621 BALBOA AVE  SAN DIEGO CA 92111,5621 BALBOA AVE  SAN DIEGO CA 92111,5621 BALBOA AVE  SAN DIEGO CA 92111,MELAD SHABA,5621 BALBOA AVE SAN DIEGO CA 92111,ACTIVE
2009,C3680656,"ALEX SMOKE SHOP & MINI MART, INC",718 N LA BREA AVE  INGLEWOOD CA 90302,718 N LA BREA AVE  INGLEWOOD CA 90302,718 N LA BREA AVE  INGLEWOOD CA 90302,ELSADIG BASHIR,718 N LA BREA AVE INGLEWOOD CA 90302,DISSOLVED
2009,201605410153,"1 STOP SMOKE SHOP & MORE, LLC",2221 SCENIC DRIVE  MODESTO CA 95355-4502,2221 SCENIC DRIVE  MODESTO CA 95355-4502,2221 SCENIC DRIVE  MODESTO CA 95355-4502,ZINAH QASEM,1133 N CARPENTER RD MODESTO CA 95351,ACTIVE
2009,201610310529,1STOP SMOKE SHOP LLC,6311 VAN NUYS BLVD #418  VAN NUYS CA 91401,6311 VAN NUYS BLVD #418  VAN NUYS CA 91401,6311 VAN NUYS BLVD #418  VAN NUYS CA 91401,DERRICK WILLIAMS,15540 SHERMAN WAY #14 VAN NUYS CA 91406,SOS/FTB SUSPENDED
2009,201513910589,3 BROS SMOKE SHOP LLC,10750 GLENOAKS BLVD #2  PACOIMA CA 91331,10750 GLENOAKS BLVD #2  PACOIMA CA 91331,10750 GLENOAKS BLVD #2  PACOIMA CA 91331,SARKIS GURYUNLYAN,10750 GLENOAKS BLVD #2 PACOIMA CA 91331,SOS/FTB SUSPENDED
2009,201507810175,"3 KINGZ SMOKE SHOP, LLC",7453 OAKWOOD AVE  LOS ANGELES CA 90036,7453 OAKWOOD AVE  LOS ANGELES CA 90036,7453 OAKWOOD AVE  LOS ANGELES CA 90036,ERICK GURROLA,7453 OAKWOOD AVE LOS ANGELES CA 90036,SOS/FTB SUSPENDED
2009,201326210162,"710 BLUNTS AND STUFF SMOKE SHOP, LLC",1501 E LINCOLN  ANAHEIM CA 92805,1501 E LINCOLN  ANAHEIM CA 92805,1501 E LINCOLN  ANAHEIM CA 92805,MALCOLM EQUINOA,1501 E LINCOLN ANAHEIM CA 92805,SOS/FTB SUSPENDED
2009,201700510303,A TO Z SMOKE SHOP AND MINI MART LLC,5067 LOGAN AVE  SAN DIEGO CA 92113,5067 LOGAN AVE  SAN DIEGO CA 92113,5067 LOGAN AVE  SAN DIEGO CA 92113,MENA W SALAMA,5067 LOGAN AVE SAN DIEGO CA 92113,ACTIVE
2009,200101310012,"ADAMS SMOKE SHOP, LLC.",,3546 ADAMS ST  RIVERSIDE CA 92504,3546 ADAMS ST  RIVERSIDE CA 92504,HISHAM ZAAI,3546 ADAMS ST RIVERSIDE CA 92504,FTB SUSPENDED
2009,201810210324,"ANOTHER SMOKE SHOP, LLC",13134 DAY ST #F301  MORENO VALLEY CA 92553,13134 DAY ST #F301  MORENO VALLEY CA 92553,13134 DAY ST #F301  MORENO VALLEY CA 92553,,,ACTIVE
2009,201234910008,"AREA 51 SMOKE SHOP, LLC",1001 SOUTH CENTRAL AVE  GLENDALE CA 91204-2210,1001 SOUTH CENTRAL AVE  GLENDALE CA 91204-2210,1001 SOUTH CENTRAL AVE  GLENDALE CA 91204-2210,RAHEEL LAKHANY,1001 SOUTH CENTRAL AVE GLENDALE CA 91204-2210,ACTIVE
2009,200923310084,"ARTESIA BOULEVARD SMOKE SHOP, LLC",,2801 E ARTESIA BOULEVARD UNIT A  LONG BEACH CA 90805,2801 E ARTESIA BOULEVARD UNIT A  LONG BEACH CA 90805,TING YUAN TAO,2801 E ARTESIA BOULEVARD UNIT A LONG BEACH CA 90805,FTB SUSPENDED
2032,C2381592,"A & P TOBACCO DISCOUNT, CORP.",20910 VANOWEN ST  CANOGA PARK CA 91303,20910 VANOWEN ST  CANOGA PARK CA 91303,20910 VANOWEN ST  CANOGA PARK CA 91303,FARZAD TAHOOR,20910 VANOWEN ST CANOGA PARK CA 91303,DISSOLVED
2032,C3322030,"DISCOUNT CENTER TOBACCO, INC.",12190 PERRIS BLVD STE Q  MORENO VALLEY CA 92557-7424,12190 PERRIS BLVD STE Q  MORENO VALLEY CA 92557-7424,12190 PERRIS BLVD STE Q  MORENO VALLEY CA 92557-7424,MIKE TELLO,11411 STEEPLE CHASE DR MORENO VALLEY CA 92555,DISSOLVED
2032,C2282603,"DISCOUNT TOBACCO OUTLET, INC.",3033 SCHLEE CYN RD  JAMUL CA 91935,3033 SCHLEE CYN RD  JAMUL CA 91935,3033 SCHLEE CYN RD  JAMUL CA 91935,JIM YACOO,3033 SCHLEE CYN RD JAMUL CA 91935,DISSOLVED
2032,C2457998,"DISCOUNT TOBACCO SHOP, INC.",927 E. LAS TUNAS DR. # B  SAN GABRIEL CA 91776,927 E. LAS TUNAS DR. # B  SAN GABRIEL CA 91776,927 E. LAS TUNAS DR. # B  SAN GABRIEL CA 91776,NADER MERCHO,927 E. LAS TUNAS DR. # B SAN GABRIEL CA 91776,SOS/FTB SUSPENDED
2032,C2023444,"DISCOUNT TOBACCO, INC.",7951 GARVEY AVE  ROSEMEAD CA 91770,7951 GARVEY AVE  ROSEMEAD CA 91770,7951 GARVEY AVE  ROSEMEAD CA 91770,ANNE LIEU,7951 GARVEY AVE ROSEMEAD CA 91770,DISSOLVED
2032,C3383856,"HOOVER DISCOUNT STORE AND TOBACCO, INC.",1131 S MAIN ST  SANTA ANA CA 92707,1131 S MAIN ST  SANTA ANA CA 92707,1131 S MAIN ST  SANTA ANA CA 92707,MOHAMED ABOSELIM,1131 S MAIN ST SANTA ANA CA 92707,ACTIVE
2032,C2834544,KIM'S DISCOUNT TOBACCO INC.,7953 GARVEY AVE  ROSEMEAD CA 91770,7953 GARVEY AVE  ROSEMEAD CA 91770,7953 GARVEY AVE  ROSEMEAD CA 91770,WINNIE CHUONG,7953 GARVEY AVE ROSEMEAD CA 91770,FTB SUSPENDED
2032,201119310428,99 CENT DISCOUNT MARKET TOBACCO LLC,,2009 W FLORENCE AVE  LOS ANGELES CA 90047,2009 W FLORENCE AVE  LOS ANGELES CA 90047,AMRO ABBAS,3013 S BRONSON AVE LOS ANGELES CA 90018,SOS/FTB SUSPENDED
2032,201607810116,"AG DISCOUNT & TOBACCO, LLC","624 MORNING DR, STE A  BAKERSFIELD CA 93306","624 MORNING DR, STE A  BAKERSFIELD CA 93306","624 MORNING DR, STE A  BAKERSFIELD CA 93306",ANWAR GAZALI,8925 RHINE VALLEY DR BAKERSFIELD CA 93301,ACTIVE
2032,201118710114,"DOLLAR MART & DISCOUNT TOBACCO, LLC",1310 HOWE AVE STE A  SACRAMENTO CA 95825,1310 HOWE AVE STE A  SACRAMENTO CA 95825,1310 HOWE AVE STE A  SACRAMENTO CA 95825,ANJU BALA,1310 HOWE AVE STE A SACRAMENTO CA 95825,CANCELED
2043,C3430241,D.I.Y. TOBACCO FOR LESS INC,29760 RANCHO CALIFORNIA RD. STE 111  TEMECULA CA 92591,29760 RANCHO CALIFORNIA RD. STE 111  TEMECULA CA 92591,29760 RANCHO CALIFORNIA RD. STE 111  TEMECULA CA 92591,MING KIEN KAN,29760 RANCHO CALIFORNIA RD. STE 111 TEMECULA CA 92591,DISSOLVED
2043,C2388236,"TOBACCO 4 LESS, INC.",1760 GRASSCREEK DR  SAN DIMAS CA 91773,1399 N CITRUS AVE  COVINA CA 91722,1399 N CITRUS AVE  COVINA CA 91722,HAROUN E HANNA,1399 N CITRUS AVE COVINA CA 91722,DISSOLVED
2043,C3275069,"TOBACCO 4 LESS, INC.",141 E WILLOW ST STE R  LONG BEACH CA 90806,141 E WILLOW ST STE R  LONG BEACH CA 90806,141 E WILLOW ST STE R  LONG BEACH CA 90806,ABIR RAFEH,3064 TEXAS AVE SIMI VALLEY CA 93063,DISSOLVED
2043,200705710004,TOBACCO & GIFTS 4 LESS LLC,,23200 DEL LAGO DR  LAGUNA HILLS CA 92653,23200 DEL LAGO DR  LAGUNA HILLS CA 92653,MARTIN MILLER,27245 CRANBROOKE DR LAKE FOREST CA 92630,FTB SUSPENDED
2101,C3032339,"BEST TASTE FOR LESS ORIENTAL FOOD, INC.",674 FAIRPLEX DR  POMONA CA 91768,674 FAIRPLEX DR  POMONA CA 91768,674 FAIRPLEX DR  POMONA CA 91768,HENRY L LOA,674 FAIRPLEX DR POMONA CA 91768,ACTIVE
2101,C1753812,"C & C PET FOOD FOR LESS, INC.",21720 SHERMAN WAY  CANOGA PARK CA 91303,21720 SHERMAN WAY  CANOGA PARK CA 91303,21720 SHERMAN WAY  CANOGA PARK CA 91303,TAE BEEN PARK,6626 VENTURA CANYON AVE VAN NUYS CA 91401,DISSOLVED
2101,C1815905,"FOOD 4 LESS GM, INC.",1014 VINE STREET  CINCINNATI OH 45202,1100 W ARTESIA BLVD  COMPTON CA 90220,1100 W ARTESIA BLVD  COMPTON CA 90220,,,ACTIVE
2101,C1848084,"FOOD 4 LESS HOLDINGS, INC.",777 S HARBOR BLVD  LA HABRA CA 90631,777 S HARBOR BLVD  LA HABRA CA 90631,777 S HARBOR BLVD  LA HABRA CA 90631,MARK A RESNIK,250 W FIRST STREET STE 210 CLAREMONT CA 91711,MERGED OUT
2101,C1919997,"FOOD 4 LESS HOLDINGS, INC.",1014 VINE STREET  CINCINNATI OH 45202,1100 W ARTESIA BLVD  COMPTON CA 90220,1100 W ARTESIA BLVD  COMPTON CA 90220,,,ACTIVE
2101,C1687987,"FOOD 4 LESS MERCHANDISING, INC.",1100 W ARTESIA BLVD  COMPTON CA 90220,1100 W ARTESIA BLVD  COMPTON CA 90220,1100 W ARTESIA BLVD  COMPTON CA 90220,,,ACTIVE
2101,C1423255,"FOOD 4 LESS OF CALIFORNIA, INC.",1014 VINE STREET  CINCINNATI OH 45202,1100 W ARTESIA BLVD  COMPTON CA 90220,1100 W ARTESIA BLVD  COMPTON CA 90220,,,ACTIVE
2101,C1632232,"FOOD 4 LESS OF SOUTHERN CALIFORNIA, INC.",1014 VINE STREET  CINCINNATI OH 45202,1100 W ARTESIA BLVD  COMPTON CA 90220,1100 W ARTESIA BLVD  COMPTON CA 90220,,,ACTIVE
2101,C1642541,"FOOD 4 LESS SUPERMARKETS, INC.","TAX DIRECTOR, 777 S HARBOR BLVD  LA HABRA CA 90631",777 S HARBOR BLVD  LA HABRA CA 90631,777 S HARBOR BLVD  LA HABRA CA 90631,GREG MAYS,777 S HARBOR BLVD LA HABRA CA 90631,SURRENDER
2101,C1242267,"FOOD-4-LESS OF CERES, INC.",3848 MC HENRY AVE  MODESTO CA 95356,,3848 MC HENRY AVE  MODESTO CA 95356,MICHAEL A WEBB,3848 MC HENRY AVE MODESTO CA 95356,MERGED OUT
2101,200316700027,DURANT SQUARE FOOD 4 LESS L.P.,,4505 CLAYTON RD  CONCORD CA 94521,4505 CLAYTON RD  CONCORD CA 94521,STEVE SELLERS,4505 CLAYTON RD CONCORD CA 94521,ACTIVE
2103,C3554303,"805 MARKET & DELI, INC.",135 E CARRILLO STREET  SANTA BARBARA CA 93101,135 E CARRILLO STREET  SANTA BARBARA CA 93101,135 E CARRILLO STREET  SANTA BARBARA CA 93101,SIMON MAIDA,135 E CARRILLO STREET SANTA BARBARA CA 93101,ACTIVE
2103,C2610440,AL'S MARKET & DELI,3711 LONG BEACH BLVD. #809  LONG BEACH CA 90807,,3711 LONG BEACH BLVD. #809  LONG BEACH CA 90807,SHIRLEY A. JOHNSON,1422 E. HELMICK STREET CARSON CA 90746-3110,SOS/FTB SUSPENDED
2103,C3721781,"ALAMEDA DELI MARKET, INC.",906 S GLENAOKS BLVD  BURBANK CA 91502,906 S GLENAOKS BLVD  BURBANK CA 91502,906 S GLENAOKS BLVD  BURBANK CA 91502,RAYMOND BARSEGAR NAZARI,906 S GLENAOKS BLVD BURBANK CA 91502,DISSOLVED
2103,C4132582,"ALI'S DELI & MARKET, INC.",683 E. WALKER ST.  ORLAND CA 95963,647 E. WALKER ST.  ORLAND CA 95963,647 E. WALKER ST.  ORLAND CA 95963,DANIEL ALEXANDER,"901 BRUCE RD., STE. 230 CHICO CA 95928",ACTIVE
2103,C2490513,"ALVAND MARKET & DELI, INC.",3033 BRISTOL ST STE G  COSTA MESA CA 92626,3033 BRISTOL ST STE G  COSTA MESA CA 92626,3033 BRISTOL ST STE G  COSTA MESA CA 92626,ASGHAR SALIMI,3033 BRISTOL ST STE G COSTA MESA CA 92626,DISSOLVED
2103,C2832508,AMBIKA MARKET & DELI CORPORATION,1225 W 17TH STREET  SANTA ANA CA 92706,1225 W 17TH STREET  SANTA ANA CA 92706,1225 W 17TH STREET  SANTA ANA CA 92706,DAXA D PATEL,1225 W 17TH STREET SANTA ANA CA 92706,FTB SUSPENDED
2103,C4131605,AMO MAC LIQUOR & DELI MARKET CORPORATION,31595 CASTAIC RD  CASTAIC CA 91384,31595 CASTAIC RD  CASTAIC CA 91384,31595 CASTAIC RD  CASTAIC CA 91384,,,ACTIVE
2103,C4149529,ARDEN MARKET & DELI,3027 ARDEN WAY  SACRAMENTO CA 95285,3027 ARDEN WAY  SACRAMENTO CA 95285,3027 ARDEN WAY  SACRAMENTO CA 95285,TEHSEEN KARIM,3017 ARDEN WAY SACRAMENTO CA 95828,ACTIVE
2103,C1466395,"ARENA MARKET & DELI, INC.",3990 SOUTH FIRGUEROA ST  LOS ANGELES CA 90037,3990 SOUTH FIRGUEROA ST  LOS ANGELES CA 90037,3990 SOUTH FIRGUEROA ST  LOS ANGELES CA 90037,JIMMIE L. POWELL,3990 SOUTH FIRGUEROA ST LOS ANGELES CA 90037,FTB SUSPENDED
2103,C2614551,"ASHLEY'S DELI & MARKET, INC.",828 HERMOSA AVE  HERMOSA BEACH CA 90254,828 HERMOSA AVE  HERMOSA BEACH CA 90254,828 HERMOSA AVE  HERMOSA BEACH CA 90254,KRISTINE M ASHLEY,828 HERMOSA AVE HERMOSA BEACH CA 90254,ACTIVE
2103,201529310189,BAY AREA EUROPEAN MARKET & DELI LLC,402 W BROADWAY STE 770  SAN DIEGO CA 92101,402 W BROADWAY STE 770  SAN DIEGO CA 92101,402 W BROADWAY STE 770  SAN DIEGO CA 92101,FIONA BENNUN,1449 CREEKSIDE DR #3042 WALNUT CREEK CA 94596,CONVERTED-OUT
2103,200600910257,"BON AIR MARKET AND DELI, LLC",,2531 J STREET  SACRAMENTO CA 95816,2531 J STREET  SACRAMENTO CA 95816,LARRY WRIGHT,4901 MARCONI AVENUE STE B SACRAMENTO CA 95816,ACTIVE
2103,201405010333,BROOKLYN DELI & MINI MARKET LLC,3800 S NORTON AVE  LOS ANGELES CA 90008,3800 S NORTON AVE  LOS ANGELES CA 90008,3800 S NORTON AVE  LOS ANGELES CA 90008,HAKEEM DOLPHIN,3800 S NORTON AVE LOS ANGELES CA 90008,ACTIVE
2103,200934110067,"CARDELLI'S ITALIAN MARKET, DELI, & CATERING ""LLC""",,8319 WHISPERING TREE DR  RIVERSIDE CA 92509,8319 WHISPERING TREE DR  RIVERSIDE CA 92509,TERESA GUZIEJKA,8319 WHISPERING TREE DR RIVERSIDE CA 92509,FTB SUSPENDED
2103,200912010126,"CHATSWORTH INTERNATIONAL DELI MARKET, LLC",,6314 VAN NUYS BLVD #202  VAN NUYS CA 91401,6314 VAN NUYS BLVD #202  VAN NUYS CA 91401,,,CANCELED
2103,201627110206,"COMMUNITY TABLE DELI + MARKET, LLC",PO BOX 1756  TRUCKEE CA 96161,15881 WINDSOR WAY  TRUCKEE CA 96161,15881 WINDSOR WAY  TRUCKEE CA 96161,RICHARD E MOLSBY,10280 DONNER PASS RD TRUCKEE CA 96161,CANCELED
2103,201615810447,CORONA HEIGHTS MARKET AND DELI LLC,4400 17TH STREET  SAN FRANCISCO CA 94114,4400 17TH STREET  SAN FRANCISCO CA 94114,4400 17TH STREET  SAN FRANCISCO CA 94114,MAZEN SALFITI,236 WEST PORTAL STE 174 SAN FRANCISCO CA 94127,CANCELED
2103,201405510353,CROSSROADS MARKET & DELI LLC,8481 WHITE HAWK RD  SHINGLE SPRINGS CA 95682,8481 WHITE HAWK RD  SHINGLE SPRINGS CA 95682,8481 WHITE HAWK RD  SHINGLE SPRINGS CA 95682,,,SOS/FTB SUSPENDED
2103,200123310070,DOWNTOWN MARKET AND DELI LLC,,8 N. SCHOOL ST.  LODI CA 95240,8 N. SCHOOL ST.  LODI CA 95240,MONEER A. BANDY,8 N. SCHOOL ST. LODI CA 95240,SOS/FTB SUSPENDED
2103,199803610006,"GOOD NEIGHBOR EUROPEAN DELI MARKET, LLC",5111 COLLEGE OAK DR STE A& B  SACRAMENTO CA 95841,5111 COLLEGE OAK DR STE A& B  SACRAMENTO CA 95841,5111 COLLEGE OAK DR STE A& B  SACRAMENTO CA 95841,PAUL MOSKALETS,5111 COLLEGE OAK DR STE A& B SACRAMENTO CA 95841,ACTIVE
2112,C3793935,"ALBERTSON'S ABBEY CARPET AND FLOOR, INC.",736 FIRST STREET  BENICIA CA 94510,736 FIRST STREET  BENICIA CA 94510,736 FIRST STREET  BENICIA CA 94510,M KENDALL HILLMAN,"ONE HARBOR CENTER, SUITE 220 SUISUN CITY CA 94585",ACTIVE
2112,C2566552,"ALBERTSON'S ABBEY CARPET, INC.","5000 E 2ND STREET, #E  BENICIA CA 94510","5000 E 2ND STREET, #E  BENICIA CA 94510","5000 E 2ND STREET, #E  BENICIA CA 94510",,,DISSOLVED
2112,C3364625,"ALBERTSON'S CARPET CLENING AND SALES, INC.",281 COTTONWOOD DRIVE  VALLEJO CA 94591,281 COTTONWOOD DRIVE  VALLEJO CA 94591,281 COTTONWOOD DRIVE  VALLEJO CA 94591,M. KENDALL HILLMAN,"ONE HARBOR CENTER, SUITE 220 SUISUN CITY CA 94585",ACTIVE
2112,C0650739,"ALBERTSON'S FASHION DISCOUNT CENTER, INC.",245 N. VERMONT AVE.  LOS ANGELES CA 90004,245 N. VERMONT AVE.  LOS ANGELES CA 90004,245 N. VERMONT AVE.  LOS ANGELES CA 90004,,,FTB SUSPENDED
2112,C0680580,"ALBERTSON'S REALTY, INC.",250 PARKCENTER BLVD  BOISE ID 83706,250 PARKCENTER BLVD  BOISE ID 83706,250 PARKCENTER BLVD  BOISE ID 83706,,,SURRENDER
2112,C0473949,"ALBERTSON'S, INC.",,,,,,SURRENDER
2112,C0587366,"ALBERTSON'S, INC.",250 PARKCENTER BLVD  BOISE ID 83706,250 PARKCENTER BLVD  BOISE ID 83706,250 PARKCENTER BLVD  BOISE ID 83706,,,SURRENDER
2112,C3827270,"ALBERTSONS COMPANIES, INC.",PO BOX 20  BOISE ID 83726,250 E PARKCENTER BLVD  BOISE ID 83726,250 E PARKCENTER BLVD  BOISE ID 83726,,,ACTIVE
2112,C2789471,"NEW ALBERTSON'S, INC.",250 PARKCENTER BLVD  BOISE ID 83706,250 PARKCENTER BLVD  BOISE ID 83706,250 PARKCENTER BLVD  BOISE ID 83706,,,SURRENDER
2112,C3197380,"NEW ALBERTSON'S, INC.",PO BOX 20  BOISE ID 83726,250 E PARKCENTER BLVD  BOISE ID 83706,250 E PARKCENTER BLVD  BOISE ID 83706,,,SURRENDER
2112,200308710041,"ALBERTSON'S ABBEY CARPET, L.L.C.",,5000 EAST 2ND STREET #E  BENICIA CA 94510,5000 EAST 2ND STREET #E  BENICIA CA 94510,FRANK R. ACUNA,1460 MARIA LANE STE 200 WALNUT CREEK CA 94596,CONVERTED-OUT
2112,200217600021,"ALBERTSON'S CENTER, L.P.",,"355 BRISTOL STREET, STE. C  COSTA MESA CA 92626","355 BRISTOL STREET, STE. C  COSTA MESA CA 92626",ROGER DEYOUNG,"355 BRISTOL STREET, STE. C COSTA MESA CA 92626",CANCELED
2112,200609510117,ALBERTSON'S HOLDINGS LLC,,250 E PARKCENTER BLVD  BOISE ID 83706,250 E PARKCENTER BLVD  BOISE ID 83706,,,CANCELED
2112,200618910265,ALBERTSON'S LLC,"TAX DEPT 81017, PO BOX 20  BOISE ID 83726-0020",250 E PARKCENTER BLVD  BOISE ID 83706,250 E PARKCENTER BLVD  BOISE ID 83706,,,ACTIVE
2112,200627510217,ALBERTSON'S REALTY LLC,"PO BOX 20, TAX DEPT 81017  BOISE ID 83726-0020",250 E PARKCENTER BLVD  BOISE ID 83706,250 E PARKCENTER BLVD  BOISE ID 83706,,,ACTIVE
2112,201526710337,ALBERTSON'S STORES SUB LLC,PO BOX 20  BOISE ID 83726,250 E PARKCENTER BLVD  BOISE ID 83706,250 E PARKCENTER BLVD  BOISE ID 83706,,,ACTIVE
2112,201703910760,"ALBERTSONS COMPANIES SPECIALTY CARE, LLC","PO BOX 20, TAX DEPT 81017  BOISE ID 83726-0020",250 E PARKCENTER BLVD  BOISE ID 83706,250 E PARKCENTER BLVD  BOISE ID 83706,,,ACTIVE
2112,201608210177,"ALBERTSONS COMPANIES, LLC",PO BOX 20  BOISE ID 83726,250 E PARKCENTER BLVD  BOISE ID 83706,250 E PARKCENTER BLVD  BOISE ID 83706,,,CANCELED
2112,200534810196,"ALBERTSONS VILLAGE PUEBLO, LLC",1806 BELLES ST STE 9B  SAN FRANCISCO CA 94129,1806 BELLES ST STE 9B  SAN FRANCISCO CA 94129,1806 BELLES ST STE 9B  SAN FRANCISCO CA 94129,JOSEPH MERLE HARRIS JR,1806 BELLES ST STE 9B SAN FRANCISCO CA 94129,ACTIVE
2137,C0114146,"1687 MARKET STREET, INC.",1687 MARKET ST  SAN FRANCISCO CA 94103,1687 MARKET ST  SAN FRANCISCO CA 94103,1687 MARKET ST  SAN FRANCISCO CA 94103,ROBERT L AZEVEDO,16 SLOAT BLVD SAN FRANCISCO CA 94132,ACTIVE
2137,C0297012,30TH AND MARKET GAS MART,,,,,,DISSOLVED
2137,C0334601,4 KS MARKET,40998 FOREST HOME BLVD BOX 610  FORREST FALLS CA 92339,,40998 FOREST HOME BLVD BOX 610  FORREST FALLS CA 92339,,,DISSOLVED
2137,C0057887,"685 MARKET STREET, INC.",114 SANSOME ST. #1108  SAN FRANCISCO CA 94104,,114 SANSOME ST. #1108  SAN FRANCISCO CA 94104,,,MERGED OUT
2137,C0441266,930 MARKET STREET CO.,,,,,,FTB SUSPENDED
2137,C0290330,A. B. C. MARKET CORP.,5318 SO. MAIN ST.  LOS ANGELES CA 90037,,5318 SO. MAIN ST.  LOS ANGELES CA 90037,JOSEPH HENRY WOLF,9454 WILSHIRE BLVD #901 BEVERLY HILLS CA 90212,MERGED OUT
2137,C0503355,"ACORD'S MARKET, INC.",34099 DOHENY PARK RD  DANA POINT CA 92624,34099 DOHENY PARK RD  DANA POINT CA 92624,34099 DOHENY PARK RD  DANA POINT CA 92624,DENNIS D. DULL,34099 DOHENY PARK RD DANA POINT CA 92624,FTB SUSPENDED
2137,C0230653,ACTORS HOBBY MARKET,,,,,,FTB SUSPENDED
2137,C0211572,"ALL AMERICAN MARKET, INC.",,,,,,FTB SUSPENDED
2137,C0313582,ALLENE CAR MARKET,1149 N. HACIENDA BLVD.  LA PUENTE CA 91744,,1149 N. HACIENDA BLVD.  LA PUENTE CA 91744,CLAUDE W ROBERTS JR,1149 N HACIENDA BLVD LA PUENTE CA 91744,DISSOLVED
2137,200015310117,"1035 MARKET STREET, LLC",,ONE TOWNE SQUARE STE 1913  SOUTHFIELD MI 48076,ONE TOWNE SQUARE STE 1913  SOUTHFIELD MI 48076,,,CANCELED
2137,198432000060,"1049 MARKET STREET ASSOCIATES, A CALIFORNIA LIMITED PARTNERSHIP",,111 VALLEJO STREET  SAN FRANCISCO CA 94111,111 VALLEJO STREET  SAN FRANCISCO CA 94111,HARVEY RIFKIN,111 VALLEJO STREET SAN FRANCISCO CA 94111,ACTIVE
2137,199901910099,"1066 MARKET, LLC",,235 MONTGOMERY ST 16TH FL  SAN FRANCISCO CA 94104,235 MONTGOMERY ST 16TH FL  SAN FRANCISCO CA 94104,,,ACTIVE
2137,199902510075,"1067 MARKET STREET, LLC",16351 SKYLINE BLVD  WOODSIDE CA 94062,16351 SKYLINE BLVD  WOODSIDE CA 94062,16351 SKYLINE BLVD  WOODSIDE CA 94062,JOHN GALL,1005 MARKET ST #310 SAN FRANCISCO CA 94103,ACTIVE
2137,199816910055,"1077 MARKET ST., LLC",,2341 EASTLAKE AVE E. P.O.BOX 2602  SEATTLE WA 98111-2602,2341 EASTLAKE AVE E. P.O.BOX 2602  SEATTLE WA 98111-2602,,,CANCELED
2137,198430400027,"1095 MARKET STREET ASSOCIATES, A LIMITED PARTNERSHIP",,"1990 N. CALIFORNIA BLVD., SUITE 20  WALNUT CREEK CA 94596","1990 N. CALIFORNIA BLVD., SUITE 20  WALNUT CREEK CA 94596",JAMES H. CANTRELL,"1990 N. CALIFORNIA BLVD., SUITE 20 WALNUT CREEK CA 94596",DISSOLVED
2137,200024310039,"1095 MARKET STREET, LLC",,ONE TOWNE SQUARE SUITE 1913  SOUTHFIELD MI 48076,ONE TOWNE SQUARE SUITE 1913  SOUTHFIELD MI 48076,,,CANCELED
2137,200119910047,10TH & MARKET ENTERPRISE LLC,,"100 THE EMBARCADERO, PENTHOUSE  SAN FRANCISCO CA 94105-1217","100 THE EMBARCADERO, PENTHOUSE  SAN FRANCISCO CA 94105-1217",STEVEN KAY,"100 THE EMBARCADERO, PENTHOUSE SAN FRANCISCO CA 94105-1217",FTB SUSPENDED
2137,199816910056,"1127 MARKET ST., LLC",,2341 EASTLAKE E. POBOX 2602  SEATTLE WA 98111-2602,2341 EASTLAKE E. POBOX 2602  SEATTLE WA 98111-2602,,,CANCELED
2137,198501800044,"1242 MARKET STREET, LTD.",,"1242 MARKET STREET, FIFTH FLOOR  SAN FRANCISCO CA 94102","1242 MARKET STREET, FIFTH FLOOR  SAN FRANCISCO CA 94102",SUZIE S. THORN,"1242 MARKET STREET, FIFTH FLOOR SAN FRANCISCO CA 94102",ACTIVE
2141,C3133890,"BJ'S EXPRESS MART, INC.",700 S. DEMAREE ST.  VISALIA CA 93277,700 S. DEMAREE ST.  VISALIA CA 93277,700 S. DEMAREE ST.  VISALIA CA 93277,WAEL AROUCH,700 S. DEMAREE ST. VISALIA CA 93277,ACTIVE
2141,C2588355,"EXPRESS DELI MART, INC.",8278 MIRAMAR ROAD  SAN DIEGO CA 92126,8278 MIRAMAR ROAD  SAN DIEGO CA 92126,8278 MIRAMAR ROAD  SAN DIEGO CA 92126,ANDY JAMMO,8278 MIRAMAR ROAD SAN DIEGO CA 92126,DISSOLVED
2141,C1245806,"EXPRESS FOOD MART, INC.",1224 POLK STREET  SAN FRANCISCO CA 94109,1224 POLK STREET  SAN FRANCISCO CA 94109,1224 POLK STREET  SAN FRANCISCO CA 94109,GRACIANO R. ENRIQUEZ,104 JAMES CT. SOUTH SAN FRANCISCO CA 94080,SOS/FTB SUSPENDED
2141,C2629028,"EXPRESS GAS AND MART, INC.",2951 HIGH STREET  OAKLAND CA 94619,,2951 HIGH STREET  OAKLAND CA 94619,MICHAEL WAYNE VILLALOBOS,2951 HIGH STREET OAKLAND CA 94619,FTB SUSPENDED
2141,C0926428,"EXPRESS MART, INC.",151 W MCKNIGHT WAY STE G  GRASS VALLEY CA 95949,151 W MCKNIGHT WAY STE G  GRASS VALLEY CA 95949,151 W MCKNIGHT WAY STE G  GRASS VALLEY CA 95949,THOMAS A COMPTON,151 W MCKNIGHT WAY STE G GRASS VALLEY CA 95949,FTB SUSPENDED
2141,C2543099,"EXPRESS PASADENA MART, INC.",1151 SONORA AVE. UNIT 306  GLENDALE CA 91201,1151 SONORA AVE. UNIT 306  GLENDALE CA 91201,1151 SONORA AVE. UNIT 306  GLENDALE CA 91201,ANITA FAYAZZADEH,1151 SONORA AVE. UNIT 306 GLENDALE CA 91201,FTB SUSPENDED
2141,C1961951,"EYE-MART EXPRESS, INC.",2110 HUTTON DR STE 100  CARROLLTON TX 75006,2110 HUTTON DR STE 100  CARROLLTON TX 75006,2110 HUTTON DR STE 100  CARROLLTON TX 75006,** RESIGNED ON 08/30/2000,* ,SOS/FTB FORFEITED
2141,C3566686,GRASS VALLEY EXPRESS MART,234 S AUBURN ST.  GRASS VALLEY CA 95945,234 S AUBURN ST.  GRASS VALLEY CA 95945,234 S AUBURN ST.  GRASS VALLEY CA 95945,DEAN HERNANDEZ,234 S. AUBURN ST. GRASS VALLEY CA 95945,ACTIVE
2141,C4184938,GV EXPRESS MART INC,2649 GIORNO WAY  EL DORADO HILLS CA 95762,2649 GIORNO WAY  EL DORADO HILLS CA 95762,2649 GIORNO WAY  EL DORADO HILLS CA 95762,SUKHWINDER S BHANGU,2649 GIORNO WAY EL DORADO HILLS CA 95762,ACTIVE
2141,C2934831,JEWEL MART EXPRESS INC,1915 TARLETON ST  LOS ANGELES CA 90011,1915 TARLETON ST  LOS ANGELES CA 90011,1915 TARLETON ST  LOS ANGELES CA 90011,BAHMAN TAGHDIRIQZAR,1915 TARLETON ST LOS ANGELES CA 90011,SOS/FTB SUSPENDED
2141,201405610475,EXPRESS CASH MART OF CALFORNIA LLC,225 E DANIA BEACH BLVD STE 220  DANIA BEACH FL 33004,5715 CORSA AVE STE 110  WESTLAKE VILLAGE CA 91362-7354,5715 CORSA AVE STE 110  WESTLAKE VILLAGE CA 91362-7354,,,SOS/FTB SUSPENDED
2141,199015700025,"VILLAGE EXPRESS MART, L.P., A CALIFORNIA LIMITED PARTNERSHIP",,"6746 VALJEAN, SUITE 101  LOS ANGELES CA 91406","6746 VALJEAN, SUITE 101  LOS ANGELES CA 91406",ROBERT LIPPMAN,6746 VALJEAN AVENUE #101 VAN NUYS CA 91406,ACTIVE
2141,201608910147,"WILLIAMSON EXPRESS MART, LLC",4811 CHIPPENDALE DRIVE STE 101  SACRAMENTO CA 95841,4811 CHIPPENDALE DRIVE STE 101  SACRAMENTO CA 95841,4811 CHIPPENDALE DRIVE STE 101  SACRAMENTO CA 95841,ANGELA  IRENE VANNUCCI,4811 CHIPPENDALE DRIVE STE 101 SACRAMENTO CA 95841,ACTIVE
2142,C3272850,"CHATSWORTH CIRCLE K, INC.",9589 TOPANGA CANYON BLVD  CHATSWORTH CA 91311,9589 TOPANGA CANYON BLVD  CHATSWORTH CA 91311,9589 TOPANGA CANYON BLVD  CHATSWORTH CA 91311,MUNTHER HAWATMEH,2698 MT VERNON AVE BAKERSFIELD CA 93306,FTB SUSPENDED
2142,C0692771,CIRCLE K AVIATION CORPORATION,P O BOX 1  ARTOIS CA 95913,,P O BOX 1  ARTOIS CA 95913,,,FTB SUSPENDED
2142,C0954354,"CIRCLE K BEEF PROCESSORS, INC.",5431 MEADOW CIRCLE  HUNTINGTON BEACH CA 92647,5431 MEADOW CIRCLE  HUNTINGTON BEACH CA 92647,5431 MEADOW CIRCLE  HUNTINGTON BEACH CA 92647,DAVID KORMONDY,5431 MEADOW CIRCLE HUNTINGTON BEACH CA 92647,SOS/FTB SUSPENDED
2142,C0464734,CIRCLE K COMPANY,505 N PACIFIC AVE  SAN PEDRO CA 90731,505 N PACIFIC AVE  SAN PEDRO CA 90731,505 N PACIFIC AVE  SAN PEDRO CA 90731,WILLIAM P KUEHN,505 N PACIFIC AVE SAN PEDRO CA 90731,FTB SUSPENDED
2142,C1016310,CIRCLE K DEVELOPMENT CO.,1100 SUNBIRD DRIVE  WATSONVILLE CA 95070,1100 SUNBIRD DRIVE  WATSONVILLE CA 95070,1100 SUNBIRD DRIVE  WATSONVILLE CA 95070,ROBERT R KRANDEL,1100 SUNBIRD DRIVE WATSONVILLE CA 95070,DISSOLVED
2142,C0714531,CIRCLE K ENERGY COMPANY,P. O. BOX 807  DALLAS TX 75221,,P. O. BOX 807  DALLAS TX 75221,AGENT RESIGNED 09/26/1975,* ,FTB FORFEITED
2142,C1267527,CIRCLE K ENTERPRISES,43485 ELLSWORTH ST.  FREMONT CA 94539,,43485 ELLSWORTH ST.  FREMONT CA 94539,GISELLE JURKANIN,49 QUAIL CT STE 311 WALNUT CREEK CA 94596,SOS/FTB SUSPENDED
2142,C2650167,"CIRCLE K ENTERPRISES, INC.","1130 WEST WARNER ROAD, BUILDING B  TEMPE AZ 85284","1130 WEST WARNER ROAD, BUILDING B  TEMPE AZ 85284","1130 WEST WARNER ROAD, BUILDING B  TEMPE AZ 85284",,,SURRENDER
2142,C0505788,"CIRCLE K ENTERPRISES, INC.",185 NO. ROBERTSON BLVD.  BEVERLY HILLS CA 90211,,185 NO. ROBERTSON BLVD.  BEVERLY HILLS CA 90211,,,FTB SUSPENDED
2142,C0695411,CIRCLE K FARMS CORPORATION,P. O. BOX 1  ARTOIS CA 95913,,P. O. BOX 1  ARTOIS CA 95913,,,FTB SUSPENDED
2142,200308300019,"CIRCLE K INVESTMENTS, LTD, LIMITED PARTNERSHIP",,1167 BURWICK LANE  FOLSOM CA 95630,1167 BURWICK LANE  FOLSOM CA 95630,WILLIAM KLINGER,1167 BURWICK LANE FOLSOM CA 95630,CANCELED
2142,201831710037,"CIRCLE K OPELIKA AL, LLC",85 MARSH ROAD  ATHERTON CA 94027,85 MARSH ROAD  ATHERTON CA 94027,85 MARSH ROAD  ATHERTON CA 94027,ELAINE M MOORE,85 MARSH ROAD ATHERTON CA 94027,ACTIVE
2142,200810110156,"CIRCLE K PRODUCTIONS, LLC",360 N CRESCENT DR SO BLDG  BEVERLY HILLS CA 90210,360 N CRESCENT DR SO BLDG  BEVERLY HILLS CA 90210,360 N CRESCENT DR SO BLDG  BEVERLY HILLS CA 90210,,,CANCELED
2142,201211410085,CIRCLE K RANCH ENTERPRISES LLC,8976 GRANTLINE RD  ELK GROVE CA 95624,8976 GRANTLINE RD  ELK GROVE CA 95624,8976 GRANTLINE RD  ELK GROVE CA 95624,NORMAN ALFRED KUHN JR,8976 GRANTLINE RD ELK GROVE CA 95624,ACTIVE
2142,201210110454,CIRCLE K RANCH REVIVIAL LLC,8976 GRANTLINE RD  ELK GROVE CA 95624,8976 GRANTLINE RD  ELK GROVE CA 95624,8976 GRANTLINE RD  ELK GROVE CA 95624,NORMAN ALFRED KUHN JR,8976 GRANTLINE RD ELK GROVE CA 95624,ACTIVE
2142,201305210224,K CIRCLE LLC,1341 LOS PADRES BLVD  SANTA CLARA CA 95050,1341 LOS PADRES BLVD  SANTA CLARA CA 95050,1341 LOS PADRES BLVD  SANTA CLARA CA 95050,,,CANCELED
2142,200726010185,MICHAEL & LINDA ZAIA CIRCLE K LLC,,173 N MAIN ST #400  SAYVILLE NY 11782,173 N MAIN ST #400  SAYVILLE NY 11782,MICHAEL ZAIA,5822 CHESTERFIELD COURT SAN JOSE CA 95138,CANCELED
2147,C1769236,"A.M./P.M. PRODUCTIONS, INC.","4640 ADMIRALITY WAY, STE 429  MARINA DEL REY CA 90292",,"4640 ADMIRALITY WAY, STE 429  MARINA DEL REY CA 90292",MONTE MARKHAM,11811 W. OLYMPIC BLVD LOS ANGELES CA 90064,DISSOLVED
2147,C1398496,"A.M./P.M. REALTY, INC.",1556 E KATELLA AVE  ANAHEIM CA 92805,1556 E KATELLA AVE  ANAHEIM CA 92805,1556 E KATELLA AVE  ANAHEIM CA 92805,INEZ MORITA,1556 E KATELLA AVE ANAHEIM CA 92805,FTB SUSPENDED
2147,C2513859,A.M.P.M. CONSTRUCTION INC,23276 S POINTE DR STE 112  LAGUNA HILLS CA 92653,23276 S POINTE DR STE 112  LAGUNA HILLS CA 92653,23276 S POINTE DR STE 112  LAGUNA HILLS CA 92653,ALBERTO A MOBRICI,23276 S POINTE DR STE 112 LAGUNA HILLS CA 92653,FTB SUSPENDED
2147,C3501809,AIR CONDITIONING REPAIR AMPM,5919 ROLLING RD  WOODLAND HILLS CA 91367,5919 ROLLING RD  WOODLAND HILLS CA 91367,5919 ROLLING RD  WOODLAND HILLS CA 91367,ARIEL MALKA,5919 ROLLING RD WOODLAND HILLS CA 91367,ACTIVE
2147,C2902117,"AM/PM ASSURED CARE, INC.","31200 LANDAU BLVD., #2708  CATHEDRAL CITY CA 92270","31200 LANDAU BLVD., #2708  CATHEDRAL CITY CA 92270","31200 LANDAU BLVD., #2708  CATHEDRAL CITY CA 92270",,,SOS SUSPENDED
2147,C1416106,"AM/PM COMMUNICATIONS, INCORPORATED",1054 N. TUSTIN AVE.  ANAHEIM CA 92807,1054 N. TUSTIN AVE.  ANAHEIM CA 92807,1054 N. TUSTIN AVE.  ANAHEIM CA 92807,GEORGE R. BEAN,1054 N. TUSTIN AVE. ANAHEIM CA 92807,DISSOLVED
2147,C1369975,AM/PM DONUTS & PIZZA INC.,4500 W IMPERIAL HWY  HAWTHORNE CA 90304,,4500 W IMPERIAL HWY  HAWTHORNE CA 90304,BERHE SULTAN,222 W KELSO #5 INGLEWOOD CA 90301,FTB SUSPENDED
2147,C1967962,"AM/PM DOOR, INC.",9723 TELFAIR AVE  PACOIMA CA 91331,9723 TELFAIR AVE  PACOIMA CA 91331,9723 TELFAIR AVE  PACOIMA CA 91331,KELVIN TAYLOR,9723 TELFAIR AVE PACOIMA CA 91331,ACTIVE
2147,C1429761,"AM/PM EXPRESS, INC.",477 WAYSIDE PL.  DIAMOND BAR CA 91765,477 WAYSIDE PL.  DIAMOND BAR CA 91765,477 WAYSIDE PL.  DIAMOND BAR CA 91765,NABIL N. ATAYA,477 WAYSIDE PL. DIAMOND BAR CA 91765,DISSOLVED
2147,C1967963,"AM/PM GATE WORKS, INC.",80 E SANTA ANITA AVE  BURBANK CA 91502,80 E SANTA ANITA AVE  BURBANK CA 91502,80 E SANTA ANITA AVE  BURBANK CA 91502,KELVIN D TAYLOR,80 E SANTA ANITA AVE BURBANK CA 91502,FTB SUSPENDED
2147,201905310433,A.M.P.M MAINTENANCE LLC,2767 WEBB ST  VALLEJO CA 94591,2767 WEBB ST  VALLEJO CA 94591,2767 WEBB ST  VALLEJO CA 94591,,,ACTIVE
2147,201213110320,"AM/PM AUTO SALES AND REPAIR, LLC",,1300 GIAHOS AVENUE  MODESTO CA 95358,1300 GIAHOS AVENUE  MODESTO CA 95358,,,FTB SUSPENDED
2147,200430210106,AM/PM CONSTRUCTION LLC,,222 W CARMEN LN 103  SANTA MARIA CA 93458,222 W CARMEN LN 103  SANTA MARIA CA 93458,A DALE AMBLER,222 W CARMEN LN 103 SANTA MARIA CA 93458,FTB SUSPENDED
2147,201721510479,"AM/PM EXPRESS SERVICES, LLC",4006 CINNABAR ST.  ANTIOCH CA 94509,4006 CINNABAR ST.  ANTIOCH CA 94509,4006 CINNABAR ST.  ANTIOCH CA 94509,,,ACTIVE
2147,200234510116,"AM/PM HOLDINGS, LLC",,6281 S. HAWKINS WAY  PAHRUMP NV 89061,6281 S. HAWKINS WAY  PAHRUMP NV 89061,TIMOTHY J. KREITLER,809 MAIN STREET SUSANVILLE CA,FTB FORFEITED
2147,200334410075,"AM/PM HOME CARE, LLC",,2890 POPLAR MEADOW LN  JAMUL CA 91935,2890 POPLAR MEADOW LN  JAMUL CA 91935,JUANITA MARIA WALSH,2890 POPLAR MEADOW LN JAMUL CA 91935,CANCELED
2147,200521510027,AM/PM LAUNDROMAT LLC,,5105 S FIGUROA ST  LOS ANGELES CA 90037,5105 S FIGUROA ST  LOS ANGELES CA 90037,DIMITRY ABHBEL,14558 SYLVAN ST VAN NUYS CA 91411,CANCELED
2147,201707610176,"AM/PM LAUNDROMAT, LLC",19528 VENTURA BLVD #640  TARZANA CA 91356,1451 VENICE BLVD  LOS ANGELES CA 90008,1451 VENICE BLVD  LOS ANGELES CA 90008,KAMBIZ DRAKE,23901 CALABASAS RD #1030 CALABASAS CA 91302,ACTIVE
2147,201311711185,"AM/PM SHUTTLE SERVICE, LLC",PO BOX 78  PALM SPRINGS CA 92263,540 DESERT WAY UNIT 5  PALM SPRINGS CA 92264,540 DESERT WAY UNIT 5  PALM SPRINGS CA 92264,GREGORIO L DAFFON JR,540 DESERT WAY UNIT 5 PALM SPRINGS CA 92264,ACTIVE
2147,201426610033,"AM/PM VETERINARY HOSPITAL, LLC",61 WHITE BLOSSOM  IRVINE CA 92620,61 WHITE BLOSSOM  IRVINE CA 92620,61 WHITE BLOSSOM  IRVINE CA 92620,,,CONVERTED-OUT
2173,C3587135,1 ELEVEN AUTO SALES,83957 INDIO BLVD  INDIO CA 92201,83957 INDIO BLVD  INDIO CA 92201,83957 INDIO BLVD  INDIO CA 92201,LOUIS MANUEL BECERRA,83957 INDIO BLVD INDIO CA 92201,ACTIVE
2173,C2901337,"1 ELEVEN TRUCK STOP, INC.",1963 SOUTH HWY 111  EL CENTRO CA 92243,1963 SOUTH HWY 111  EL CENTRO CA 92243,1963 SOUTH HWY 111  EL CENTRO CA 92243,NASH MAROKI,1963 SOUTH HWY 111 EL CENTRO CA 92243,DISSOLVED
2173,C4244428,"1-ELEVEN CREATIVE RESOLUTION, INC.",3225 MCLEOD DR STE 100  LAS VEGAS NV 89121,1008 W AVE M14 STE A - D180  PALMDALE CA 93551,1008 W AVE M14 STE A - D180  PALMDALE CA 93551,,,ACTIVE
2173,C2696273,10 ELEVEN ENTERTAINMENT,4500 BEEMAN AVE  STUDIO CITY CA 91604,4500 BEEMAN AVE  STUDIO CITY CA 91604,4500 BEEMAN AVE  STUDIO CITY CA 91604,,,DISSOLVED
2173,C4199798,"11-ELEVEN GROUP, INC",16309 SAN JACINTO  FOUNTAIN VALLEY CA 92708,16309 SAN JACINTO  FOUNTAIN VALLEY CA 92708,16309 SAN JACINTO  FOUNTAIN VALLEY CA 92708,ERIC HERRERA,16309 SAN JACINTO FOUNTAIN VALLEY CA 92708,ACTIVE
2173,C3499061,16 ELEVEN BEVERLY GLEN ASSOCIATION,1611 S BEVERLY GLEN BLVD  LOS ANGELES CA 90024,1611 S BEVERLY GLEN BLVD  LOS ANGELES CA 90024,1611 S BEVERLY GLEN BLVD  LOS ANGELES CA 90024,JAY EZRA NAYSSAN,10350 SANTA MONICA BLVD #190 LOS ANGELES CA 90025,FTB SUSPENDED
2173,C3923516,5-ELEVEN HOOPS,7906 E TARMA ST  LONG BEACH CA 90808,7906 E TARMA ST  LONG BEACH CA 90808,7906 E TARMA ST  LONG BEACH CA 90808,,,ACTIVE
2173,C2389795,"7-ELEVEN 13898, INC.",8363 RESEDA BLVD STE 205  NORTHRIDGE CA 91324-5905,,8363 RESEDA BLVD STE 205  NORTHRIDGE CA 91324-5905,R K SHARMA,"SHARMA WASSSON ETAL, 8363 RESEDA BLVD STE 205 NORTHRIDGE CA 91324-5905",FTB SUSPENDED
2173,C2524324,"7-ELEVEN 17124, INC.",10524 VARIEL AVENUE  CHATSWORTH CA 91311-2356,,10524 VARIEL AVENUE  CHATSWORTH CA 91311-2356,DHARAM BHATIA,8471 CHAPMAN AVENUE GARDEN GROVE CA 92641,DISSOLVED
2173,C2389793,"7-ELEVEN 25122, INC.",8363 RESEDA BLVD STE 205  NORTHRIDGE CA 91324-5905,,8363 RESEDA BLVD STE 205  NORTHRIDGE CA 91324-5905,R K SHARMA,"SHARMA WASSON ETAL, 8363 RESEDA BLVD STE 205 NORTHRIDGE CA 91324-5905",FTB SUSPENDED
2173,201815110671,11 ELEVEN DESIGN & DEVELOPMENT LLC,6328 CALIFORNIA AVE  LONG BEACH CA 90805,6328 CALIFORNIA AVE  LONG BEACH CA 90805,6328 CALIFORNIA AVE  LONG BEACH CA 90805,ADRIAN RAMON MIRANDA,6328 CALIFORNIA AVE LONG BEACH CA 90805,ACTIVE
2173,201326210092,11 ONE ELEVEN LLC,1347 N. STANLEY AVE APT 2  LOS ANGELES CA 90046,1347 N. STANLEY AVE APT 2  LOS ANGELES CA 90046,1347 N. STANLEY AVE APT 2  LOS ANGELES CA 90046,ARA ZAVEN BERBERIAN,1347 N. STANLEY AVE APT 2 LOS ANGELES CA 90046,ACTIVE
2173,201113010011,"19 ELEVEN REAL PROPERTY ASSETS, LLC",1891 N DARTMOUTH AVE  CLOVIS CA 93619,1891 N DARTMOUTH AVE  CLOVIS CA 93619,1891 N DARTMOUTH AVE  CLOVIS CA 93619,JOSHUA HERWALDT,1891 N DARTMOUTH AVE CLOVIS CA 93619,ACTIVE
2173,201731110126,3 ELEVEN INVESTMENT LLC,9150 LAS TUNAS DR.  TEMPLE CITY CA 91780,9150 LAS TUNAS DR.  TEMPLE CITY CA 91780,9150 LAS TUNAS DR.  TEMPLE CITY CA 91780,TONG H WONG,9150 LAS TUNAS DR. TEMPLE CITY CA 91780,ACTIVE
2173,201813610322,4 ELEVEN SCREEN PRINTING LLC,364 DOWNEY DR  BIG BEAR CITY CA 92314,364 DOWNEY DR  BIG BEAR CITY CA 92314,364 DOWNEY DR  BIG BEAR CITY CA 92314,MATTHEW JOHNSON,364 DOWNEY DR BIG BEAR CITY CA 92314,CANCELED
2173,201320710164,"426 ELEVEN, LLC",3177 STANWOOD LANE  LAFAYETTE CA 94549,3177 STANWOOD LANE  LAFAYETTE CA 94549,3177 STANWOOD LANE  LAFAYETTE CA 94549,MATTHEW FIALHO,3177 STANWOOD LANE LAFAYETTE CA 94549,ACTIVE
2173,200526510022,"43 ELEVEN, LLC",,4935 MC CONNELL AVE #9  LOS ANGELES CA 90066,4935 MC CONNELL AVE #9  LOS ANGELES CA 90066,BRIAN COHEE,4935 MC CONNELL AVE #9 LOS ANGELES CA 90066,CANCELED
2173,201123410077,53 ELEVEN SPORTS DISTRIBUTION LLC,,1035 PACIFIC AVE  SAN FRANCISCO CA 94133,1035 PACIFIC AVE  SAN FRANCISCO CA 94133,ALEX LUGOSCH,1035 PACIFIC AVE SAN FRANCISCO CA 94133,FTB SUSPENDED
2173,200829610055,"7-ELEVEN BEACH, LLC, A CALIFORNIA LIMITED LIABILITY COMPANY",1827 VALLEJO ST  SAN FRANCISCO CA 94123,1827 VALLEJO ST  SAN FRANCISCO CA 94123,1827 VALLEJO ST  SAN FRANCISCO CA 94123,,,ACTIVE
2173,199018300037,"7-ELEVEN PROPERTIES, A CALIFORNIA LIMITED PARTNERSHIP",,82 SEA ISLAND DR.  NEWPORT BEACH CA 92660,82 SEA ISLAND DR.  NEWPORT BEACH CA 92660,BRUCE A. GUYETTE,82 SEA ISLAND DR. NEWPORT BEACH CA 92660,ACTIVE
2346,C2158949,"DOLLAR TREE DISTRIBUTION, INC.",500 VOLVO PKWY  CHESAPEAKE VA 23320,500 VOLVO PKWY  CHESAPEAKE VA 23320,500 VOLVO PKWY  CHESAPEAKE VA 23320,,,ACTIVE
2346,C2122117,"DOLLAR TREE STORES, INC.",500 VOLVO PARKWAY  CHESAPEAKE VA 23320,500 VOLVO PARKWAY  CHESAPEAKE VA 23320,500 VOLVO PARKWAY  CHESAPEAKE VA 23320,,,ACTIVE
2346,C1581168,"DOLLAR TREE WEST, INC.",3222 WINONA WAY  NORTH HIGHLANDS CA 95660,3222 WINONA WAY  NORTH HIGHLANDS CA 95660,3222 WINONA WAY  NORTH HIGHLANDS CA 95660,DAVID J REED,3222 WINONA WAY NORTH HIGHLANDS CA 95660,MERGED OUT
2346,C2114076,"DOLLAR TREE WEST, INC.",P O BOX 2500  NORFOLK VA 23501,500 VOLVO PKWY  CHEASPEAKE VA 23320,500 VOLVO PKWY  CHEASPEAKE VA 23320,,,MERGED OUT
2346,C2453471,J. DOLLAR TREE VARIETY INC,1051 W MARTIN LUTHER KING JR  LOS ANGELES CA 90062,1051 W MARTIN LUTHER KING JR  LOS ANGELES CA 90062,1051 W MARTIN LUTHER KING JR  LOS ANGELES CA 90062,J EMEYA,1051 W MARTIN LUTHER KING JR LOS ANGELES CA 90062,FTB SUSPENDED
2346,201429510082,BANSI PALMS DOLLAR TREE LLC,27045 BIG HORN MTN WAY  YORBA LINDA CA 92887,27045 BIG HORN MTN WAY  YORBA LINDA CA 92887,27045 BIG HORN MTN WAY  YORBA LINDA CA 92887,VINOD KARDANI,27045 BIG HORN MTN WAY YORBA LINDA CA 92887,FTB SUSPENDED
2346,201900110379,DOLLAR TREE HOUSE LLC,17325 CHATSWORTH STREET  LOS ANGELES CA 91344,17325 CHATSWORTH STREET  LOS ANGELES CA 91344,17325 CHATSWORTH STREET  LOS ANGELES CA 91344,CRISTIAN DEL TORO,17325 CHATSWORTH STREET LOS ANGELES CA 91344,ACTIVE
2346,201027010289,"DOLLAR TREE SOURCING COMPANY, LLC",500 VOLVO PARKWAY  CHESAPEAKE VA 23320,500 VOLVO PARKWAY  CHESAPEAKE VA 23320,500 VOLVO PARKWAY  CHESAPEAKE VA 23320,,,ACTIVE
2346,201705310107,IWF CITRUS TREE FAMILY DOLLAR LLC,1933 CLIFF DR STE 1  SANTA BARBARA CA 93109,1933 CLIFF DR STE 1  SANTA BARBARA CA 93109,1933 CLIFF DR STE 1  SANTA BARBARA CA 93109,THOMAS J GAMBLE,1933 CLIFF DR STE 1 SANTA BARBARA CA 93109,CANCELED
2346,201609910548,"RU DOLLAR TREE MORROW GA, LLC",3090 BRISTOL STREET STE 550  COSTA MESA CA 92626,3090 BRISTOL STREET STE 550  COSTA MESA CA 92626,3090 BRISTOL STREET STE 550  COSTA MESA CA 92626,,,ACTIVE
2346,201229210078,YUCCA VALLEY DOLLAR TREE LLC,19223 E COLIMA RD #938  ROWLAND HEIGHTS CA 91748,19223 E COLIMA RD #938  ROWLAND HEIGHTS CA 91748,19223 E COLIMA RD #938  ROWLAND HEIGHTS CA 91748,JACK P LIN,19223 E COLIMA RD #938 ROWLAND HEIGHTS CA 91748,CANCELED
2374,C2158949,"DOLLAR TREE DISTRIBUTION, INC.",500 VOLVO PKWY  CHESAPEAKE VA 23320,500 VOLVO PKWY  CHESAPEAKE VA 23320,500 VOLVO PKWY  CHESAPEAKE VA 23320,,,ACTIVE
2374,C2122117,"DOLLAR TREE STORES, INC.",500 VOLVO PARKWAY  CHESAPEAKE VA 23320,500 VOLVO PARKWAY  CHESAPEAKE VA 23320,500 VOLVO PARKWAY  CHESAPEAKE VA 23320,,,ACTIVE
2374,C1581168,"DOLLAR TREE WEST, INC.",3222 WINONA WAY  NORTH HIGHLANDS CA 95660,3222 WINONA WAY  NORTH HIGHLANDS CA 95660,3222 WINONA WAY  NORTH HIGHLANDS CA 95660,DAVID J REED,3222 WINONA WAY NORTH HIGHLANDS CA 95660,MERGED OUT
2374,C2114076,"DOLLAR TREE WEST, INC.",P O BOX 2500  NORFOLK VA 23501,500 VOLVO PKWY  CHEASPEAKE VA 23320,500 VOLVO PKWY  CHEASPEAKE VA 23320,,,MERGED OUT
2374,C2453471,J. DOLLAR TREE VARIETY INC,1051 W MARTIN LUTHER KING JR  LOS ANGELES CA 90062,1051 W MARTIN LUTHER KING JR  LOS ANGELES CA 90062,1051 W MARTIN LUTHER KING JR  LOS ANGELES CA 90062,J EMEYA,1051 W MARTIN LUTHER KING JR LOS ANGELES CA 90062,FTB SUSPENDED
2374,201429510082,BANSI PALMS DOLLAR TREE LLC,27045 BIG HORN MTN WAY  YORBA LINDA CA 92887,27045 BIG HORN MTN WAY  YORBA LINDA CA 92887,27045 BIG HORN MTN WAY  YORBA LINDA CA 92887,VINOD KARDANI,27045 BIG HORN MTN WAY YORBA LINDA CA 92887,FTB SUSPENDED
2374,201900110379,DOLLAR TREE HOUSE LLC,17325 CHATSWORTH STREET  LOS ANGELES CA 91344,17325 CHATSWORTH STREET  LOS ANGELES CA 91344,17325 CHATSWORTH STREET  LOS ANGELES CA 91344,CRISTIAN DEL TORO,17325 CHATSWORTH STREET LOS ANGELES CA 91344,ACTIVE
2374,201027010289,"DOLLAR TREE SOURCING COMPANY, LLC",500 VOLVO PARKWAY  CHESAPEAKE VA 23320,500 VOLVO PARKWAY  CHESAPEAKE VA 23320,500 VOLVO PARKWAY  CHESAPEAKE VA 23320,,,ACTIVE
2374,201705310107,IWF CITRUS TREE FAMILY DOLLAR LLC,1933 CLIFF DR STE 1  SANTA BARBARA CA 93109,1933 CLIFF DR STE 1  SANTA BARBARA CA 93109,1933 CLIFF DR STE 1  SANTA BARBARA CA 93109,THOMAS J GAMBLE,1933 CLIFF DR STE 1 SANTA BARBARA CA 93109,CANCELED
2374,201609910548,"RU DOLLAR TREE MORROW GA, LLC",3090 BRISTOL STREET STE 550  COSTA MESA CA 92626,3090 BRISTOL STREET STE 550  COSTA MESA CA 92626,3090 BRISTOL STREET STE 550  COSTA MESA CA 92626,,,ACTIVE
2374,201229210078,YUCCA VALLEY DOLLAR TREE LLC,19223 E COLIMA RD #938  ROWLAND HEIGHTS CA 91748,19223 E COLIMA RD #938  ROWLAND HEIGHTS CA 91748,19223 E COLIMA RD #938  ROWLAND HEIGHTS CA 91748,JACK P LIN,19223 E COLIMA RD #938 ROWLAND HEIGHTS CA 91748,CANCELED
2387,C3277785,"BIG LOTS F&S, INC.",4900 E DUBLIN GRANVILLE RD  COLUMBUS OH 43081,4900 E DUBLIN GRANVILLE RD  COLUMBUS OH 43081,4900 E DUBLIN GRANVILLE RD  COLUMBUS OH 43081,,,ACTIVE
2387,C2698319,"BIG LOTS PROPERTIES, INC.",5198 ARLINGTON AVE #119  RIVERSIDE CA 92504,5198 ARLINGTON AVE #119  RIVERSIDE CA 92504,5198 ARLINGTON AVE #119  RIVERSIDE CA 92504,DOUGLAS GEISLER,5198 ARLINGTON AVE #119 RIVERSIDE CA 92504,FTB SUSPENDED
2387,C2009269,"BIG LOTS STORES, INC.",4900 E DUBLIN GRANVILLE RD  COLUMBUS OH 43081,4900 E DUBLIN GRANVILLE RD  COLUMBUS OH 43081,4900 E DUBLIN GRANVILLE RD  COLUMBUS OH 43081,,,ACTIVE
2395,201706210590,STACY'S @ PALM SPRINGS LLC,220 E ARENAS RD  PALM SPRINGS CA 92262,220 E ARENAS RD  PALM SPRINGS CA 92262,220 E ARENAS RD  PALM SPRINGS CA 92262,,,ACTIVE
2419,C4098627,"CHILL N VAPE LOUNGE, INC.",11314 VENTURA BLVD  STUDIO CITY CA 91604,11314 VENTURA BLVD  STUDIO CITY CA 91604,11314 VENTURA BLVD  STUDIO CITY CA 91604,HOVANES BAARYAN,11314 VENTURA BLVD STUDIO CITY CA 91604,ACTIVE
2419,201627010294,"CHILL N VAPE LOUNGE, LLC",11314 VENTURA BLVD  STUDIO CITY CA 91604,11314 VENTURA BLVD  STUDIO CITY CA 91604,11314 VENTURA BLVD  STUDIO CITY CA 91604,,,CANCELED
2437,C3000687,"FINAL SCORE SPORTS BAR, INC.",1126 SARATOGA AVE  SAN JOSE CA 95129,1126 SARATOGA AVE  SAN JOSE CA 95129,1126 SARATOGA AVE  SAN JOSE CA 95129,JOSEPH WERSTLER,1126 SARATOGA AVE SAN JOSE CA 95129,ACTIVE
2437,199534100005,FINAL SCORE SPORTS BAR & GRILL  LIMITED PARTNERSHIP,,12329 BELLFLOWER BLVD.  DOWNEY CA 90242,12329 BELLFLOWER BLVD.  DOWNEY CA 90242,MICHAEL FAGAN,12329 BELLFLOWER BLVD. DOWNEY CA 90242,CANCELED
2440,201503110046,BAR CHILL LLC,1319 MORENA BLVD  SAN DIEGO CA 92110,1319 MORENA BLVD  SAN DIEGO CA 92110,1319 MORENA BLVD  SAN DIEGO CA 92110,ROBERT STEPIC,5233 LA JOLLA BLVD LA JOLLA CA 92037,ACTIVE
2440,201629310394,"FARMACY BAR AND CHILL, LLC, THE",191 RUBY STREET  AUBURN CA 95603,191 RUBY STREET  AUBURN CA 95603,191 RUBY STREET  AUBURN CA 95603,,,ACTIVE
2469,C3505613,THE COPA ROOM INCORPORATED,PO BOX 3364  PALM SPRINGS CA 92263,244 EAST AMADO ROAD  PALM SPRINGS CA 92262,244 EAST AMADO ROAD  PALM SPRINGS CA 92262,TONY DI LEMBO,2708 ALEXANDER CLUB DRIVE PALM SPRINGS CA 92262,ACTIVE
2469,200815610026,"COPA ROOM, LLC",,5737 KANAN RD. STE 138  AGORA HILLS CA 91301,5737 KANAN RD. STE 138  AGORA HILLS CA 91301,CHRIS BREED,1666 1/2 MCCADDEN HOLLYWOOD CA 90028,CANCELED
2475,C2508412,"HEAD HUNTERS VIDEO BAR & GRILL, INC.",686 WOODLAKE DR  SACRAMENTO CA 95815,686 WOODLAKE DR  SACRAMENTO CA 95815,686 WOODLAKE DR  SACRAMENTO CA 95815,MYRON A SIDIE,686 WOODLAKE DR SACRAMENTO CA 95815,SOS/FTB SUSPENDED
2495,C1601336,HOMEOWNERS' ASSOCIATION OF DATE PALM COUNTRY CLUB,459 CERRITOS WAY  CATHEDRAL CITY CA 92234,459 CERRITOS WAY  CATHEDRAL CITY CA 92234,459 CERRITOS WAY  CATHEDRAL CITY CA 92234,JEANNE FLORES,459 CERRITOS WAY CATHEDRAL CITY CA 92234,ACTIVE
2501,C3074708,MESQUITE GOLF & COUNTRY CLUB CORP.,2700 EAST MESQUITE AVE.  PALM SPRINGS CA 92264,2700 EAST MESQUITE AVE.  PALM SPRINGS CA 92264,2700 EAST MESQUITE AVE.  PALM SPRINGS CA 92264,MESQUITE GOLF,2700 EAST MESQUITE AVE. PALM SPRINGS CA 92264,FTB SUSPENDED
2516,C4048850,"B. R. WINE BAR, INC.",2478 BIXLER ROAD  BRENTWOOD CA 94513,1520 DISCOVERY BAY BLVD SUITE 300  DISCOVERY BAY CA 94505,1520 DISCOVERY BAY BLVD SUITE 300  DISCOVERY BAY CA 94505,,,DISSOLVED
2516,C1209535,BAR 'R' COACHWORKS INC.,65 TRAVELAND LN.  EAST IRVINE CA 92650,65 TRAVELAND LN.  EAST IRVINE CA 92650,65 TRAVELAND LN.  EAST IRVINE CA 92650,TERYL J. REIN,23001 VESPER EL TORO CA 92630,DISSOLVED
2516,C2288806,"BAR DIAMOND R, INC.",10 NUEVO  IRVINE CA 92612,10 NUEVO  IRVINE CA 92612,10 NUEVO  IRVINE CA 92612,RON H OBERNDORFER,5464 GROSSMONT CENTER DR.    THIRD FLOOR LA MESA CA 91942,ACTIVE
2516,C3448018,C BAR R ENTERPRISES,7983 DIANA LANE  DUBLIN CA 94568,7983 DIANA LANE  DUBLIN CA 94568,7983 DIANA LANE  DUBLIN CA 94568,BRIAN ROBERT CAMPBELL,7983 DIANA LANE DUBLIN CA 94568,ACTIVE
2516,C0225696,C-BAR-R CLUB CALIFORNIA RIDERS,,,,,,FTB SUSPENDED
2516,C1548772,DOUBLE R BAR,P O BOX 542  YUBA CITY CA 95992,,P O BOX 542  YUBA CITY CA 95992,RUDOLF RATKOVSKY,567 2ND ST YUBA CITY CA 95991,FTB SUSPENDED
2516,C3147819,DOUBLE R BAR REGULATORS INC.,PO BOX 3105  VICTORVILLE CA 92393-3105,30200 DEL ORO DR  LUCERNE VALLEY CA 92356,30200 DEL ORO DR  LUCERNE VALLEY CA 92356,EDWARD RICHARD BOYDE,10979 ROCKAWAY GLEN RD APPLE VALLEY CA 92308,ACTIVE
2516,C0286769,H-BAR-R WESTERN OUTFITTERS,P O BOX 468  SAN DIEGO CA 92112,,P O BOX 468  SAN DIEGO CA 92112,MARK D JACOBS,2121 IMPERIAL AVE SAN DIEGO CA 92102,DISSOLVED
2516,C2144339,"R & B COFFEE SHOP, RESTAURANT & KARAOKE BAR",1257 W. TEMPLE STREET  LOS ANGELES CA 90026,,1257 W. TEMPLE STREET  LOS ANGELES CA 90026,ELIZABETH A. ELMIDO,1257 W. TEMPLE STREET LOS ANGELES CA 90026,FTB SUSPENDED
2516,C1712591,"R & R BAR SUPPLIES, INC.",1503 RINGER LN  REDONDO BEACH CA 90278,1503 RINGER LN  REDONDO BEACH CA 90278,1503 RINGER LN  REDONDO BEACH CA 90278,ROGER BRULAND,1503 RINGER LN REDONDO BEACH CA 90278,SOS SUSPENDED
2516,200418810034,"BAR 4 R COMPANY, LLC",,12625 FREDERICK STREET STE 1-5 #265  MORENO VALLEY CA 92553,12625 FREDERICK STREET STE 1-5 #265  MORENO VALLEY CA 92553,MICHAEL S ROACH,12625 FREDERICK STREET STE 1-5 #265 MORENO VALLEY CA 92553,CANCELED
2516,200617410099,"BAR R WATER TRUCK SERVICE, L.L.C.",,PO BOX 118  DENAIR CA 95316,PO BOX 118  DENAIR CA 95316,DUSTIN BURGESS,19605 TURNER AVE. HILMAR CA 95324,CANCELED
2516,198932000008,"BAR R. G. RANCHES, A LIMITED PARTNERSHIP",,24095 AVENUE 230  LINDSAY CA 93247,24095 AVENUE 230  LINDSAY CA 93247,ROBERT R. GLICK,24095 AVENUE 230 LINDSAY CA 93247,CANCELED
2516,198535800019,"BAR TRIPLE R, A CALIFORNIA LIMITED PARTNERSHIP",PO BOX 3757  SANTA MONICA CA 90408,2001 WILSHIRE BLVD STE 270  SANTA MONICA CA 90403,2001 WILSHIRE BLVD STE 270  SANTA MONICA CA 90403,J. ALLEN RADFORD,"528 ARIZONA AVE., SUITE 210 SANTA MONICA CA 90401",ACTIVE
2516,201433010258,"DOUBLE R BAR RANCH, LLC",17130 VAN BUREN BLVD STE 167  RIVERSIDE CA 92504,17130 VAN BUREN BLVD STE 167  RIVERSIDE CA 92504,17130 VAN BUREN BLVD STE 167  RIVERSIDE CA 92504,JAMES W HEFFEL,17130 VAN BUREN BLVD STE 167 RIVERSIDE CA 92504,SOS/FTB SUSPENDED
2516,200610510084,"TWO R BAR LAND & LIVESTOCK, LLC.",,60 SOUTH LASSEN STREET  SUSANVILLE CA 96130,60 SOUTH LASSEN STREET  SUSANVILLE CA 96130,JAIMEE A. RICHEY,60 SOUTH LASSEN STREET SUSANVILLE CA 96130,CANCELED
2518,C2834039,AMIGO'S DE LOS COMPADRE'S,440 WEST CT ST  SAN BERNARDINO CA 92418,440 WEST CT ST  SAN BERNARDINO CA 92418,440 WEST CT ST  SAN BERNARDINO CA 92418,OSCAR CHAVEZ,440 WEST CT ST SAN BERNARDINO CA 92418,DISSOLVED
2518,C1270212,"ASOCIACION DE CHARROS LOS COMPADRES DE OXNARD, CALIFORNIA, INC.",1247 S. J STREET  OXNARD CA 93030,1247 S. J STREET  OXNARD CA 93030,1247 S. J STREET  OXNARD CA 93030,PEDRO MARTINEX,1247 S. J STREET OXNARD CA 93030,FTB SUSPENDED
2518,C0504932,COMPADRES DE LOS GATOS DE SANTA BARBARA,3936 HARROLD AVE.  SANTA BARBARA CA 93110,,3936 HARROLD AVE.  SANTA BARBARA CA 93110,,,FTB SUSPENDED
2518,C3393999,LOS 3 COMPADRES,1235 W. AVENUE I  LANCASTER CA 93534,1235 W. AVENUE I  LANCASTER CA 93534,1235 W. AVENUE I  LANCASTER CA 93534,NANCY RUIZ URQUIZA,1235W. AVENUE I LANCASTER CA 93534,FTB SUSPENDED
2518,C0194718,LOS COMPADRES,1849 S EL CIELO ROAD  PALM SPRINGS CA 92264,1849 S EL CIELO ROAD  PALM SPRINGS CA 92264,1849 S EL CIELO ROAD  PALM SPRINGS CA 92264,GARY CHANEY,23-435 BISNAGE AVE PALM SPRINGS CA 92264,ACTIVE
2518,C1968091,"LOS COMPADRES AGRI-LABOR, A CALIFORNIA CORPORATION",P O BOX 513  GUADALUPE CA 93434,259-A GUADALUPE ST  GUADALUPE CA 93434,259-A GUADALUPE ST  GUADALUPE CA 93434,KENNETH ROSENE,267 CAMP LANE GUADALUPE CA 93434,SOS/FTB SUSPENDED
2518,C2841748,"LOS COMPADRES AUTO MARKET , INC.",2596 W FOOTHILL BLVD  SAN BERNARDINO CA 92410,2596 W FOOTHILL_BLVD  SAN BERNARDINO CA 92410,2596 W FOOTHILL_BLVD  SAN BERNARDINO CA 92410,ANA BERTHA MORENO,2596 W FOOTHILL BLVD SAN BERNARDINO CA 92410,FTB SUSPENDED
2518,C4051119,LOS COMPADRES BAR & GRILL INC,4126 MONTEREY HWY  SAN JOSE CA 95121,4126 MONTEREY HWY  SAN JOSE CA 95121,4126 MONTEREY HWY  SAN JOSE CA 95121,RAMON MACIAS,3877 WHINNEY PLACE SAN JOSE CA 95121,ACTIVE
2518,C0332107,LOS COMPADRES CLUB OF LA HABRA HEIGHTS,P.O. BOX 212  LA HABRA CA 90631,,P.O. BOX 212  LA HABRA CA 90631,JOHN PEARCE,550 LAMAT ROAD LA HABRA HEIGHTS CA 90631,ACTIVE
2518,C0327310,LOS COMPADRES CLUB OF OCEANSIDE,,,,,,FTB SUSPENDED
2518,201901110313,LOS COMPADRES AUTO 64 LLC,6400 S. BROADWAY BLVD UNIT B  LOS ANGELES CA 90003,6400 S. BROADWAY BLVD UNIT B  LOS ANGELES CA 90003,6400 S. BROADWAY BLVD UNIT B  LOS ANGELES CA 90003,,,ACTIVE
2518,201609010164,"LOS COMPADRES AUTO SALES, LLC",467 SARATOGA AVE #622  SAN JOSE CA 95129,4712 ALBANY DR #B202  SAN JOSE CA 95129,4712 ALBANY DR #B202  SAN JOSE CA 95129,ASMIR BULJUBASIC,4712 ALBANY DR #B202 SAN JOSE CA 95129,SOS/FTB SUSPENDED
2518,201505710272,"LOS COMPADRES CANDY DISTRIBUTORS, LLC.",2098 HARVEST RD #C-230  SAN DIEGO CA 92154,2098 HARVEST RD #C-230  SAN DIEGO CA 92154,2098 HARVEST RD #C-230  SAN DIEGO CA 92154,DANIEL C CONTRERAS,2060 OTAY LAKES RD STE 210 CHULA VISTA CA 91915,SOS SUSPENDED
2518,201516610353,"LOS COMPADRES FARMS, LLC",PO BOX 2476  WATSONVILLE CA 95077,3510 HILLTOP ROAD  MOSS LANDING CA 95039,3510 HILLTOP ROAD  MOSS LANDING CA 95039,JAMES LYNN TIPTON,9257 DOVE COURT GILROY CA 95020,CANCELED
2518,199803410036,LOS COMPADRES LLC,,1001 WEST WHITTIER BLVD.  LA HABRA CA 90631,1001 WEST WHITTIER BLVD.  LA HABRA CA 90631,LEE DEIERLING,1001 WEST WHITTIER BLVD LA HABRA CA 90631-3798,ACTIVE
2518,200333610084,LOS COMPADRES MEXICAN FOOD LLC,,1717 SOUTH MAIN ST  SANTA ANA CA 92707,1717 SOUTH MAIN ST  SANTA ANA CA 92707,RUBEN LOZANO,3281 WASHINGTON AVENUE COSTA MESA CA 92626,CANCELED
2518,201800510425,"LOS COMPADRES MOBILE SHOP, LLC",10631 PALOMINO AVE.  HESPERIA CA 92345,10631 PALOMINO AVE.  HESPERIA CA 92345,10631 PALOMINO AVE.  HESPERIA CA 92345,RAUL  CARRILLO,10631 PALOMINO AVE. HESPERIA CA 92345,ACTIVE
2518,201714310077,"LOS COMPADRES RESTAURANT GROUP, LLC",17022 BELLFLOWER BLVD  BELLFLOWER CA 90706,17022 BELLFLOWER BLVD  BELLFLOWER CA 90706,17022 BELLFLOWER BLVD  BELLFLOWER CA 90706,CIRILO GARCIA,17022 BELLFLOWER BLVD BELLFLOWER CA 90706,FTB SUSPENDED
2518,200700810065,LOS COMPADRES RESTAURANT L.L.C.,,44-250 MONROE ST  INDIO CA 92201,44-250 MONROE ST  INDIO CA 92201,EDUARDO SANCHEZ,44-250 MONROE ST INDIO CA 92201,CANCELED
2518,201136210012,LOS COMPADRES STABLES L.L.C.,,1849 S EL CIELO RD  PALM SPRINGS CA 92264,1849 S EL CIELO RD  PALM SPRINGS CA 92264,MICHAEL STUDER,1849 S EL CIELO RD PALM SPRINGS CA 92264,CANCELED
2534,C2249171,"CATHEDRAL CANYON MEN'S GOLF CLUB, INC.",2970 CALLE ARANDAS  PALM SPRINGS CA 92264,,2970 CALLE ARANDAS  PALM SPRINGS CA 92264,ROBERT A KRUSE,2970 CALLE ARANDAS PALM SPRINGS CA 92264,ACTIVE
2536,C1543160,CANYON CREST OF CANYON LAKES COUNTRY CLUB HOMEOWNERS ASSOCIATION INC.,PO BOX 503  PLEASANTON CA 94566,39 CALIFORNIA AVE STE 204  PLEASANTON CA 94566,39 CALIFORNIA AVE STE 204  PLEASANTON CA 94566,CHRISTINA GRACE MCCANDLESS,39 CALIFORNIA AVE STE 204 PLEASANTON CA 94566,ACTIVE
2536,C1936928,"JACKSON LAKES GOLF & COUNTRY CLUB, INC.","1233 W. SHAW AVE., SUITE 100  FRESNO CA 93711",,"1233 W. SHAW AVE., SUITE 100  FRESNO CA 93711",** RESIGNED ON 12/13/2000,* ,FTB SUSPENDED
2536,C1051712,"MISSION LAKES COUNTRY CLUB CONDOMINIUMS, INC.",72000 MAGNESIA FALLS DR STE 3  RANCHO MIRAGE CA 92270,72000 MAGNESIA FALLS DR STE 3  RANCHO MIRAGE CA 92270,72000 MAGNESIA FALLS DR STE 3  RANCHO MIRAGE CA 92270,PATRICK BELOUS,72000 MAGNESIA FALLS STE 3 RANCHO MIRAGE CA 92270,ACTIVE
2536,C0615751,"MISSION LAKES COUNTRY CLUB, INC.",8484 CLUBHOUSE BLVD  DESERT HOT SPRINGS CA 92240-1100,8484 CLUBHOUSE BLVD  DESERT HOT SPRINGS CA 92240-1100,8484 CLUBHOUSE BLVD  DESERT HOT SPRINGS CA 92240-1100,DAN SPANCE,8484 CLUBHOUSE BLVD DESERT HOT SPRINGS CA 92240-1100,ACTIVE
2536,C0745155,SEVEN LAKES COUNTRY CLUB,1 DESERT LAKES DR  PALM SPRINGS CA 92264,1 DESERT LAKES DR  PALM SPRINGS CA 92264,1 DESERT LAKES DR  PALM SPRINGS CA 92264,PEGGY REDMON,77619 CALLE ENSENADA LA QUINTA CA 92253,DISSOLVED
2536,C0476836,"SEVEN LAKES COUNTRY CLUB, INC.",225 BRIDGER AVE STE 1020  LAS VEGAS NV 89101,,225 BRIDGER AVE STE 1020  LAS VEGAS NV 89101,,,SURRENDER
2536,C0387146,SUN LAKES COUNTRY CLUB,,,,,,FTB SUSPENDED
2536,C1393999,SUN LAKES COUNTRY CLUB HOMEOWNERS ASSOCIATION,850 COUNTRY CLUB DR  BANNING CA 92220,850 COUNTRY CLUB DR  BANNING CA 92220,850 COUNTRY CLUB DR  BANNING CA 92220,CHRISTOPHER MITCHELL,850 COUNTRY CLUB DR BANNING CA 92220,ACTIVE
2536,C1165796,"THE LAKES COUNTRY CLUB ASSOCIATION, INC.",161 OLD RANCH RD  PALM DESERT CA 92211,161 OLD RANCH RD  PALM DESERT CA 92211,161 OLD RANCH RD  PALM DESERT CA 92211,FRANK J MELON,161 OLD RANCH RD PALM DESERT CA 92211,ACTIVE
2536,C0237013,TWIN LAKES COUNTRY CLUB,,,,,,FTB SUSPENDED
2536,198514100029,"COUNTRY CLUB VILLAGE LAKES, LTD., A CALIFORNIA LIMITED PARTNERSHIP",,"3575 CAHUENGA BLVD. WEST, STE 125  LOS ANGELES CA 90068","3575 CAHUENGA BLVD. WEST, STE 125  LOS ANGELES CA 90068",DAVID DOREMUS,"3575 CAHUENGA BLVD. WEST, STE. 125 LOS ANGELES CA 90068",CANCELED
2536,198928500031,SANTA MARIA COUNTRY CLUB ASSOCIATES - LAKES & ESTATES LIMITED PARTNERSHIP,,2400 PROFESSIONAL PARKWAY STE 100  SANTA MARIA CA 93455,2400 PROFESSIONAL PARKWAY STE 100  SANTA MARIA CA 93455,ALEXANDER F. SIMAS,2415 PROFESSIONAL PARKWAY SANTA MARIA CA 93455,CANCELED
2538,C1807461,"DESERT PRINCESS CLUB, INC.",28 211 DESERT PRINCESS DR  CATHEDRAL CITY CA 92234,28 211 DESERT PRINCESS DR  CATHEDRAL CITY CA 92234,28 211 DESERT PRINCESS DR  CATHEDRAL CITY CA 92234,LYNN GILLIAN,28 211 DESERT PRINCESS DR CATHEDRAL CITY CA 92234,FTB SUSPENDED
2538,C1307070,"DESERT PRINCESS COUNTRY CLUB, INC.","LEGAL DEPT. #2026, P O BOX 2114  SANTA MONICA CA 90407",2716 OCEAN PARK BLVD #2026  SANTA MONICA CA 90405,2716 OCEAN PARK BLVD #2026  SANTA MONICA CA 90405,CHRISTOPHER CHASE,"C\O LEGAL DEPT., 2716 OCEAN PARK BLVD  #2026 SANTA MONICA CA 90405",DISSOLVED
2538,C1531244,"DESERT PRINCESS GOLF SHOP, INC.",80 572 SANTA CARMEN  INDIO CA 92203,80 572 SANTA CARMEN  INDIO CA 92203,80 572 SANTA CARMEN  INDIO CA 92203,DAVID MCKEATING,80 572 SANTA CARMEN INDIO CA 92203,SOS SUSPENDED
2538,C1309113,DESERT PRINCESS HOMEOWNERS ASSOCIATION,28-211 DESERT PRINCESS DR  CATHEDRAL CITY CA 92234,28-211 DESERT PRINCESS DR  CATHEDRAL CITY CA 92234,28-211 DESERT PRINCESS DR  CATHEDRAL CITY CA 92234,HENRY KRAS,29-439 W LAGUNA DR CATHEDRAL CITY CA 92234,ACTIVE
2538,C1549695,"DESERT PRINCESS RESORT, INC.","LEGAL DEPT. M. STULTZ, P.O. BOX 2114  SANTA MONICA CA 90407","2716 OCEAN PARK BLVD., #2026  SANTA MONICA CA 90405","2716 OCEAN PARK BLVD., #2026  SANTA MONICA CA 90405",CYNTHIA W. ISER,"2716 OCEAN PARK BLVD., #2026 SANTA MONICA CA 90405",DISSOLVED
2538,C3581974,"DESERT SUN HOMES - DESERT PRINCESS, INC.",17 BUCKTHORN  IRVINE CA 92604,17 BUCKTHORN  IRVINE CA 92604,17 BUCKTHORN  IRVINE CA 92604,KIM ISAACMAN,2533 ORANGE AVE COSTA MESA CA 92627,FTB SUSPENDED
2538,C3623381,HOLLY'S HOMES DESERT PRINCESS INC.,"38095 VISTA DRIVE  CATHEDRAL CITY, CA 92234","38095 VISTA DRIVE  CATHEDRAL CITY, CA 92234","38095 VISTA DRIVE  CATHEDRAL CITY, CA 92234",HOLLY'S HOMES,"38095 VISTA DRIVE CATHEDRAL CITY, CA 92234",ACTIVE
2538,C1808854,"THE DESERT PRINCESS HOME OWNERS CLUB, INC.",28211 DESERT PRINCESS DR  CATHEDRAL CITY CA 92234,,28211 DESERT PRINCESS DR  CATHEDRAL CITY CA 92234,HENRY KRAS,29-439 W. LAGUNA DRIVE CATHEDRAL CITY CA 92234,ACTIVE
2538,201222910211,"DESERT PRINCESS HOLDINGS, LLC",5 FIRST AMERICAN WAY  SANTA ANA CA 92707,5 FIRST AMERICAN WAY  SANTA ANA CA 92707,5 FIRST AMERICAN WAY  SANTA ANA CA 92707,ANTHONY ALOSI,5 FIRST AMERICAN WAY SANTA ANA CA 92707,FTB SUSPENDED
2538,201329810076,"DESERT PRINCESS HOMES, LLC","970 PIER VIEW DR, SUITE B  IDAHO FALLS ID 83402",67-437 LAKOTA COURT  CATHEDRAL CITY CA 92234,67-437 LAKOTA COURT  CATHEDRAL CITY CA 92234,MICHAEL  PIKE,67-437 LAKOTA COURT CATHEDRAL CITY CA 92234,ACTIVE
2538,198430500073,"PALM SPRINGS DESERT PRINCESS CO., A CALIFORNIA LIMITED PARTNERSHIP",,2716 OCEAN PARK BLVD.  SANTA MONICA CA 90405,2716 OCEAN PARK BLVD.  SANTA MONICA CA 90405,JUDITH M. HANE,2716 OCEAN PARK BLVD. SANTA MONICA CA 90405,CANCELED
2540,C2944049,"CLUBCORP MISSION HILLS COUNTRY CLUB, INC.",3030 LBJ FREEWAY SUITE 600  DALLAS TX 75234,3030 LBJ FREEWAY SUITE 600  DALLAS TX 75234,3030 LBJ FREEWAY SUITE 600  DALLAS TX 75234,,,ACTIVE
2540,C1866226,"MISSION HILLS COUNTRY CLUB, INC.",PO BOB 819087  DALLAS TX 75381,3030 LBJ FRWY  DALLAS TX 75234,3030 LBJ FRWY  DALLAS TX 75234,,,MERGED OUT
2540,C1803675,"MISSION HILLS EQUITY COUNTRY CLUB, INC.",71-066 TAMARISK LN  RANCHO MIRAGE CA 92270,71-066 TAMARISK LN  RANCHO MIRAGE CA 92270,71-066 TAMARISK LN  RANCHO MIRAGE CA 92270,EARLE HAGEN,71-066 TAMARISK LN RANCHO MIRAGE CA 92270,FTB SUSPENDED
2540,C0477943,MISSION HILLS GOLF AND COUNTRY CLUB,,,,,,FTB SUSPENDED
2598,C4000028,BIG LEAGUE DREAMS FOUNDATION,6034 ARLINGTON BLVD  RICHMOND CA 94805,6034 ARLINGTON BLVD  RICHMOND CA 94805,6034 ARLINGTON BLVD  RICHMOND CA 94805,KYLE STEWART,2044 TAYLOR ST SAN FRANCISCO CA 94133,ACTIVE
2598,C1921991,BIG LEAGUE DREAMS YOUTH FOUNDATION,6050M EL TORDO  RANCHO SANTA MARGUERITA CA 92067,43670 LISBON WAY  PALM DESERT CA 92211,43670 LISBON WAY  PALM DESERT CA 92211,RICHARD ODEKIRK,43670 LISBON WAY PALM DESERT CA 92211,FTB SUSPENDED
2598,C3413904,SB BIG LEAGUE DREAMS,"7031 ROSEVILLE ROAD, SUITE A  SACRAMENTO CA 95842","7031 ROSEVILLE ROAD, SUITE A  SACRAMENTO CA 95842","7031 ROSEVILLE ROAD, SUITE A  SACRAMENTO CA 95842",,,FTB SUSPENDED
2598,199626010030,"BIG LEAGUE DREAMS CATHEDRAL CITY, LLC",16339 FAIRFIELD RANCH RD  CHINO HILLS CA 91709,16339 FAIRFIELD RANCH RD  CHINO HILLS CA 91709,16339 FAIRFIELD RANCH RD  CHINO HILLS CA 91709,SCOTT PARKS LE TELLIER,16339 FAIRFIELD RANCH RD CHINO HILLS CA 91709,ACTIVE
2598,199909710091,"BIG LEAGUE DREAMS CHINO HILLS, LLC",16339 FAIRFIELD RANCH RD  CHINO HILLS CA 91709,16339 FAIRFIELD RANCH RD  CHINO HILLS CA 91709,16339 FAIRFIELD RANCH RD  CHINO HILLS CA 91709,SCOTT PARKS LETELLIER,16339 FAIRFIELD RANCH RD CHINO HILLS CA 91709,ACTIVE
2598,200126110024,"BIG LEAGUE DREAMS COLTON, LLC",,16339 FAIRFIELD RANCH ROAD  CHINO HILLS CA 91709,16339 FAIRFIELD RANCH ROAD  CHINO HILLS CA 91709,SCOTT PARKS LE TELLIER,16339 FAIRFIELD RANCH ROAD CHINO HILLS CA 91709,CANCELED
2598,200201010012,"BIG LEAGUE DREAMS CONSULTING, LLC",16339 FAIRFIELD RANCH RD  CHINO HILLS CA 91709,16339 FAIRFIELD RANCH RD  CHINO HILLS CA 91709,16339 FAIRFIELD RANCH RD  CHINO HILLS CA 91709,SCOTT PARKS LE TELLIER,16339 FAIRFIELD RANCH RD CHINO HILLS CA 91709,CANCELED
2598,199902810017,"BIG LEAGUE DREAMS JURUPA, LLC",16339 FAIRFIELD RANCH RD  CHINO HILLS CA 90274,16339 FAIRFIELD RANCH RD  CHINO HILLS CA 90274,16339 FAIRFIELD RANCH RD  CHINO HILLS CA 90274,SCOTT PARK LETELLIER,16339 FAIRFIELD RANCH RD CHINO HILLS CA 90274,ACTIVE
2598,200612210199,"BIG LEAGUE DREAMS LONG BEACH, LLC",,16339 FAIRFIELD RANCH ROAD  CHINO HILLS CA 91709,16339 FAIRFIELD RANCH ROAD  CHINO HILLS CA 91709,SCOTT PARKS LE TELLIER,16339 FAIRFIELD RANCH ROAD CHINO HILLS CA 91709,CANCELED
2598,200303410038,"BIG LEAGUE DREAMS MANTECA, LLC",16339 FAIRFIELD RANCH RD  CHINO HILLS CA 90274,16339 FAIRFIELD RANCH RD  CHINO HILLS CA 90274,16339 FAIRFIELD RANCH RD  CHINO HILLS CA 90274,SCOTT PARKS LETELLIER,16339 FAIRFIELD RANCH RD CHINO HILLS CA 90274,ACTIVE
2598,200516510010,"BIG LEAGUE DREAMS OXNARD, LLC",,16339 FAIRFIELD RANCH RD  CHINO HILLS CA 91709,16339 FAIRFIELD RANCH RD  CHINO HILLS CA 91709,SCOTT PARKS LETELLIER,16339 FAIRFIELD RANCH RD CHINO HILLS CA 91709,CANCELED
2598,200733510103,"BIG LEAGUE DREAMS PERRIS, LLC",16339 FAIRFIELD RANCH RD  CHINO HILLS CA 91709,16339 FAIRFIELD RANCH RD  CHINO HILLS CA 91709,16339 FAIRFIELD RANCH RD  CHINO HILLS CA 91709,SCOTT PARKS LETELLIER,16339 FAIRFIELD RANCH CHINO HILLS CA 91709,ACTIVE
2598,200109610022,"BIG LEAGUE DREAMS REDDING, LLC",16339 FAIRFIELD RANCH RD  CHINO HILLS CA 91709,16339 FAIRFIELD RANCH RD  CHINO HILLS CA 91709,16339 FAIRFIELD RANCH RD  CHINO HILLS CA 91709,SCOTT PARKS LETELLIER,16339 FAIRFIELD RANCH RD CHINO HILLS CA 91709,ACTIVE
2678,C1404598,"VICTORY LIQUOR AND SPORTING GOODS, INC.",49-968 HWY 86  COACHELLA CA 92236,49-968 HWY 86  COACHELLA CA 92236,49-968 HWY 86  COACHELLA CA 92236,P B PATEL,49-968 HWY 86 COACHELLA CA 92236,DISSOLVED
2843,C1429435,"BARCLAY BEAR CREEK, INC.","230 NEWPORT CENTER DRIVE., #300  NEWPORT BEACH CA 92660-7511","230 NEWPORT CENTER DRIVE., #300  NEWPORT BEACH CA 92660-7511","230 NEWPORT CENTER DRIVE., #300  NEWPORT BEACH CA 92660-7511",JOHN CONWAY,"230 NEWPORT CENTER DRIVE., #300 NEWPORT BEACH CA 92660-7511",SOS/FTB SUSPENDED
2843,C0905046,"BC DEVELOPMENT CORP. WHICH WILL DO BUSINESS IN CALIFORNIA AS BEAR     CREEK, INC.",11780 US HWY 1 #400  NORTH PALM BEACH FL 33408,11780 US HWY 1 #400  NORTH PALM BEACH FL 33408,11780 US HWY 1 #400  NORTH PALM BEACH FL 33408,,,SOS/FTB FORFEITED
2843,C2857576,BEAR CLAN OF MEDICINE CREEK METIS,1050 STEELE LANE  LAYTONVILLE CA 95454,1050 STEELE LANE  LAYTONVILLE CA 95454,1050 STEELE LANE  LAYTONVILLE CA 95454,TONYA L. CARGILL,1050 STEELE LANE LAYTONVILLE CA 95454,SOS SUSPENDED
2843,C2216363,"BEAR CREEK ANESTHESIA MEDICAL GROUP, INC., A PROFESSIONAL CORPORATION",301 E 13TH ST  MERCED CA 95340,301 E 13TH ST  MERCED CA 95340,301 E 13TH ST  MERCED CA 95340,RONALD BRONS,301 E 13TH ST MERCED CA 95340,DISSOLVED
2843,C3331175,BEAR CREEK AQUATICS INC.,2715 W KETTLEMAN LN STE 203-197  LODI CA 95242,2715 W KETTLEMAN LN STE 203-197  LODI CA 95242,2715 W KETTLEMAN LN STE 203-197  LODI CA 95242,,,SOS/FTB SUSPENDED
2843,C0413407,BEAR CREEK ASSOCIATION,PO BOX 3750  OLYMPIC VALLEY CA 96146,150 ALPINE MEADOWS RD  ALPINE MEADOWS CA 96146,150 ALPINE MEADOWS RD  ALPINE MEADOWS CA 96146,EMILY FRALICK,150 ALPINE MEADOWS RD ALPINE MEADOWS CA 96146,ACTIVE
2843,C2743295,"BEAR CREEK BUILDERS, INC.",P.O.BOX 973  TAHOE CITY CA 96145,9373 HEARTWOOD DRIVE  TRUCKEE CA 96161,9373 HEARTWOOD DRIVE  TRUCKEE CA 96161,MARTIN METZ,9373 HEARTWOOD DRIVE TRUCKEE CA 96161,ACTIVE
2843,C2553824,"BEAR CREEK CANYON ROAD ASSOCIATION, INC.",PO BOX 1336  BOULDER CREEK CA 95006,1495 DON'S RD.  BOULDER CREEK CA 95006,1495 DON'S RD.  BOULDER CREEK CA 95006,EMMANUELA RAQUELLE,1495 DON'S RD. BOULDER CREEK CA 95006,ACTIVE
2843,C2631879,"BEAR CREEK CAPITAL MANAGEMENT, INC.",1555 DEER PARK DRIVE  TAHOE CITY CA 96146,1555 DEER PARK DRIVE  TAHOE CITY CA 96146,1555 DEER PARK DRIVE  TAHOE CITY CA 96146,BRANDON D SMITH,"140 GEARY STREET, 7TH FLOOR SAN FRANCISCO CA 94108",FTB SUSPENDED
2843,C1652021,BEAR CREEK COMMUNITY CHURCH,11171 N LOWER SACRAMENTO ROAD  LODI CA 95242,11171 N LOWER SACRAMENTO ROAD  LODI CA 95242,11171 N LOWER SACRAMENTO ROAD  LODI CA 95242,WILLIAM L CUMMINS,401 APPLEWOOD LODI CA 95242,ACTIVE
2843,199626100002,10 BEAR CREEK LP,,29371 MODJESKA CANYON ROAD  SILVERADO CA 92676,29371 MODJESKA CANYON ROAD  SILVERADO CA 92676,STEVE ENOCHS,29371 MODJESKA CANYON ROAD SILVERADO CA 92676,CANCELED
2843,201320610143,"2063 BEAR CREEK, LLC",824 COVINGTON RD  BELMONT CA 94002,824 COVINGTON RD  BELMONT CA 94002,824 COVINGTON RD  BELMONT CA 94002,DAVID COHEN,455 N WHISMAN RD STE 100 MOUNTAIN VIEW CA 94043,FTB SUSPENDED
2843,200402210072,"22400 BEAR CREEK DR., LLC",,39696 NICE AVE  MURRIETA CA 92562,39696 NICE AVE  MURRIETA CA 92562,,,CANCELED
2843,200826310091,ALPINE BEAR CREEK EQUIPMENT LLC,,7320 RIVER RD (PO BOX 1518)  TAHOE CITY CA 96145,7320 RIVER RD (PO BOX 1518)  TAHOE CITY CA 96145,MICHAEL E GRAHAM,10343 HIGH ST STE ONE TRUCKEE CA 96161,ACTIVE
2843,200825600012,ALPINE BEAR CREEK L.P.,,7320 RIVER RD HWY 89 / PO BX 1518  TAHOE CITY CA 96145,7320 RIVER RD HWY 89 / PO BX 1518  TAHOE CITY CA 96145,BRUCE W OLSON,7320 RIVER RD HWY 89 / PO BX 1518 TAHOE CITY CA 96145,ACTIVE
2843,198621900033,"BEAR CREEK ASSOCIATES I, A CALIFORNIA LIMITED PARTNERSHIP",,"2333 SAN RAMON VALLEY BLVD., #450  SAN RAMON CA 94583","2333 SAN RAMON VALLEY BLVD., #450  SAN RAMON CA 94583",DELBERT C. BENNETT,"2333 SAN RAMON VALLEY BLVD, #450 SAN RAMON CA 94583",CANCELED
2843,198632100042,"BEAR CREEK ASSOCIATES II, A CALIFORNIA LIMITED PARTNERSHIP",,"2333 SAN RAMON VALLEY BLVD., #450  SAN RAMON CA 94583","2333 SAN RAMON VALLEY BLVD., #450  SAN RAMON CA 94583",DELBERT C. BENNETT,"2333 SAN RAMON VALLEY BLVD., #450 SAN RAMON CA 94583",CANCELED
2843,199305700008,"BEAR CREEK ASSOCIATES III, A CALIFORNIA LIMITED PARTNERSHIP",,"2333 SAN RAMON VALLEY BLVD., STE 450  SAN RAMON CA 94583","2333 SAN RAMON VALLEY BLVD., STE 450  SAN RAMON CA 94583",THOMAS C. DASHIELL,"50 CALIFORNIA STREET, 34TH FLR SAN FRANCISCO CA 94111",ACTIVE
2843,199335800015,BEAR CREEK ASSOCIATES IV LP,,"2333 SAN RAMON VALLEY BLVD., STE. 450  SAN RAMON CA 94583","2333 SAN RAMON VALLEY BLVD., STE. 450  SAN RAMON CA 94583",DELBERT C. BENNETT,"2333 SAN RAMON VALLEY BLVD., STE. 450 SAN RAMON CA 94583",CANCELED
2843,200218010042,"BEAR CREEK BOTANICALS, LLC",,22307 BINGHAM CT  VALENCIA CA 91354,22307 BINGHAM CT  VALENCIA CA 91354,DIANA M. SELF,22307 BINGHAM CT VALENCIA CA 91354,CANCELED
2855,C3314168,GREEN MART INC. WHICH WILL DO BUSINESS IN CALIFORNIA AS EUROPEAN      DELICATESSEN,4319B ELKHORN BLVD.  SACRAMENTO CA 95842,4319B ELKHORN BLVD.  SACRAMENTO CA 95842,4319B ELKHORN BLVD.  SACRAMENTO CA 95842,LYUBOV S HERASYMOVA,4319B ELKHORN BLVD. SACRAMENTO CA 95842,ACTIVE
2855,C3563513,"GREEN MART ORGANIC MEDICINE, INC.",910 WEST PACIFIC COAST HWY  WILMINGTON CA 90744,910 WEST PACIFIC COAST HWY  WILMINGTON CA 90744,910 WEST PACIFIC COAST HWY  WILMINGTON CA 90744,SARGIS OGUMUSHYAN,910 WEST PACIFIC COAST HWY WILMINGTON CA 90744,DISSOLVED
2855,C3146216,"GREEN RIVER MART, INC.",4300 GREEN RIVER RD #108  CORONA CA 92880,4300 GREEN RIVER RD #108  CORONA CA 92880,4300 GREEN RIVER RD #108  CORONA CA 92880,CHUL HYO PARK,15627 PALOMONO DR CHINO HILLS CA 91709,FTB SUSPENDED
2857,C3587135,1 ELEVEN AUTO SALES,83957 INDIO BLVD  INDIO CA 92201,83957 INDIO BLVD  INDIO CA 92201,83957 INDIO BLVD  INDIO CA 92201,LOUIS MANUEL BECERRA,83957 INDIO BLVD INDIO CA 92201,ACTIVE
2857,C2901337,"1 ELEVEN TRUCK STOP, INC.",1963 SOUTH HWY 111  EL CENTRO CA 92243,1963 SOUTH HWY 111  EL CENTRO CA 92243,1963 SOUTH HWY 111  EL CENTRO CA 92243,NASH MAROKI,1963 SOUTH HWY 111 EL CENTRO CA 92243,DISSOLVED
2857,C4244428,"1-ELEVEN CREATIVE RESOLUTION, INC.",3225 MCLEOD DR STE 100  LAS VEGAS NV 89121,1008 W AVE M14 STE A - D180  PALMDALE CA 93551,1008 W AVE M14 STE A - D180  PALMDALE CA 93551,,,ACTIVE
2857,C2696273,10 ELEVEN ENTERTAINMENT,4500 BEEMAN AVE  STUDIO CITY CA 91604,4500 BEEMAN AVE  STUDIO CITY CA 91604,4500 BEEMAN AVE  STUDIO CITY CA 91604,,,DISSOLVED
2857,C4199798,"11-ELEVEN GROUP, INC",16309 SAN JACINTO  FOUNTAIN VALLEY CA 92708,16309 SAN JACINTO  FOUNTAIN VALLEY CA 92708,16309 SAN JACINTO  FOUNTAIN VALLEY CA 92708,ERIC HERRERA,16309 SAN JACINTO FOUNTAIN VALLEY CA 92708,ACTIVE
2857,C3499061,16 ELEVEN BEVERLY GLEN ASSOCIATION,1611 S BEVERLY GLEN BLVD  LOS ANGELES CA 90024,1611 S BEVERLY GLEN BLVD  LOS ANGELES CA 90024,1611 S BEVERLY GLEN BLVD  LOS ANGELES CA 90024,JAY EZRA NAYSSAN,10350 SANTA MONICA BLVD #190 LOS ANGELES CA 90025,FTB SUSPENDED
2857,C3923516,5-ELEVEN HOOPS,7906 E TARMA ST  LONG BEACH CA 90808,7906 E TARMA ST  LONG BEACH CA 90808,7906 E TARMA ST  LONG BEACH CA 90808,,,ACTIVE
2857,C2389795,"7-ELEVEN 13898, INC.",8363 RESEDA BLVD STE 205  NORTHRIDGE CA 91324-5905,,8363 RESEDA BLVD STE 205  NORTHRIDGE CA 91324-5905,R K SHARMA,"SHARMA WASSSON ETAL, 8363 RESEDA BLVD STE 205 NORTHRIDGE CA 91324-5905",FTB SUSPENDED
2857,C2524324,"7-ELEVEN 17124, INC.",10524 VARIEL AVENUE  CHATSWORTH CA 91311-2356,,10524 VARIEL AVENUE  CHATSWORTH CA 91311-2356,DHARAM BHATIA,8471 CHAPMAN AVENUE GARDEN GROVE CA 92641,DISSOLVED
2857,C2389793,"7-ELEVEN 25122, INC.",8363 RESEDA BLVD STE 205  NORTHRIDGE CA 91324-5905,,8363 RESEDA BLVD STE 205  NORTHRIDGE CA 91324-5905,R K SHARMA,"SHARMA WASSON ETAL, 8363 RESEDA BLVD STE 205 NORTHRIDGE CA 91324-5905",FTB SUSPENDED
2857,201815110671,11 ELEVEN DESIGN & DEVELOPMENT LLC,6328 CALIFORNIA AVE  LONG BEACH CA 90805,6328 CALIFORNIA AVE  LONG BEACH CA 90805,6328 CALIFORNIA AVE  LONG BEACH CA 90805,ADRIAN RAMON MIRANDA,6328 CALIFORNIA AVE LONG BEACH CA 90805,ACTIVE
2857,201326210092,11 ONE ELEVEN LLC,1347 N. STANLEY AVE APT 2  LOS ANGELES CA 90046,1347 N. STANLEY AVE APT 2  LOS ANGELES CA 90046,1347 N. STANLEY AVE APT 2  LOS ANGELES CA 90046,ARA ZAVEN BERBERIAN,1347 N. STANLEY AVE APT 2 LOS ANGELES CA 90046,ACTIVE
2857,201113010011,"19 ELEVEN REAL PROPERTY ASSETS, LLC",1891 N DARTMOUTH AVE  CLOVIS CA 93619,1891 N DARTMOUTH AVE  CLOVIS CA 93619,1891 N DARTMOUTH AVE  CLOVIS CA 93619,JOSHUA HERWALDT,1891 N DARTMOUTH AVE CLOVIS CA 93619,ACTIVE
2857,201731110126,3 ELEVEN INVESTMENT LLC,9150 LAS TUNAS DR.  TEMPLE CITY CA 91780,9150 LAS TUNAS DR.  TEMPLE CITY CA 91780,9150 LAS TUNAS DR.  TEMPLE CITY CA 91780,TONG H WONG,9150 LAS TUNAS DR. TEMPLE CITY CA 91780,ACTIVE
2857,201813610322,4 ELEVEN SCREEN PRINTING LLC,364 DOWNEY DR  BIG BEAR CITY CA 92314,364 DOWNEY DR  BIG BEAR CITY CA 92314,364 DOWNEY DR  BIG BEAR CITY CA 92314,MATTHEW JOHNSON,364 DOWNEY DR BIG BEAR CITY CA 92314,CANCELED
2857,201320710164,"426 ELEVEN, LLC",3177 STANWOOD LANE  LAFAYETTE CA 94549,3177 STANWOOD LANE  LAFAYETTE CA 94549,3177 STANWOOD LANE  LAFAYETTE CA 94549,MATTHEW FIALHO,3177 STANWOOD LANE LAFAYETTE CA 94549,ACTIVE
2857,200526510022,"43 ELEVEN, LLC",,4935 MC CONNELL AVE #9  LOS ANGELES CA 90066,4935 MC CONNELL AVE #9  LOS ANGELES CA 90066,BRIAN COHEE,4935 MC CONNELL AVE #9 LOS ANGELES CA 90066,CANCELED
2857,201123410077,53 ELEVEN SPORTS DISTRIBUTION LLC,,1035 PACIFIC AVE  SAN FRANCISCO CA 94133,1035 PACIFIC AVE  SAN FRANCISCO CA 94133,ALEX LUGOSCH,1035 PACIFIC AVE SAN FRANCISCO CA 94133,FTB SUSPENDED
2857,200829610055,"7-ELEVEN BEACH, LLC, A CALIFORNIA LIMITED LIABILITY COMPANY",1827 VALLEJO ST  SAN FRANCISCO CA 94123,1827 VALLEJO ST  SAN FRANCISCO CA 94123,1827 VALLEJO ST  SAN FRANCISCO CA 94123,,,ACTIVE
2857,199018300037,"7-ELEVEN PROPERTIES, A CALIFORNIA LIMITED PARTNERSHIP",,82 SEA ISLAND DR.  NEWPORT BEACH CA 92660,82 SEA ISLAND DR.  NEWPORT BEACH CA 92660,BRUCE A. GUYETTE,82 SEA ISLAND DR. NEWPORT BEACH CA 92660,ACTIVE
2870,C4067380,"11TH STREET CHEVRON, INC.",1294 DALTON STREET  TULARE CA 93274,1294 DALTON STREET  TULARE CA 93274,1294 DALTON STREET  TULARE CA 93274,MUSSA M KAID,1294 DALTON STREET TULARE CA 93274,ACTIVE
2870,C1152140,ADAM'S CHEVRON SERVICE,2505 PRIMROSE LANE  UPLAND CA 91786,2505 PRIMROSE LANE  UPLAND CA 91786,2505 PRIMROSE LANE  UPLAND CA 91786,ALBERT ADAM,2505 PRIMROSE LANE UPLAND CA 91786,DISSOLVED
2870,C3311410,"ADOBE ROAD CHEVRON, INC.",8747 SHASTA LILY WAY  ELK GROVE CA 95758,8747 SHASTA LILY WAY  ELK GROVE CA 95758,8747 SHASTA LILY WAY  ELK GROVE CA 95758,** RESIGNED ON 01/29/2018,* ,FTB SUSPENDED
2870,C0964842,"AIRPORT CHEVRON AND TOWING, INC.",561 BUENA VISTA AVE  OXNARD CA 93030-5103,561 BUENA VISTA AVE  OXNARD CA 93030-5103,561 BUENA VISTA AVE  OXNARD CA 93030-5103,GARY LEE NORRIS,561 BUENA VISTA AVE OXNARD CA 93030-5103,ACTIVE
2870,C1022774,"AL JENSEN CHEVRON, INC.",1056 LORRAINE DR  REDDING CA 96002,1056 LORRAINE DR  REDDING CA 96002,1056 LORRAINE DR  REDDING CA 96002,A E JENSEN,1056 LORRAINE DR REDDING CA 96002,DISSOLVED
2870,C0580001,"ALDERSON'S CHEVRON STATION, INC.",,,,,,FTB SUSPENDED
2870,C1094286,"ALLIED GARDENS CHEVRON, INC.",8692 LA MESA BLVD  LA MESA CA 92041,,8692 LA MESA BLVD  LA MESA CA 92041,CHESLEY J GENTRY,88 VALLECITO WY CHULA VISTA CA 92010,DISSOLVED
2870,C2527546,"ALONDRA CHEVRON, INC.",840 N BROADWAY STE 202  LA CA 90012,6602 ALONDRA BL  PARAMOUNT CA 90723,6602 ALONDRA BL  PARAMOUNT CA 90723,SANG M LIM,6602 ALONDRA BL PARAMOUNT CA 90723,DISSOLVED
2870,C4230553,"ALTADENA CHEVRON SERVICE CENTER, INC.",907 E ALTADENA DR  ALTADENA CA 91001,907 E ALTADENA DR  ALTADENA CA 91001,907 E ALTADENA DR  ALTADENA CA 91001,FAWZI FAKHOURY,5819 TEMPLE CITY BLVD TEMPLE CITY CA 91780,ACTIVE
2870,C3433863,ALTURAS CHEVRON INC.,1080 N MAIN ST  ALTURAS CA 96101,1080 N MAIN ST  ALTURAS CA 96101,1080 N MAIN ST  ALTURAS CA 96101,MANPREET SINGH KAHLON,153 COLLEGE HILL WAY YUBA CITY CA 95993,ACTIVE
2870,198432100004,"70TH STREET CHEVRON, A CALIFORNIA LIMITED PARTNERSHIP",,6992 EL CAJON BLVD.  SAN DIEGO CA 92115,6992 EL CAJON BLVD.  SAN DIEGO CA 92115,HILBERT MURILLO,6992 EL CAJON BLVD. SAN DIEGO CA 92115,ACTIVE
2870,200214010053,"ADLY'S CHEVRON, LLC",,9030 NATIONAL BLVD  LOS ANGELES CA 90034,9030 NATIONAL BLVD  LOS ANGELES CA 90034,ADLY ABDELMALAK,9030 NATIONAL BLVD LOS ANGELES CA 90034,CANCELED
2870,198422900099,"ADOBE FALLS CHEVRON SERVICE, A CALIFORNIA LIMITED PARTNERSHIP",,4525 WARING RD.  SAN DIEGO CA 92120,4525 WARING RD.  SAN DIEGO CA 92120,DENNIS LAMBERT SWANSON,2215 LINCOLN AVE. SAN DIEGO CA 92104,ACTIVE
2870,198415600154,BOB RISNER CHEVRON,,2501 EAST LINCOLN  ANAHEIM CA 92800,2501 EAST LINCOLN  ANAHEIM CA 92800,KEITH VAN HOESEN,5992 WESTMINSTER AVENUE WESTMINSTER CA 92683,CANCELED
2870,200807400009,CHESTER CHEVRON L.P.,,225 MAIN STREET  CHESTER CA 96020,225 MAIN STREET  CHESTER CA 96020,MAIN SINGH,16 E SIERRA STREET PORTOLA CA 96122,ACTIVE
2870,199733510017,CHEVRON CHEMICAL COMPANY LLC,,575 MARKET STREET  SAN FRANCISCO CA 94105,575 MARKET STREET  SAN FRANCISCO CA 94105,H P WALKER,575 MARKET STREET SAN FRANCISCO  94105,CANCELED
2870,198418200727,CHEVRON CONSTRUCTION CO,,"2120 WILSHIRE BLVD,. STE. 200  SANTA MONICA CA 90403","2120 WILSHIRE BLVD,. STE. 200  SANTA MONICA CA 90403",MARIO MORY,"2120 WILSHIRE BLVD., STE. 200 SANTA MONICA CA 90403",CANCELED
2870,199931410061,CHEVRON EBUSINESS DEVELOPMENT COMPANY LLC,,6001 BOLILNGER CANYON ROAD  SAN RAMON CA 94583,6001 BOLILNGER CANYON ROAD  SAN RAMON CA 94583,THE PRENTICE-HALL CORPORATION SYSTEM INC,* ,CANCELED
2870,200015200015,CHEVRON ENERGY SOLUTIONS L.P.,,575 MARKET ST  SAN FRANCISCO CA 94105,575 MARKET ST  SAN FRANCISCO CA 94105,,,CANCELED
2870,199914010075,CHEVRON EUROPEAN HOLDINGS LLC,6001 BOLLINGER CANYON RD V2322A  SAN RAMON CA 94583,6001 BOLLINGER CANYON RD  SAN RAMON CA 94583,6001 BOLLINGER CANYON RD  SAN RAMON CA 94583,,,CANCELED
2872,C3520458,"ONE STOP SHOPPE, INC.",558 LAKEVIEW DRIVE  BRENTWOOD CA 94513,558 LAKEVIEW DRIVE  BRENTWOOD CA 94513,558 LAKEVIEW DRIVE  BRENTWOOD CA 94513,JONATHAN CHASE PINNEY,558 LAKEVIEW DRIVE BRENTWOOD CA 94513,FTB SUSPENDED
2872,C1169126,"ONE STOP TRAVEL SHOPPE, INC.","505 S FLOWER ST, LEVEL C  LOS ANGELES CA 90071","505 S. FLOWER STREET, LEVEL C  LOS ANGELES CA 90071","505 S. FLOWER STREET, LEVEL C  LOS ANGELES CA 90071",RUSSELL K DECKER,"505 S FLOWER ST, LEVEL C LOS ANGELES CA 90071",SOS/FTB SUSPENDED
2872,C1056367,ONE STOP WINDOW SHOPPE,P O BOX 21939  LOS ANGELES CA 90021,,P O BOX 21939  LOS ANGELES CA 90021,HARRY NAIMAN,809 EAST 18TH ST LOS ANGELES CA 90021,FTB SUSPENDED
2872,C3736234,"THE LAST STOP SHOPPE, INC.",31288 RED BRIDGE RD.  MURRIETA CA 92563,31288 RED BRIDGE RD.  MURRIETA CA 92563,31288 RED BRIDGE RD.  MURRIETA CA 92563,BRUCE H BRIEST,31288 RED BRIDGE RD. MURRIETA CA 92563,DISSOLVED
2872,198431200051,"ONE STOP TRAVEL SHOPPE, LTD., ANCHORAGE",,"505 SOUTH FLOWER STREET, PLAZA C  LOS ANGELES CA 90071","505 SOUTH FLOWER STREET, PLAZA C  LOS ANGELES CA 90071","THOMAS C. CORCOVELOS, ESQ.","626 WILSHIRE BLVD., STE. 700 LOS ANGELES CA 90017",ACTIVE
3044,C2158949,"DOLLAR TREE DISTRIBUTION, INC.",500 VOLVO PKWY  CHESAPEAKE VA 23320,500 VOLVO PKWY  CHESAPEAKE VA 23320,500 VOLVO PKWY  CHESAPEAKE VA 23320,,,ACTIVE
3044,C2122117,"DOLLAR TREE STORES, INC.",500 VOLVO PARKWAY  CHESAPEAKE VA 23320,500 VOLVO PARKWAY  CHESAPEAKE VA 23320,500 VOLVO PARKWAY  CHESAPEAKE VA 23320,,,ACTIVE
3044,C1581168,"DOLLAR TREE WEST, INC.",3222 WINONA WAY  NORTH HIGHLANDS CA 95660,3222 WINONA WAY  NORTH HIGHLANDS CA 95660,3222 WINONA WAY  NORTH HIGHLANDS CA 95660,DAVID J REED,3222 WINONA WAY NORTH HIGHLANDS CA 95660,MERGED OUT
3044,C2114076,"DOLLAR TREE WEST, INC.",P O BOX 2500  NORFOLK VA 23501,500 VOLVO PKWY  CHEASPEAKE VA 23320,500 VOLVO PKWY  CHEASPEAKE VA 23320,,,MERGED OUT
3044,C2453471,J. DOLLAR TREE VARIETY INC,1051 W MARTIN LUTHER KING JR  LOS ANGELES CA 90062,1051 W MARTIN LUTHER KING JR  LOS ANGELES CA 90062,1051 W MARTIN LUTHER KING JR  LOS ANGELES CA 90062,J EMEYA,1051 W MARTIN LUTHER KING JR LOS ANGELES CA 90062,FTB SUSPENDED
3044,201429510082,BANSI PALMS DOLLAR TREE LLC,27045 BIG HORN MTN WAY  YORBA LINDA CA 92887,27045 BIG HORN MTN WAY  YORBA LINDA CA 92887,27045 BIG HORN MTN WAY  YORBA LINDA CA 92887,VINOD KARDANI,27045 BIG HORN MTN WAY YORBA LINDA CA 92887,FTB SUSPENDED
3044,201900110379,DOLLAR TREE HOUSE LLC,17325 CHATSWORTH STREET  LOS ANGELES CA 91344,17325 CHATSWORTH STREET  LOS ANGELES CA 91344,17325 CHATSWORTH STREET  LOS ANGELES CA 91344,CRISTIAN DEL TORO,17325 CHATSWORTH STREET LOS ANGELES CA 91344,ACTIVE
3044,201027010289,"DOLLAR TREE SOURCING COMPANY, LLC",500 VOLVO PARKWAY  CHESAPEAKE VA 23320,500 VOLVO PARKWAY  CHESAPEAKE VA 23320,500 VOLVO PARKWAY  CHESAPEAKE VA 23320,,,ACTIVE
3044,201705310107,IWF CITRUS TREE FAMILY DOLLAR LLC,1933 CLIFF DR STE 1  SANTA BARBARA CA 93109,1933 CLIFF DR STE 1  SANTA BARBARA CA 93109,1933 CLIFF DR STE 1  SANTA BARBARA CA 93109,THOMAS J GAMBLE,1933 CLIFF DR STE 1 SANTA BARBARA CA 93109,CANCELED
3044,201609910548,"RU DOLLAR TREE MORROW GA, LLC",3090 BRISTOL STREET STE 550  COSTA MESA CA 92626,3090 BRISTOL STREET STE 550  COSTA MESA CA 92626,3090 BRISTOL STREET STE 550  COSTA MESA CA 92626,,,ACTIVE
3044,201229210078,YUCCA VALLEY DOLLAR TREE LLC,19223 E COLIMA RD #938  ROWLAND HEIGHTS CA 91748,19223 E COLIMA RD #938  ROWLAND HEIGHTS CA 91748,19223 E COLIMA RD #938  ROWLAND HEIGHTS CA 91748,JACK P LIN,19223 E COLIMA RD #938 ROWLAND HEIGHTS CA 91748,CANCELED
3116,C3975005,LAST ROUND BAR & GRILL INC,1542 W HOLT BLVD  ONTARIO CA 91762,1542 W HOLT BLVD  ONTARIO CA 91762,1542 W HOLT BLVD  ONTARIO CA 91762,ROSA M PEREZ,8561 NUEVO AVE FONTANA CA 92335,FTB SUSPENDED
3116,201531710278,FIRST ROUND SPORTS BAR LLC,18643 COLLINS ST APT 4  TARZANA CA 91356,16451VANOWEN ST  VAN NUYS CA 91406,16451VANOWEN ST  VAN NUYS CA 91406,JESUS MORALES-BARRETO,18643 COLLINS ST APT 4 TARZANA CA 91356,FTB SUSPENDED
3166,C3803583,"CRIVELLI'S, INC.",16625 E. BENBOW STREET  COVINA CA 91722,4817 AZUSA CANYON RD  BALDWIN PARK CA 91706,4817 AZUSA CANYON RD  BALDWIN PARK CA 91706,LUCIA CRIVELLI,16625  E. BENBOW STREET COVINA CA 91722,SOS/FTB SUSPENDED
3219,C0175676,"''SANTA CLARA POST NO. 419'' THE AMERICAN LEGION, DEPARTMENT OF       CALIFORNIA",PO BOX 113  SANTA CLARA CA 95052,958 HOMESTEAD RD  SANTA CLARA CA 95050,958 HOMESTEAD RD  SANTA CLARA CA 95050,STEVE A VILLEGAS,958 HOMESTEAD RD SANTA CLARA CA 95050,ACTIVE
3219,C0233960,''STEPHEN M. BRAMMER'' POST 705 THE AMERICAN LEGION,6736 BROADWAY  LIVE OAK CA 95953,1425 VETERAN'S MEMORIAL CIRCLE  YUBA CITY CA 95993,1425 VETERAN'S MEMORIAL CIRCLE  YUBA CITY CA 95993,STEVE JORDAN,6736 BROADWAY LIVE OAK CA 95953,ACTIVE
3219,C0170385,"363RD INFANTRY POST NO. 408 AMERICAN LEGION, DEPARTMENT OF CALIFORNIA","VETERANS MEMORIAL BLDG., SUITE 128, VAN NESS/MCALLISTER  SAN FRANCISCO, CA 94102","VETERANS MEMORIAL BLDG., SUITE 128, VAN NESS/MCALLISTER  SAN FRANCISCO, CA 94102","VETERANS MEMORIAL BLDG., SUITE 128, VAN NESS/MCALLISTER  SAN FRANCISCO, CA 94102",FRANCIS J. MAHER,"140 ELLIS ST., SUITE 512 SAN FRANCISCO, CA 94102",DISSOLVED
3219,C0223874,"A. E. HOSSFELD POST NO. 614, THE AMERICAN LEGION, DEPARTMENT OF       CALIFORNIA",VETERANS MEMORIAL BLDG RM 128  SAN FRANCISCO CA 94102,,VETERANS MEMORIAL BLDG RM 128  SAN FRANCISCO CA 94102,LOUISE I ADAIR,1005 HYDE ST #43 SAN FRANCISCO CA 94109,DISSOLVED
3219,C0233811,"A.H. WALL POST NO. 435, THE AMERICAN LEGION, DEPARTMENT OF CALIFORNIA","VAN NESS & MCALLISTER ST., RM. 126  SAN FRANCISCO CA 94102",,"VAN NESS & MCALLISTER ST., RM. 126  SAN FRANCISCO CA 94102",HERPEL E NIOUS,1774 GROVE ST SAN FRANCISCO CA 94117,DISSOLVED
3219,C0202495,"ADVANCE POST NO. 266, AMERICAN LEGION, DEPARTMENT OF CALIFORNIA, INC.",,,,,,FTB SUSPENDED
3219,C0189233,AIRCRAFT POST NO. 581 THE AMERICAN LEGION,"195 TIERRA REJADA ROAD, #14  SIMI VALLEY CA 93065",,"195 TIERRA REJADA ROAD, #14  SIMI VALLEY CA 93065",ROBERT SCHADE,195 TIERRA REJADA ROAD #14 SIMI VALLEY CA 93065,ACTIVE
3219,C0101642,ALAMEDA AMERICAN LEGION RIFLE CLUB,,,,,,FTB SUSPENDED
3219,C0159304,"ALAMEDA COUNTY COUNCIL OF THE AMERICAN LEGION, DEPARTMENT OF          CALIFORNIA",,,,,,FTB SUSPENDED
3219,C0150511,"ALAMEDA POST NO. 9, THE AMERICAN LEGION, DEPARTMENT OF CALIFORNIA",2201 CENTRAL AVE  ALAMEDA CA 94501,2201 CENTRAL AVE  ALAMEDA CA 94501,2201 CENTRAL AVE  ALAMEDA CA 94501,JACQUELINE M LEVERICH,3210 ENCINAL AVE ALAMEDA CA 94501,ACTIVE
3257,C0301031,"A. V. COUNTRY CLUB ESTATES, INC.",,,,,,FTB SUSPENDED
3257,C0347519,ADOBE CREEK COUNTRY CLUB,,,,,,FTB SUSPENDED
3257,C0510441,"AHWAHNEE SPRINGS COUNTRY CLUB, INC.",,,,,,FTB SUSPENDED
3257,C0227251,ALISO LAGUNA GOLF AND COUNTRY CLUB,,,,,,FTB SUSPENDED
3257,C0359728,ALMADEN COUNTRY CLUB ESTATES,3700 EL CAMINO REAL  SAN MATEO CA 94403,,3700 EL CAMINO REAL  SAN MATEO CA 94403,,,DISSOLVED
3257,C0543650,ALMADEN GOLF & COUNTRY CLUB,6663 HAMPTON DRIVE  SAN JOSE CA 95120,6663 HAMPTON DRIVE  SAN JOSE CA 95120,6663 HAMPTON DRIVE  SAN JOSE CA 95120,STEVEN BOGGS,6663 HAMPTON DRIVE SAN JOSE CA 95120,ACTIVE
3257,C0455481,"ALTA SIERRA COUNTRY CLUB, INC.",144 TAMMY WY  GRASS VALLEY CA 95945,,144 TAMMY WY  GRASS VALLEY CA 95945,ED GREENHOOD,155 LAWRENCE WY GRASS VALLEY CA 95949,DISSOLVED
3257,C0064767,ALTADENA COUNTRY CLUB,,,,,,FTB SUSPENDED
3257,C0207661,ALTADENA TOWN AND COUNTRY CLUB,2290 COUNTRY CLUB DR  ALTADENA CA 91001,2290 COUNTRY CLUB DR  ALTADENA CA 91001,2290 COUNTRY CLUB DR  ALTADENA CA 91001,CRAIG SLOANE,2290 COUNTRY CLUB DRIVE CITY CA 91001,ACTIVE
3257,C0048217,ANNANDALE COUNTRY CLUB,,,,,,FTB SUSPENDED
3257,201104010309,100 COUNTRY CLUB LLC,,414 E VALENCIA AVE #304  BURBANK CA 91501,414 E VALENCIA AVE #304  BURBANK CA 91501,ALEXANDER HENSON,13766 CENTER ST STE 27 CARMEL VALLEY CA 93024,FTB SUSPENDED
3257,200022210002,1111 COUNTRY CLUB DRIVE LLC,,1640 5TH ST STE 112  SANTA MONICA CA 90401,1640 5TH ST STE 112  SANTA MONICA CA 90401,,,ACTIVE
3257,201410510194,1467 COUNTRY CLUB DRIVE LLC,15001 S FIGUEROA ST  GARDENA CA 90248,15001 S FIGUEROA ST  GARDENA CA 90248,15001 S FIGUEROA ST  GARDENA CA 90248,MICHAEL FALLAS,15001 S FIGUEROA ST GARDENA CA 90248,ACTIVE
3257,200821410274,"1499 COUNTRY CLUB DRIVE, LLC",,475 S SAN ANTONIO RD  LOS ALTOS CA 94022,475 S SAN ANTONIO RD  LOS ALTOS CA 94022,ANDREW A LEWIS,475 S SAN ANTONIO RD LOS ALTOS CA 94022,ACTIVE
3257,200706710006,"1500 COUNTRY CLUB DRIVE, LLC",,915 LINCOLN AVE  TEMPLETON CA 93465,915 LINCOLN AVE  TEMPLETON CA 93465,PATRICIA M SCOLES,1104 VINE ST STE B PASO ROBLES CA 93446,CANCELED
3257,200810910369,160 COUNTRY CLUB LLC,840 VIEWRIDGE DR  SAN MATEO CA 94403,840 VIEWRIDGE DR  SAN MATEO CA 94403,840 VIEWRIDGE DR  SAN MATEO CA 94403,STANLEY LOW SPLOW5@YAHOO.COM,840 VIEWRIDGE DR SAN MATEO CA 94403-4040,CANCELED
3257,201633310142,190 COUNTRY CLUB DRIVE CRE LLC,5404 WISCONSIN AVE 2ND FL  CHEVY CHASE MD 20815,9701 WILSHIRE BLVD STE 700  BEVERLY HILLS CA 90212,9701 WILSHIRE BLVD STE 700  BEVERLY HILLS CA 90212,,,CANCELED
3257,201904410218,2108 COUNTRY CLUB LLC,2000 DURANT AVE #117  BERKELEY CA 94704,2000 DURANT AVE #117  BERKELEY CA 94704,2000 DURANT AVE #117  BERKELEY CA 94704,MICHAEL FORMAN,2000 DURANT AVE #117 BERKLELEY CA 94704,ACTIVE
3257,200917010027,"2151 COUNTRY CLUB BLVD, LLC",,527 S AIRPORT WAY  MANTECA CA 95337,527 S AIRPORT WAY  MANTECA CA 95337,ROGER HARTLEY,527 S AIRPORT WAY MANTECA CA 95337,ACTIVE
3257,200228410038,"2564 COUNTRY CLUB DRIVE, LLC",,4912 BROOKGLEN WAY  CARMICHAEL CA 95608,4912 BROOKGLEN WAY  CARMICHAEL CA 95608,KEITH E. JOHNSON,4912 BROOKGLEN WAY CARMICHAEL CA 95608,CANCELED
3287,C1106039,"HARRAH'S AMUSEMENTS, INC.",2469 GENOA HIGHLANDS DR  GENOA NV 89411,2469 GENOA HIGHLANDS DR  GENOA NV 89411,2469 GENOA HIGHLANDS DR  GENOA NV 89411,SCOTT PORTER,"1 WILLOWBROOK CT, SUITE 210 PETALUMA CA 94954",SURRENDER
3287,C0877360,"HARRAH'S ENTERPRISES, INC.",2720 GRETTA LN  ANAHEIM CA 92806,,2720 GRETTA LN  ANAHEIM CA 92806,MICHAEL F HARRAH,2720 GRETTA LN ANAHEIM CA 92806,FTB SUSPENDED
3287,C2006441,HARRAH'S FILM CORP.,"1 WILLOWBROOK COURT, SUITE 210  PETALUMA CA 94954","C/O SCOTT PORTER CORPORATION, 1 WILLOWBROOK COURT, SUITE 210  PETALUMA CA 94954","C/O SCOTT PORTER CORPORATION, 1 WILLOWBROOK COURT, SUITE 210  PETALUMA CA 94954",SCOTT G PORTER,"C/O SCOTT PORTER CORPORATION, 1 WILLOWBROOK COURT, SUITE 210 PETALUMA CA 94954",ACTIVE
3287,C0877359,"HARRAH'S MANAGEMENT, INC.",2720 GRETTA LN  ANAHEIM CA 92806,,2720 GRETTA LN  ANAHEIM CA 92806,MICHAEL F HARRAH,2720 GRETTA LN ANAHEIM CA 92806,FTB SUSPENDED
3287,C1236513,"HARRAH'S THEATRE SERVICE AND SUPPLY, INC.",25613 DOLLAR ST UNIT 1  HAYWARD CA 94544,25613 DOLLAR ST UNIT 1  HAYWARD CA 94544,25613 DOLLAR ST UNIT 1  HAYWARD CA 94544,JERALD L HARRAH,25613 DOLLAR ST UNIT 1 HAYWARD CA 94544,SURRENDER
3287,C1285328,"HARRAH'S THEATRICAL DRAPERIES, INC.",25613 DOLLAR ST UNIT 1  HAYWARD CA 94544,25613 DOLLAR ST UNIT 1  HAYWARD CA 94544,25613 DOLLAR ST UNIT 1  HAYWARD CA 94544,JERALD L HARRAH,25613 DOLLAR ST UNIT 1 HAYWARD CA 94544,DISSOLVED
