Unnamed: 0,IMPAQ_ID,DBA Name,DBA Name_changes,DBA Name_update,Address Line 1,Address Line 1_changes,Address Line 1_update,City,City_changes,City_update,State,State_changes,State_update,Zip,Zip_changes,Zip_update,Latitude,Latitude_changes,Latitude_update,Longitude,Longitude_changes,Longitude_update,Full Address,Full Address_changes,Full Address_update,County,County_changes,County_update,Address Line 2,matchsource,est_id,found_pic,Manual Result,biz_status,Coordinates,On Tribe Land,Miles to Nearest Tribe,Assoc Tribe,Assoc Res,Nearest Tribe,Nearest Res,ori_flg,Owner Name,Owner City,Owner State,Non-Corporate Owned,Niel_id
730,730,FORT BELKNAP KWIK STOP,Correct,FORT BELKNAP KWIK STOP,148 ASSINIBOINE,Correct,148 ASSINIBOINE,HARLEM,Correct,HARLEM,MT,Correct,MT,59526,Correct,59526.0,48.527739,Correct,48.527739,-108.7890764,Correct,-108.7890764,"148 ASSINIBOINE  HARLEM, MT 59526",Correct,"148 ASSINIBOINE HARLEM, MT 59526",BLAINE,Correct,BLAINE,,Google,730.0,,,Active,POINT (-108.7890764 48.527739),No,1.6315192184893037,,,Fort Belknap,Fort Belknap Reservation,From Original List,,,,,
731,731,HORSESHOE BAR,THE HORSESHOE BAR,THE HORSESHOE BAR,57777 E US HIGHWAY 2,20390726303020000,20390726303020000,OSWEGO,WOLF POINT,WOLF POINT,MT,Correct,MT,59201,Correct,59201.0,48.06364,48.06214259999999,48.06214259999999,-105.8799,-105.88638200000001,-105.88638200000001,"57777 E US HIGHWAY 2  OSWEGO, MT 59201","20390726303020000, Wolf Point, MT 59201, USA","20390726303020000, Wolf Point, MT 59201, USA",ROOSEVELT,Correct,VALLEY,,Original,731.0,,,Active,POINT (-105.886382 48.06214259999999),Yes,0.0,Fort Peck,Fort Peck Indian Reservation,,,From Original List,,,,,
732,732,APSAALOOKE NIGHTS CASINO,Correct,APSAALOOKE NIGHTS CASINO,71 HERITAGE RD.,71 HERITAGE ROADE,71 HERITAGE ROADE,CROW AGENCY,Correct,CROW AGENCY,MT,Correct,MT,59022,Correct,59022.0,45.58006,45.58006339999999,45.58006339999999,-107.4506,-107.45062479999999,-107.45062479999999,"71 HERITAGE RD.  CROW AGENCY, MT 59022","71 Heritage Roade, Crow Agency, MT 59022, USA","71 Heritage Roade, Crow Agency, MT 59022, USA",,Correct,BIG HORN,,Original,732.0,,,Closed,POINT (-107.4506248 45.58006339999999),Yes,0.0,Crow,Crow Reservation,,,From Original List,,,,,
733,733,APSAALOOKE TRADING POST,Correct,APSAALOOKE TRADING POST,101 MAIN ST.,Correct,101 MAIN ST.,CROW AGENCY,Correct,CROW AGENCY,MT,Correct,MT,59022,Correct,59022.0,45.31269,Correct,45.31269,-107.3634,Correct,-107.3634,"101 MAIN ST.  CROW AGENCY, MT 59022",Correct,"101 MAIN ST. CROW AGENCY, MT 59022",,Correct,BIG HORN,,Original,733.0,,,Active,POINT (-107.3634 45.31269),Yes,0.0,Crow,Crow Reservation,,,From Original List,,,,,
734,734,BIG HORN CASINO,Can't Validate,BIG HORN CASINO,1 MAIN ST. PARKDALE CT.,Can't Validate,1 MAIN ST. PARKDALE CT.,FORT SMITH,Can't Validate,FORT SMITH,MT,Can't Validate,MT,59035,Can't Validate,59035.0,45.30756,Can't Validate,45.30756,-107.9164,Can't Validate,-107.9164,"1 MAIN ST. PARKDALE CT.  FORT SMITH, MT 59035",Can't Validate,"1 MAIN ST. PARKDALE CT. FORT SMITH, MT 59035",,Can't Validate,BIG HORN,,Original,734.0,0.0,,Can't Validate,POINT (-107.9164 45.30756),No,0.061842989807133035,,,Crow,Crow Reservation,From Original List,,,,,
735,735,BIG HORN IGA,Correct,BIG HORN IGA,901 N. CENTER ST.,Correct,901 N. CENTER ST.,HARDIN,Correct,HARDIN,MT,Correct,MT,59034,Correct,59034.0,45.738267,Correct,45.738267,-107.605969,Correct,-107.605969,"901 N. CENTER ST.  HARDIN, MT 59034",Correct,"901 N. CENTER ST. HARDIN, MT 59034",,Correct,BIG HORN,,Original,735.0,1.0,yes,Active,POINT (-107.605969 45.738267),No,0.604650646837287,,,Crow,Crow Reservation,From Original List,,,,,
736,736,CROW MERCANTILE,Correct,CROW MERCANTILE,17 BALA ST.,Correct,17 BALA ST.,CROW AGENCY,Correct,CROW AGENCY,MT,Correct,MT,59022,Correct,59022.0,45.60661500000001,Correct,45.60661500000001,-107.461041,Correct,-107.461041,"17 BALA ST.  CROW AGENCY, MT 59022",Correct,"17 BALA ST. CROW AGENCY, MT 59022",,Correct,BIG HORN,,Original,736.0,,,Active,POINT (-107.461041 45.60661500000001),Yes,0.0,Crow,Crow Reservation,,,From Original List,,,,,
737,737,CUSTER BATTLEFIELD TRADING POST,Correct,CUSTER BATTLEFIELD TRADING POST,347 U.S. 212,347 US-212,347 US-212,CROW AGENCY,Correct,CROW AGENCY,MT,Correct,MT,59022,Correct,59022.0,45.57937,45.5793708,45.5793708,-107.4429,-107.44294,-107.44294,"347 U.S. 212  CROW AGENCY, MT 59022","347 US-212, Crow Agency, MT 59022, USA","347 US-212, Crow Agency, MT 59022, USA",,Correct,BIG HORN,,Original,737.0,,,Active,POINT (-107.44294 45.5793708),Yes,0.0,Crow,Crow Reservation,,,From Original List,,,,,
738,738,LAME DEER TRADING,LAME DEER TRADING POST,LAME DEER TRADING POST,501 CHEYENNE AVE.,Correct,501 CHEYENNE AVE.,LAME DEER,Correct,LAME DEER,MT,Correct,MT,59043,Correct,59043.0,45.622571,Correct,45.622571,-106.665948,Correct,-106.665948,"501 CHEYENNE AVE.  LAME DEER, MT 59043",Correct,"501 CHEYENNE AVE. LAME DEER, MT 59043",,Correct,ROSEBUD,,Original,738.0,,,Active,POINT (-106.665948 45.622571),Yes,0.0,Northern Cheyenne,Northern Cheyenne Indian Reservation,,,From Original List,,,,,
739,739,LITTLE HORN IGA,Correct,LITTLE HORN IGA,100 MAIN ST.,Correct,100 MAIN ST.,LODGE GRASS,Correct,LODGE GRASS,MT,Correct,MT,59050,Correct,59050.0,45.31245300000001,Correct,45.31245300000001,-107.363323,Correct,-107.363323,"100 MAIN ST.  LODGE GRASS, MT 59050",Correct,"100 MAIN ST. LODGE GRASS, MT 59050",,Correct,BIG HORN,,Original,739.0,,,Active,POINT (-107.363323 45.31245300000001),Yes,0.0,Crow,Crow Reservation,,,From Original List,,,,,
740,740,YELLOWTAIL MARKET,Correct,YELLOWTAIL MARKET,1 MAIN ST. PARKDALE CT.,1 YELLOWTAIL ST,1 YELLOWTAIL ST,FORT SMITH,Correct,FORT SMITH,MT,Correct,MT,59035,Correct,59035.0,45.30756,45.307555799999996,45.307555799999996,-107.9164,-107.9163898,-107.9163898,"1 MAIN ST. PARKDALE CT.  FORT SMITH, MT 59035","1 Yellowtail St, Fort Smith, MT 59035, USA","1 Yellowtail St, Fort Smith, MT 59035, USA",,Correct,BIG HORN,,Original,740.0,,,Closed,POINT (-107.9163898 45.3075558),No,0.061180651684026935,,,Crow,Crow Reservation,From Original List,,,,,
741,741,FORT BELKNAP CASINO,Correct,FORT BELKNAP CASINO,104 ASSINIBOINE AVE.,Correct,104 ASSINIBOINE AVE.,HARLEM,Correct,HARLEM,MT,Correct,MT,59526,Correct,59526.0,48.4822,Correct,48.4822,-108.7557,Correct,-108.7557,"104 ASSINIBOINE AVE.  HARLEM, MT 59526",Correct,"104 ASSINIBOINE AVE. HARLEM, MT 59526",,Correct,BLAINE,,Original,741.0,,,Active,POINT (-108.7557 48.4822),Yes,0.0,Fort Belknap,Fort Belknap Reservation,,,From Original List,,,,,
742,742,MARTIN'S STORE,Correct,MARTIN'S STORE,MAIN ST.,MARTIN DR,MARTIN DR,HAYS,Correct,HAYS,MT,Correct,MT,59527,Correct,59527.0,47.98212,47.989131799999996,47.989131799999996,-108.6857,-108.6986715,-108.6986715,"MAIN ST.  HAYS, MT 59527","martin dr, Hays, MT 59527, USA","martin dr, Hays, MT 59527, USA",,Correct,BLAINE,,Original,742.0,,,Active,POINT (-108.6986715 47.9891318),Yes,0.0,Fort Belknap,Fort Belknap Reservation,,,From Original List,,,,,
743,743,ALBERTSONS,Correct,ALBERTSONS,415 BLAINE ST.,Correct,415 BLAINE ST.,WOLF POINT,Correct,WOLF POINT,MT,Correct,MT,59201,Correct,59201.0,48.092644,Correct,48.092644,-105.643506,Correct,-105.643506,"415 BLAINE ST.  WOLF POINT, MT 59201",Correct,"415 BLAINE ST. WOLF POINT, MT 59201",,Correct,ROOSEVELT,,Original,743.0,,,Active,POINT (-105.643506 48.092644),Yes,0.0,Fort Peck,Fort Peck Indian Reservation,,,From Original List,,,,,
744,744,ARLO'S BAR,Correct,ARLO'S BAR,221 MAIN ST.,Correct,221 MAIN ST.,WOLF POINT,Correct,WOLF POINT,MT,Correct,MT,59201,Correct,59201.0,48.090463,Correct,48.090463,-105.639643,Correct,-105.639643,"221 MAIN ST.  WOLF POINT, MT 59201",Correct,"221 MAIN ST. WOLF POINT, MT 59201",,Correct,ROOSEVELT,,Original,744.0,,,Active,POINT (-105.639643 48.090463),Yes,0.0,Fort Peck,Fort Peck Indian Reservation,,,From Original List,,,,,
745,745,B&S QWIK STOP,Can't Validate,B&S QWIK STOP,U.S. 2,Can't Validate,U.S. 2,BROCKTON,Can't Validate,BROCKTON,MT,Can't Validate,MT,59255,Can't Validate,59255.0,48.14914,Can't Validate,48.14914,-104.9145,Can't Validate,-104.9145,"U.S. 2  BROCKTON, MT 59255",Can't Validate,"U.S. 2 BROCKTON, MT 59255",,Can't Validate,ROOSEVELT,,Original,745.0,0.0,,Can't Validate,POINT (-104.9145 48.14914),Yes,0.0,Fort Peck,Fort Peck Indian Reservation,,,From Original List,,,,,
746,746,BARACKER'S BAR,Correct,BARACKER'S BAR,206 W. POPLAR #B,206 B ST W,206 B ST W,POPLAR,Correct,POPLAR,MT,Correct,MT,59255,Correct,59255.0,48.47576,48.1087219,48.1087219,-105.1977,-105.19783600000001,-105.19783600000001,"206 W. POPLAR #B  POPLAR, MT 59255","206 B St W, Poplar, MT 59255, USA","206 B St W, Poplar, MT 59255, USA",,Correct,ROOSEVELT,,Original,746.0,,,Active,POINT (-105.197836 48.1087219),Yes,0.0,Fort Peck,Fort Peck Indian Reservation,,,From Original List,,,,,
747,747,BUCKHORN BAR & RESTAURANT,Correct,BUCKHORN BAR & RESTAURANT,203 2ND AVE. W.,Correct,203 2ND AVE. W.,POPLAR,Correct,POPLAR,MT,Correct,MT,59255,Correct,59255.0,48.109151,Correct,48.109151,-105.19695,Correct,-105.19695,"203 2ND AVE. W.  POPLAR, MT 59255",Correct,"203 2ND AVE. W. POPLAR, MT 59255",,Correct,ROOSEVELT,,Original,747.0,,,Active,POINT (-105.19695 48.109151),Yes,0.0,Fort Peck,Fort Peck Indian Reservation,,,From Original List,,,,,
748,748,CENEX,Correct,CENEX,211 F ST. W.,Correct,211 F ST. W.,POPLAR,Correct,POPLAR,MT,Correct,MT,59255,Correct,59255.0,48.112967,Correct,48.112967,-105.198399,Correct,-105.198399,"211 F ST. W.  POPLAR, MT 59255",Correct,"211 F ST. W. POPLAR, MT 59255",,Correct,ROOSEVELT,,Original,748.0,,,Active,POINT (-105.198399 48.112967),Yes,0.0,Fort Peck,Fort Peck Indian Reservation,,,From Original List,,,,,
749,749,DAD'S BAR,Correct,DAD'S BAR,216 MAIN ST.,221 MAIN ST,221 MAIN ST,WOLF POINT,Correct,WOLF POINT,MT,Correct,MT,59201,Correct,59201.0,48.09053400000001,48.090076,48.090076,-105.639544,-105.64006100000002,-105.64006100000002,"216 MAIN ST.  WOLF POINT, MT 59201","221 Main St, Wolf Point, MT 59201, USA","221 Main St, Wolf Point, MT 59201, USA",,Correct,ROOSEVELT,,Original,749.0,1.0,yes,Active,POINT (-105.640061 48.090076),Yes,0.0,Fort Peck,Fort Peck Indian Reservation,,,From Original List,,,,,
750,750,FRONTIER LOUNGE AND RED LATERN,Correct,FRONTIER LOUNGE AND RED LATERN,200 E. MAIN,200 E MAIN ST,200 E MAIN ST,WOLF POINT,Correct,WOLF POINT,MT,Correct,MT,59201,Correct,59201.0,48.091412,48.0921825,48.0921825,-105.635783,-105.63524240000001,-105.63524240000001,"200 E. MAIN  WOLF POINT, MT 59201","200 E Main St, Wolf Point, MT 59201, USA","200 E Main St, Wolf Point, MT 59201, USA",,Correct,ROOSEVELT,,Original,750.0,1.0,yes,Active,POINT (-105.6352424 48.0921825),Yes,0.0,Fort Peck,Fort Peck Indian Reservation,,,From Original List,,,,,
751,751,LOG CABIN BAR,Can't validate,LOG CABIN BAR,HWY. 2 & 7TH ST.,Can't validate,HWY. 2 & 7TH ST.,BROCKTON,Can't validate,BROCKTON,MT,Can't validate,MT,59255,Can't validate,59255.0,48.149139,Can't validate,48.149139,-104.9145239,Can't validate,-104.9145239,"HWY. 2 & 7TH ST.  BROCKTON, MT 59255",Can't validate,"HWY. 2 & 7TH ST.  BROCKTON, MT 59255",,Can't validate,,,Google,751.0,,,Can't validate,Can't validate,Can't validate,Can't validate,Can't validate,Can't validate,Can't validate,Can't validate,From Original List,,,,,
752,752,SHERMAN INN,SHERMAN INN RESTAURANT,SHERMAN INN RESTAURANT,200 E. MAIN ST.,Correct,200 E. MAIN ST.,WOLF POINT,Correct,WOLF POINT,MT,Correct,MT,59201,Correct,59201.0,48.091412,Correct,48.091412,-105.635783,Correct,-105.635783,"200 E. MAIN ST.  WOLF POINT, MT 59201",Correct,"200 E. MAIN ST. WOLF POINT, MT 59201",,Correct,ROOSEVELT,,Original,752.0,,,Active,POINT (-105.635783 48.091412),Yes,0.0,Fort Peck,Fort Peck Indian Reservation,,,From Original List,,,,,
753,753,STOCKMAN'S BAR,Correct,STOCKMAN'S BAR,218 MAIN ST.,Correct,218 MAIN ST.,WOLF POINT,Correct,WOLF POINT,MT,Correct,MT,59201,Correct,59201.0,48.090522,Correct,48.090522,-105.639618,Correct,-105.639618,"218 MAIN ST.  WOLF POINT, MT 59201",Correct,"218 MAIN ST. WOLF POINT, MT 59201",,Correct,ROOSEVELT,,Original,753.0,,,Active,POINT (-105.639618 48.090522),Yes,0.0,Fort Peck,Fort Peck Indian Reservation,,,From Original List,,,,,
754,754,TANDE GROCERY,Correct,TANDE GROCERY,300 1ST AVE.,Correct,300 1ST AVE.,POPLAR,Correct,POPLAR,MT,Correct,MT,59255,Correct,59255.0,48.110115,Correct,48.110115,-105.195558,Correct,-105.195558,"300 1ST AVE.  POPLAR, MT 59255",Correct,"300 1ST AVE. POPLAR, MT 59255",,Correct,ROOSEVELT,,Original,754.0,0.0,,Active,POINT (-105.195558 48.110115),Yes,0.0,Fort Peck,Fort Peck Indian Reservation,,,From Original List,,,,,
755,755,TJ'S QUICK STOP,Correct,TJ'S QUICK STOP,302 F ST. W.,300 F ST W,300 F ST W,POPLAR,Correct,POPLAR,MT,Correct,MT,59255,Correct,59255.0,48.112911,48.1125958,48.1125958,-105.199528,-105.19976609999999,-105.19976609999999,"302 F ST. W.  POPLAR, MT 59255","300 F St W, Poplar, MT 59255, USA","300 F St W, Poplar, MT 59255, USA",,Correct,ROOSEVELT,,Original,755.0,1.0,yes,Active,POINT (-105.1997661 48.1125958),Yes,0.0,Fort Peck,Fort Peck Indian Reservation,,,From Original List,,,,,
756,756,TOWN PUMP AND EXXON,TOWN PUMP FOOD STORE,TOWN PUMP FOOD STORE,401 CASCADE ST.,Correct,401 CASCADE ST.,WOLF POINT,Correct,WOLF POINT,MT,Correct,MT,59201,Correct,59201.0,48.09347800000001,Correct,48.09347800000001,-105.643227,Correct,-105.643227,"401 CASCADE ST.  WOLF POINT, MT 59201",Correct,"401 CASCADE ST. WOLF POINT, MT 59201",,Correct,ROOSEVELT,,Original,756.0,1.0,yes,Active,POINT (-105.643227 48.09347800000001),Yes,0.0,Fort Peck,Fort Peck Indian Reservation,,,From Original List,,,,,
757,757,WATER HOLE,Can't Validate,WATER HOLE,100 3RD AVE. S.,Can't Validate,100 3RD AVE. S.,WOLF POINT,Can't Validate,WOLF POINT,MT,Can't Validate,MT,59201,Can't Validate,59201.0,48.09262,Can't Validate,48.09262,-105.642556,Can't Validate,-105.642556,"100 3RD AVE. S.  WOLF POINT, MT 59201",Can't Validate,"100 3RD AVE. S. WOLF POINT, MT 59201",,Can't Validate,ROOSEVELT,,Original,757.0,0.0,,Can't Validate,POINT (-105.642556 48.09262),Yes,0.0,Fort Peck,Fort Peck Indian Reservation,,,From Original List,,,,,
758,758,WOLF POINT LIQUOR MARKET,Correct,WOLF POINT LIQUOR MARKET,219 INDIAN ST.,223 MAIN ST,223 MAIN ST,WOLF POINT,Correct,WOLF POINT,MT,Correct,MT,59201,Correct,59201.0,48.099348,48.0901532,48.0901532,-105.639316,-105.63994640000001,-105.63994640000001,"219 INDIAN ST.  WOLF POINT, MT 59201","223 Main St, Wolf Point, MT 59201, USA","223 Main St, Wolf Point, MT 59201, USA",,Correct,ROOSEVELT,,Original,758.0,,,Active,POINT (-105.6399464 48.0901532),Yes,0.0,Fort Peck,Fort Peck Indian Reservation,,,From Original List,,,,,
759,759,GLACIER PARK TRADING,Correct,GLACIER PARK TRADING,316 U.S. 2,316 US-2,316 US-2,EAST GLACIER PARK,Correct,EAST GLACIER PARK,MT,Correct,MT,59434,Correct,59434.0,48.441667,48.441831,48.441831,-113.218377,-113.21808,-113.21808,"316 U.S. 2  EAST GLACIER PARK, MT 59434","316 US-2, East Glacier Park, MT 59434, USA","316 US-2, East Glacier Park, MT 59434, USA",,Correct,GLACIER,,Original,759.0,,,Active,POINT (-113.21808 48.441831),Yes,0.0,Blackfeet,Blackfeet Indian Reservation,,,From Original List,,,,,
760,760,GLACIER PEAKS CASINO,Correct,GLACIER PEAKS CASINO,416 W. CENTRAL AVE.,46 MUSEUM LOOP,46 MUSEUM LOOP,BROWNING,Correct,BROWNING,MT,Correct,MT,59417,Correct,59417.0,48.55588,48.5573999,48.5573999,-113.0222,-113.02544499999999,-113.02544499999999,"416 W. CENTRAL AVE.  BROWNING, MT 59417","46 Museum Loop, Browning, MT 59417, USA","46 Museum Loop, Browning, MT 59417, USA",,Correct,GLACIER,,Original,760.0,,,Active,POINT (-113.025445 48.5573999),Yes,0.0,Blackfeet,Blackfeet Indian Reservation,,,From Original List,,,,,
761,761,GLACIER WAY CONOCO,Correct,GLACIER WAY CONOCO,330 CENTRAL AVE. W.,99 STATE HWY 464,99 STATE HWY 464,BROWNING,Correct,BROWNING,MT,Correct,MT,59417,Correct,59417.0,48.555915,48.575098600000004,48.575098600000004,-113.019506,-113.0147792,-113.0147792,"330 CENTRAL AVE. W.  BROWNING, MT 59417","99 State Hwy 464, Browning, MT 59417, USA","99 State Hwy 464, Browning, MT 59417, USA",,Correct,GLACIER,,Original,761.0,1.0,yes,Active,POINT (-113.0147792 48.5750986),Yes,0.0,Blackfeet,Blackfeet Indian Reservation,,,From Original List,,,,,
762,762,TEEPLE'S IGA,Correct,TEEPLE'S IGA,209 W. CENTRAL AVE.,Correct,209 W. CENTRAL AVE.,BROWNING,Correct,BROWNING,MT,Correct,MT,59417,Correct,59417.0,48.555956,Correct,48.555956,-113.016314,Correct,-113.016314,"209 W. CENTRAL AVE.  BROWNING, MT 59417",Correct,"209 W. CENTRAL AVE. BROWNING, MT 59417",,Correct,GLACIER,,Original,762.0,1.0,yes,Active,POINT (-113.016314 48.555956),Yes,0.0,Blackfeet,Blackfeet Indian Reservation,,,From Original List,,,,,
763,763,THRONSON'S GENERAL STORE,Correct,THRONSON'S GENERAL STORE,4013 HWY. 89,4013 US-89,4013 US-89,BABB,Correct,BABB,MT,Correct,MT,59411,Correct,59411.0,48.859683,48.859666299999994,48.859666299999994,-113.436497,-113.43709750000001,-113.43709750000001,"4013 HWY. 89  BABB, MT 59411","4013 US-89, Babb, MT 59411, USA","4013 US-89, Babb, MT 59411, USA",,Correct,GLACIER,,Original,763.0,,,Active,POINT (-113.4370975 48.8596663),Yes,0.0,Blackfeet,Blackfeet Indian Reservation,,,From Original List,,,,,
764,764,TOWN PUMP,Correct,TOWN PUMP,304 S.E. BOUNDARY ST.,Correct,304 S.E. BOUNDARY ST.,BROWNING,Correct,BROWNING,MT,Correct,MT,59417,Correct,59417.0,48.553601,Correct,48.553601,-113.009836,Correct,-113.009836,"304 S.E. BOUNDARY ST.  BROWNING, MT 59417",Correct,"304 S.E. BOUNDARY ST. BROWNING, MT 59417",,Correct,GLACIER,,Original,764.0,,,Active,POINT (-113.009836 48.553601),Yes,0.0,Blackfeet,Blackfeet Indian Reservation,,,From Original List,,,,,
765,765,TRAILHEAD SALOON,Correct,TRAILHEAD SALOON,300 U.S. 2,300 US-2,300 US-2,UNINCORPORATED GLACIER COUNTY,EAST GLACIER PARK,EAST GLACIER PARK,MT,Correct,MT,59434,Correct,59434.0,48.441622,48.4410973,48.4410973,-113.218385,-113.2184787,-113.2184787,"300 U.S. 2  UNINCORPORATED GLACIER COUNTY, MT 59434","300 US-2, East Glacier Park, MT 59434, USA","300 US-2, East Glacier Park, MT 59434, USA",,Correct,GLACIER,,Original,765.0,,,Active,POINT (-113.2184787 48.4410973),Yes,0.0,Blackfeet,Blackfeet Indian Reservation,,,From Original List,,,,,
766,766,EIZOO'S BAR & CASINO,Correct,EIZOO'S BAR & CASINO,335 U.S. HWY. 87,335 US-87,335 US-87,BOX ELDER,Correct,BOX ELDER,MT,Correct,MT,59521,Correct,59521.0,48.313763,48.31376299999999,48.31376299999999,-110.017173,-110.017173,-110.017173,"335 U.S. HWY. 87  BOX ELDER, MT 59521","335 US-87, Box Elder, MT 59521, USA","335 US-87, Box Elder, MT 59521, USA",,Correct,HILL,,Google,766.0,,,Active,POINT (-110.017173 48.31376299999999),No,0.027247115355000576,,,Rocky Boy's,Rocky Boy's Off-Reservation Trust Land,From Original List,,,,,
767,767,GRANDMA'S MARKET,Correct,GRANDMA'S MARKET,440 LAREDO RD.,Correct,440 LAREDO RD.,BOX ELDER,Correct,BOX ELDER,MT,Correct,MT,59521,Correct,59521.0,48.35583,Correct,48.35583,-109.8418,Correct,-109.8418,"440 LAREDO RD.  BOX ELDER, MT 59521",Correct,"440 LAREDO RD. BOX ELDER, MT 59521",,Correct,HILL,,Original,767.0,0.0,,Active,POINT (-109.8418 48.35583),Yes,0.0,Rocky Boy's,Rocky Boy's Off-Reservation Trust Land,,,From Original List,,,,,
768,768,MARY'S MARKET,Correct,MARY'S MARKET,51 CURVE DR.,Correct,51 CURVE DR.,BOX ELDER,Correct,BOX ELDER,MT,Correct,MT,59521,Correct,59521.0,48.2830726,Correct,48.2830726,-109.8209999,Correct,-109.8209999,"51 CURVE DR.  BOX ELDER, MT 59521",Correct,"51 CURVE DR. BOX ELDER, MT 59521",,Correct,HILL,,Google,768.0,,,Active,POINT (-109.8209999 48.2830726),Yes,0.0,Rocky Boy's,Rocky Boy's Reservation,,,From Original List,,,,,
769,769,PASTIME,Correct,PASTIME,170 LAREDO RD.,Correct,170 LAREDO RD.,BOX ELDER,Correct,BOX ELDER,MT,Correct,MT,59521,Correct,59521.0,48.35702,Correct,48.35702,-109.8427,Correct,-109.8427,"170 LAREDO RD.  BOX ELDER, MT 59521",Correct,"170 LAREDO RD. BOX ELDER, MT 59521",,Correct,HILL,,Original,769.0,,,Active,POINT (-109.8427 48.35702),Yes,0.0,Rocky Boy's,Rocky Boy's Off-Reservation Trust Land,,,From Original List,,,,,
770,770,ARNIE'S GAS & TIRE,Correct,ARNIE'S GAS & TIRE,63145 U.S. HWY. 93,63145 US-93,63145 US-93,RONAN,Correct,RONAN,MT,Correct,MT,59864,Correct,59864.0,47.53582,47.5294368,47.5294368,-114.0996,-114.0982553,-114.0982553,"63145 U.S. HWY. 93  RONAN, MT 59864","63145 US-93, Ronan, MT 59864, USA","63145 US-93, Ronan, MT 59864, USA",,Correct,LAKE,,Original,770.0,,,Active,POINT (-114.0982553 47.5294368),Yes,0.0,Flathead,Flathead Reservation,,,From Original List,,,,,
771,771,BEST WESTERN PLUS KWATAQNUK RESORT,Correct,BEST WESTERN PLUS KWATAQNUK RESORT,49708 U.S. HWY. 91 E.,49708 US-93,49708 US-93,POLSON,Correct,POLSON,MT,Correct,MT,59860,Correct,59860.0,47.83611,47.69505900000001,47.69505900000001,-114.3286,-114.157959,-114.157959,"49708 U.S. HWY. 91 E.  POLSON, MT 59860","49708 US-93, Polson, MT 59860, USA","49708 US-93, Polson, MT 59860, USA",,Correct,LAKE,,Original,771.0,1.0,yes,Active,POINT (-114.157959 47.69505900000001),Yes,0.0,Flathead,Flathead Reservation,,,From Original List,,,,,
772,772,BIG ARM GENERAL STORE,BIG ARM RESORT,BIG ARM RESORT,314 5TH ST.,44309 A ST,44309 A ST,BIG ARM,Correct,BIG ARM,MT,Correct,MT,59910,Correct,59910.0,47.798338,47.799088399999995,47.799088399999995,-114.29172,-114.29284150000001,-114.29284150000001,"314 5TH ST.  BIG ARM, MT 59910","44309 A St, Big Arm, MT 59910, USA","44309 A St, Big Arm, MT 59910, USA",,Correct,LAKE,,Original,772.0,1.0,yes,Active,POINT (-114.2928415 47.7990884),Yes,0.0,Flathead,Flathead Reservation,,,From Original List,,,,,
773,773,BUCK'S GROCERY,Correct,BUCK'S GROCERY,223 MAIN ST.,Correct,223 MAIN ST.,HOT SPRINGS,Correct,HOT SPRINGS,MT,Correct,MT,59845,Correct,59845.0,47.608468,Correct,47.608468,-114.671055,Correct,-114.671055,"223 MAIN ST.  HOT SPRINGS, MT 59845",Correct,"223 MAIN ST. HOT SPRINGS, MT 59845",,Correct,SANDERS,,Original,773.0,0.0,,Active,POINT (-114.671055 47.608468),Yes,0.0,Flathead,Flathead Reservation,,,From Original List,,,,,
774,774,CHARLO GROCERY,Correct,CHARLO GROCERY,56609 MT HWY. 212,56609 -212,56609 -212,CHARLO,Correct,CHARLO,MT,Correct,MT,59824,Correct,59824.0,47.438366,47.4384065,47.4384065,-114.1724,-114.1728554,-114.1728554,"56609 MT HWY. 212  CHARLO, MT 59824","56609 MT-212, Charlo, MT 59824, USA","56609 MT-212, Charlo, MT 59824, USA",,Correct,LAKE,,Original,774.0,,,Active,POINT (-114.1728554 47.4384065),Yes,0.0,Flathead,Flathead Reservation,,,From Original List,,,,,
775,775,COULTER AUTOMOTIVE  INC.,Correct,COULTER AUTOMOTIVE  INC.,104 MAIN ST.,Correct,104 MAIN ST.,CHARLO,Correct,CHARLO,MT,Correct,MT,59824,Correct,59824.0,47.438865,Correct,47.438865,-114.17232,Correct,-114.17232,"104 MAIN ST.  CHARLO, MT 59824",Correct,"104 MAIN ST. CHARLO, MT 59824",,Correct,LAKE,,Original,775.0,,,Active,POINT (-114.17232 47.438865),Yes,0.0,Flathead,Flathead Reservation,,,From Original List,,,,,
776,776,DBA MOUNTAIN VIEW CENEX,Correct,DBA MOUNTAIN VIEW CENEX,240 MOUNTAIN VIEW DR.,Correct,240 MOUNTAIN VIEW DR.,ST. IGNATIUS,Correct,ST. IGNATIUS,MT,Correct,MT,59865,Correct,59865.0,47.32073,Correct,47.32073,-114.099508,Correct,-114.099508,"240 MOUNTAIN VIEW DR.  ST. IGNATIUS, MT 59865",Correct,"240 MOUNTAIN VIEW DR. ST. IGNATIUS, MT 59865",,Correct,LAKE,,Original,776.0,,,Active,POINT (-114.099508 47.32073),Yes,0.0,Flathead,Flathead Reservation,,,From Original List,,,,,
777,777,DBA PAPAS WOODS BAY MARKET,Correct,DBA PAPAS WOODS BAY MARKET,14535 HWY. 35,26787 -35,26787 -35,BIGFORK,Correct,BIGFORK,MT,Correct,MT,59911,59937,59937.0,47.840969,48.0058818,48.0058818,-114.039775,-114.0561814,-114.0561814,"14535 HWY. 35  BIGFORK, MT 59911","26787 MT-35, Bigfork, MT 59937, USA","26787 MT-35, Bigfork, MT 59937, USA",,Correct,LAKE,,Original,777.0,,,Active,POINT (-114.0561814 48.0058818),No,7.930131216645558,,,Flathead,Flathead Reservation,From Original List,,,,,
778,778,DOUG ALLARD'S TRADING POST,Can't Validate,DOUG ALLARD'S TRADING POST,1 MUSEUM LN.,Can't Validate,1 MUSEUM LN.,ST. IGNATIUS,Can't Validate,ST. IGNATIUS,MT,Can't Validate,MT,59865,Can't Validate,59865.0,47.31466,Can't Validate,47.31466,-114.103,Can't Validate,-114.103,"1 MUSEUM LN.  ST. IGNATIUS, MT 59865",Can't Validate,"1 MUSEUM LN. ST. IGNATIUS, MT 59865",,Can't Validate,LAKE,,Original,778.0,,,Can't Validate,POINT (-114.103 47.31466),Yes,0.0,Flathead,Flathead Reservation,,,From Original List,,,,,
779,779,DUPUIS SMOKE SIGNAL,Correct,DUPUIS SMOKE SIGNAL,5 TERRACE LAKE RD. E.,Correct,5 TERRACE LAKE RD. E.,RONAN,Correct,RONAN,MT,Correct,MT,59864,Correct,59864.0,47.5296,Correct,47.5296,-114.097,Correct,-114.097,"5 TERRACE LAKE RD. E.  RONAN, MT 59864",Correct,"5 TERRACE LAKE RD. E. RONAN, MT 59864",,Correct,LAKE,,Original,779.0,,,Closed,POINT (-114.097 47.5296),Yes,0.0,Flathead,Flathead Reservation,,,From Original List,,,,,
780,780,DYNO-MART - SINCLAIR,Can't Validate,DYNO-MART - SINCLAIR,62945 U.S. 93,Can't Validate,62945 U.S. 93,RONAN,Can't Validate,RONAN,MT,Can't Validate,MT,59864,Can't Validate,59864.0,47.532485,Can't Validate,47.532485,-114.097365,Can't Validate,-114.097365,"62945 U.S. 93  RONAN, MT 59864",Can't Validate,"62945 U.S. 93 RONAN, MT 59864",,Can't Validate,LAKE,,Original,780.0,0.0,,Can't Validate,POINT (-114.097365 47.532485),Yes,0.0,Flathead,Flathead Reservation,,,From Original List,,,,,
781,781,EXXON,Correct,EXXON,50667 U.S. HWY. 93,50667 US-93,50667 US-93,POLSON,Correct,POLSON,MT,Correct,MT,59860,Correct,59860.0,47.6931,47.69243389999999,47.69243389999999,-114.1308,-114.13788810000001,-114.13788810000001,"50667 U.S. HWY. 93  POLSON, MT 59860","50667 US-93, Polson, MT 59860, USA","50667 US-93, Polson, MT 59860, USA",,Correct,LAKE,,Original,781.0,,,Active,POINT (-114.1378881 47.69243389999999),Yes,0.0,Flathead,Flathead Reservation,,,From Original List,,,,,
782,782,FOUR WINDS INDIAN TRADING POST,Correct,FOUR WINDS INDIAN TRADING POST,102 RUFUS LN.,36007 US-93,36007 US-93,ST. IGNATIUS,ST IGNATIUS,ST IGNATIUS,MT,Correct,MT,59865,Correct,59865.0,47.6888135,47.36929,47.36929,-114.1205168,-114.09747,-114.09747,"102 RUFUS LN.  ST. IGNATIUS, MT 59865","36007 US-93, St Ignatius, MT 59865, USA","36007 US-93, St Ignatius, MT 59865, USA",,Correct,LAKE,,Google,782.0,,,Active,POINT (-114.09747 47.36929),Yes,0.0,Flathead,Flathead Reservation,,,From Original List,,,,,
783,783,GRAY WOLF PEAK CASINO,Correct,GRAY WOLF PEAK CASINO,20750 HWY. 98 N. EVARO,20750 US-93,20750 US-93,MISSOULA,Correct,MISSOULA,MT,Correct,MT,59808,Correct,59808.0,47.0722491,47.07224910000001,47.07224910000001,-114.0623251,-114.0623251,-114.0623251,"20750 HWY. 98 N. EVARO  MISSOULA, MT 59808","20750 US-93, Missoula, MT 59808, USA","20750 US-93, Missoula, MT 59808, USA",,Correct,MISSOULA,,Google,783.0,,,Active,POINT (-114.0623251 47.07224910000001),Yes,0.0,Flathead,Flathead Reservation,,,From Original List,,,,,
784,784,JETTE STORE,Correct,JETTE STORE,44613 HWY. 93,44613 US-93,44613 US-93,POLSON,Correct,POLSON,MT,Correct,MT,59860,Correct,59860.0,47.746419,47.74619129999999,47.74619129999999,-114.229656,-114.2301348,-114.2301348,"44613 HWY. 93  POLSON, MT 59860","44613 US-93, Polson, MT 59860, USA","44613 US-93, Polson, MT 59860, USA",,Correct,LAKE,,Original,784.0,,,Active,POINT (-114.2301348 47.74619129999999),Yes,0.0,Flathead,Flathead Reservation,,,From Original List,,,,,
785,785,JOE'S JIFFY STOP,Correct,JOE'S JIFFY STOP,58356 HWY. 93 S.,58356 US-93,58356 US-93,PABLO,Correct,PABLO,MT,Correct,MT,59855,Correct,59855.0,47.59454,47.5948305,47.5948305,-114.1119,-114.11227590000001,-114.11227590000001,"58356 HWY. 93 S.  PABLO, MT 59855","58356 US-93, Pablo, MT 59855, USA","58356 US-93, Pablo, MT 59855, USA",,Correct,LAKE,,Original,785.0,,,Closed,POINT (-114.1122759 47.5948305),Yes,0.0,Flathead,Flathead Reservation,,,From Original List,,,,,
786,786,MAIN STREET MARKET,Correct,MAIN STREET MARKET,208 MAIN ST.,Correct,208 MAIN ST.,POLSON,Correct,POLSON,MT,Correct,MT,59860,Correct,59860.0,47.693967,Correct,47.693967,-114.16341,Correct,-114.16341,"208 MAIN ST.  POLSON, MT 59860",Correct,"208 MAIN ST. POLSON, MT 59860",,Correct,LAKE,,Original,786.0,,,Active,POINT (-114.16341 47.693967),Yes,0.0,Flathead,Flathead Reservation,,,From Original List,,,,,
787,787,MISSION DRUG,Correct,MISSION DRUG,110 N. MAIN ST.,110 N MAIN ST,110 N MAIN ST,ST. IGNATIUS,ST IGNATIUS,ST IGNATIUS,MT,Correct,MT,59864,59865,59865.0,47.318972,47.319349100000004,47.319349100000004,-114.096628,-114.09602849999999,-114.09602849999999,"110 N. MAIN ST.  ST. IGNATIUS, MT 59864","110 N Main St, St Ignatius, MT 59865, USA","110 N Main St, St Ignatius, MT 59865, USA",,Correct,LAKE,,Original,787.0,,,Active,POINT (-114.0960285 47.3193491),Yes,0.0,Flathead,Flathead Reservation,,,From Original List,,,,,
788,788,MISSION GENERAL STORE,Correct,MISSION GENERAL STORE,61307 WATSON RD.,Correct,61307 WATSON RD.,ST. IGNATIUS,Correct,ST. IGNATIUS,MT,Correct,MT,59865,Correct,59865.0,47.321499,Correct,47.321499,-114.075537,Correct,-114.075537,"61307 WATSON RD.  ST. IGNATIUS, MT 59865",Correct,"61307 WATSON RD. ST. IGNATIUS, MT 59865",,Correct,LAKE,,Original,788.0,,,Active,POINT (-114.075537 47.321499),Yes,0.0,Flathead,Flathead Reservation,,,From Original List,,,,,
789,789,MOIESE MERCANTILE,Correct,MOIESE MERCANTILE,64620 MT. HWY. 212,64620 -212,64620 -212,CHARLO,Correct,CHARLO,MT,Correct,MT,59824,Correct,59824.0,47.36705,47.37183049999999,47.37183049999999,-114.2677,-114.2640097,-114.2640097,"64620 MT. HWY. 212  CHARLO, MT 59824","64620 MT-212, Charlo, MT 59824, USA","64620 MT-212, Charlo, MT 59824, USA",,Correct,LAKE,,Original,789.0,,,Closed,POINT (-114.2640097 47.37183049999999),Yes,0.0,Flathead,Flathead Reservation,,,From Original List,,,,,
790,790,MOODY'S MARKET  INC.,Can't Validate,MOODY'S MARKET  INC.,50389 OLD U.S. HWY. 93,Can't Validate,50389 OLD U.S. HWY. 93,POLSON,Can't Validate,POLSON,MT,Can't Validate,MT,59860,Can't Validate,59860.0,47.692732,Can't Validate,47.692732,-114.141168,Can't Validate,-114.141168,"50389 OLD U.S. HWY. 93  POLSON, MT 59860",Can't Validate,"50389 OLD U.S. HWY. 93 POLSON, MT 59860",,Can't Validate,LAKE,,Original,790.0,,,Can't Validate,POINT (-114.141168 47.692732),Yes,0.0,Flathead,Flathead Reservation,,,From Original List,,,,,
791,791,MOUNTAIN WEST COOP,Correct,MOUNTAIN WEST COOP,63932 U.S. HWY. 93 S.,63932 US-93,63932 US-93,RONAN,Correct,RONAN,MT,Correct,MT,59864,Correct,59864.0,47.51762,47.517903600000004,47.517903600000004,-114.0978,-114.0960379,-114.0960379,"63932 U.S. HWY. 93 S.  RONAN, MT 59864","63932 US-93, Ronan, MT 59864, USA","63932 US-93, Ronan, MT 59864, USA",,Correct,LAKE,,Original,791.0,,,Active,POINT (-114.0960379 47.5179036),Yes,0.0,Flathead,Flathead Reservation,,,From Original List,,,,,
792,792,PABLO FAMILY FOODS,Correct,PABLO FAMILY FOODS,34 7TH ST.,Correct,34 7TH ST.,PABLO,Correct,PABLO,MT,Correct,MT,59864,Correct,59864.0,47.602188,Correct,47.602188,-114.114701,Correct,-114.114701,"34 7TH ST.  PABLO, MT 59864",Correct,"34 7TH ST. PABLO, MT 59864",,Correct,LAKE,,Original,792.0,,,Active,POINT (-114.114701 47.602188),Yes,0.0,Flathead,Flathead Reservation,,,From Original List,,,,,
793,793,PIER 93,Correct,PIER 93,49433 U.S. HWY. 93,49433 US-93,49433 US-93,POLSON,Correct,POLSON,MT,Correct,MT,59860,Correct,59860.0,47.69441,47.694138,47.694138,-114.1631,-114.1638143,-114.1638143,"49433 U.S. HWY. 93  POLSON, MT 59860","49433 US-93, Polson, MT 59860, USA","49433 US-93, Polson, MT 59860, USA",,Correct,LAKE,,Original,793.0,,,Active,POINT (-114.1638143 47.694138),Yes,0.0,Flathead,Flathead Reservation,,,From Original List,,,,,
794,794,POLSON BAY GROCERY,Correct,POLSON BAY GROCERY,50451 U.S. 93,50451 US-93,50451 US-93,POLSON,Correct,POLSON,MT,Correct,MT,59860,Correct,59860.0,47.692695,47.692305600000005,47.69230560000001,-114.142629,-114.1425435,-114.1425435,"50451 U.S. 93  POLSON, MT 59860","50451 US-93, Polson, MT 59860, USA","50451 US-93, Polson, MT 59860, USA",,Correct,LAKE,,Original,794.0,,,Active,POINT (-114.1425435 47.69230560000001),Yes,0.0,Flathead,Flathead Reservation,,,From Original List,,,,,
795,795,POLSON LIQUOR STORE,Correct,POLSON LIQUOR STORE,49594 HWY. 93,49594 US-93,49594 US-93,POLSON,Correct,POLSON,MT,Correct,MT,59860,Correct,59860.0,47.694469,47.6947739,47.6947739,-114.160572,-114.1605801,-114.1605801,"49594 HWY. 93  POLSON, MT 59860","49594 US-93, Polson, MT 59860, USA","49594 US-93, Polson, MT 59860, USA",,Correct,LAKE,,Original,795.0,,,Active,POINT (-114.1605801 47.6947739),Yes,0.0,Flathead,Flathead Reservation,,,From Original List,,,,,
796,796,ROD'S HARVEST FOODS,Correct,ROD'S HARVEST FOODS,16 N. MAIN ST.,116 N MAIN ST,116 N MAIN ST,ST. IGNATIUS,ST IGNATIUS,ST IGNATIUS,MT,Correct,MT,59865,Correct,59865.0,47.318014,47.319271,47.319271,-114.096655,-114.09623090000001,-114.09623090000001,"16 N. MAIN ST.  ST. IGNATIUS, MT 59865","116 N Main St, St Ignatius, MT 59865, USA","116 N Main St, St Ignatius, MT 59865, USA",,Correct,LAKE,,Original,796.0,,,Active,POINT (-114.0962309 47.319271),Yes,0.0,Flathead,Flathead Reservation,,,From Original List,,,,,
797,797,RONAN HARVEST FOODS,Correct,RONAN HARVEST FOODS,63802 U.S. HWY. 93 S.,63802 US-93,63802 US-93,RONAN,Correct,RONAN,MT,Correct,MT,59864,Correct,59864.0,47.51989,47.520221299999996,47.520221299999996,-114.0962,-114.095653,-114.095653,"63802 U.S. HWY. 93 S.  RONAN, MT 59864","63802 US-93, Ronan, MT 59864, USA","63802 US-93, Ronan, MT 59864, USA",,Correct,LAKE,,Original,797.0,,,Active,POINT (-114.095653 47.5202213),Yes,0.0,Flathead,Flathead Reservation,,,From Original List,,,,,
798,798,RONAN LIQUOR STORE,Correct,RONAN LIQUOR STORE,127 MAIN ST. S.W.,Correct,127 MAIN ST. S.W.,RONAN,Correct,RONAN,MT,Correct,MT,59864,Correct,59864.0,47.528693,Correct,47.528693,-114.099625,Correct,-114.099625,"127 MAIN ST. S.W.  RONAN, MT 59864",Correct,"127 MAIN ST. S.W. RONAN, MT 59864",,Correct,LAKE,,Original,798.0,,,Active,POINT (-114.099625 47.528693),Yes,0.0,Flathead,Flathead Reservation,,,From Original List,,,,,
799,799,SUPER 1 FOODS,Correct,SUPER 1 FOODS,50331 U.S. 93,50331 US-93,50331 US-93,POLSON,Correct,POLSON,MT,Correct,MT,59860,Correct,59860.0,47.692687,47.6918891,47.6918891,-114.144929,-114.14494950000001,-114.14494950000001,"50331 U.S. 93  POLSON, MT 59860","50331 US-93, Polson, MT 59860, USA","50331 US-93, Polson, MT 59860, USA",,Correct,LAKE,,Original,799.0,,,Active,POINT (-114.1449495 47.6918891),Yes,0.0,Flathead,Flathead Reservation,,,From Original List,,,,,
800,800,TOWN PUMP FOOD STORES - EXXON,Correct,TOWN PUMP FOOD STORES - EXXON,505 U.S. HWY. 93 S.,63459 US-93,63459 US-93,RONAN,Correct,RONAN,MT,Correct,MT,59864,Correct,59864.0,47.534606200000006,47.52463909999999,47.52463909999999,-114.0998258,-114.09754939999999,-114.09754939999999,"505 U.S. HWY. 93 S.  RONAN, MT 59864","63459 US-93, Ronan, MT 59864, USA","63459 US-93, Ronan, MT 59864, USA",,Correct,LAKE,,Google,800.0,,,Active,POINT (-114.0975494 47.52463909999999),Yes,0.0,Flathead,Flathead Reservation,,,From Original List,,,,,
801,801,TOWN PUMP POLSON,Correct,TOWN PUMP POLSON,50667 HWY. 93,50667 US-93,50667 US-93,POLSON,Correct,POLSON,MT,Correct,MT,59860,Correct,59860.0,47.69261,47.6921891,47.6921891,-114.138249,-114.1377998,-114.1377998,"50667 HWY. 93  POLSON, MT 59860","50667 US-93, Polson, MT 59860, USA","50667 US-93, Polson, MT 59860, USA",,Correct,LAKE,,Original,801.0,1.0,yes,Active,POINT (-114.1377998 47.6921891),Yes,0.0,Flathead,Flathead Reservation,,,From Original List,,,,,
802,802,WILSON FAMILY FOODS,Correct,WILSON FAMILY FOODS,92345 U.S. 93,92345 US-93,92345 US-93,ARLEE,Correct,ARLEE,MT,Correct,MT,59821,Correct,59821.0,47.163699,47.163491,47.163491,-114.086492,-114.08682409999999,-114.08682409999999,"92345 U.S. 93  ARLEE, MT 59821","92345 US-93, Arlee, MT 59821, USA","92345 US-93, Arlee, MT 59821, USA",,Correct,LAKE,,Original,802.0,,,Active,POINT (-114.0868241 47.163491),Yes,0.0,Flathead,Flathead Reservation,,,From Original List,,,,,
803,803,Y QUICK STOP & DELI,Correct,Y QUICK STOP & DELI,1893 MT HWY. 28,Correct,1893 MT HWY. 28,HOT SPRINGS,Correct,HOT SPRINGS,MT,Correct,MT,59845,Correct,59845.0,47.541697,Correct,47.541697,-114.712216,Correct,-114.712216,"1893 MT HWY. 28  HOT SPRINGS, MT 59845",Correct,"1893 MT HWY. 28 HOT SPRINGS, MT 59845",,Correct,SANDERS,,Original,803.0,1.0,yes,Active,POINT (-114.712216 47.541697),Yes,0.0,Flathead,Flathead Reservation,,,From Original List,,,,,
804,804,CHEYENNE DEPOT,Correct,CHEYENNE DEPOT,CHEYENNE AVE. & 4TH ST.,Correct,CHEYENNE AVE. & 4TH ST.,LAME DEER,Correct,LAME DEER,MT,Correct,MT,59043,Correct,59043.0,45.621119,Correct,45.621119,-106.665192,Correct,-106.665192,"CHEYENNE AVE. & 4TH ST.  LAME DEER, MT 59043",Correct,"CHEYENNE AVE. & 4TH ST. LAME DEER, MT 59043",,Correct,ROSEBUD,,Original,804.0,1.0,yes,Active,POINT (-106.665192 45.621119),Yes,0.0,Northern Cheyenne,Northern Cheyenne Indian Reservation,,,From Original List,,,,,
805,805,LAME DEER TRADING POST,Correct,LAME DEER TRADING POST,501 CHEYENNE AVE.,Correct,501 CHEYENNE AVE.,LAME DEER,Correct,LAME DEER,MT,Correct,MT,59043,Correct,59043.0,45.622571,Correct,45.622571,-106.665948,Correct,-106.665948,"501 CHEYENNE AVE.  LAME DEER, MT 59043",Correct,"501 CHEYENNE AVE. LAME DEER, MT 59043",,Correct,ROSEBUD,,Original,805.0,,,Active,POINT (-106.665948 45.622571),Yes,0.0,Northern Cheyenne,Northern Cheyenne Indian Reservation,,,From Original List,,,,,
806,806,FEIST WATSON ENTERPRISES INC.,Correct,FEIST WATSON ENTERPRISES INC.,6681 KESTREL DR,Correct,6681 KESTREL DR,MISSOULA,Correct,MISSOULA,MT,Correct,MT,59808,Correct,59808.0,46.927875,Correct,46.927875,-114.090849,Correct,-114.090849,"6681 KESTREL DR  MISSOULA, MT 59808",Correct,"6681 KESTREL DR MISSOULA, MT 59808",,Correct,MISSOULA,,Original,806.0,,,Active,POINT (-114.090849 46.927875),No,5.262751343753334,,,Flathead,Flathead Reservation,From Original List,,,,,
807,807,SMOKERS EXPRESS LLC,Correct,SMOKERS EXPRESS LLC,1108 W CENTRAL AVE,Correct,1108 W CENTRAL AVE,MISSOULA,Correct,MISSOULA,MT,Correct,MT,59801,Correct,59801.0,46.850704,Correct,46.850704,-114.015354,Correct,-114.015354,"1108 W CENTRAL AVE  MISSOULA, MT 59801",Correct,"1108 W CENTRAL AVE MISSOULA, MT 59801",,Correct,MISSOULA,,Original,807.0,1.0,yes,Active,POINT (-114.015354 46.850704),No,10.319436583042188,,,Flathead,Flathead Reservation,From Original List,,,,,
808,808,THE CIGARETTE GIRLS BURLESQUE LLLP,Can't Validate,THE CIGARETTE GIRLS BURLESQUE LLLP,3494 KEHRWALD DR,Can't Validate,3494 KEHRWALD DR,MISSOULA,Can't Validate,MISSOULA,MT,Can't Validate,MT,59804,Can't Validate,59804.0,46.869278,Can't Validate,46.869278,-114.064663,Can't Validate,-114.064663,"3494 KEHRWALD DR  MISSOULA, MT 59804",Can't Validate,"3494 KEHRWALD DR MISSOULA, MT 59804",,Can't Validate,MISSOULA,,Original,808.0,,,Can't Validate,POINT (-114.064663 46.869278),No,8.792530845822265,,,Flathead,Flathead Reservation,From Original List,,,,,
809,809,YELLOWSTONE PIPE LINE,Correct,YELLOWSTONE PIPE LINE,3330 RASER DR,Correct,3330 RASER DR,MISSOULA,Correct,MISSOULA,MT,Correct,MT,59808,Correct,59808.0,46.895408,Correct,46.895408,-114.028706,Correct,-114.028706,"3330 RASER DR  MISSOULA, MT 59808",Correct,"3330 RASER DR MISSOULA, MT 59808",,Correct,MISSOULA,,Original,809.0,,,Active,POINT (-114.028706 46.895408),No,7.28737927071425,,,Flathead,Flathead Reservation,From Original List,,,,,
1938,1938,,,POPLAR PHARMACY,213 H ST E,Correct,213 H ST E,POPLAR,Correct,POPLAR,MT,Correct,MT,59255,Correct,59255.0,,,48.1149826,,,-105.1923879,,,"213 H St E, Poplar, MT, 59255",,Correct,ROOSEVELT,,,,,,Active,POINT (-105.1923879 48.1149826),Yes,,Fort Peck,Fort Peck Indian Reservation,,,New Retailer,Independent,,,N,2955641.0
1986,1986,,,RED PAINT CREEK,3527 MONUMENT PARK RD,Correct,3527 MONUMENT PARK RD,DODSON,Correct,DODSON,MT,Correct,MT,59524,Correct,59524.0,,,48.0277543,,,-108.5317791,,,"3527 Monument Park Rd, Dodson, MT, 59524",,Correct,BLAINE,,,,,,Active,POINT (-108.5317791 48.0277543),Yes,,Fort Belknap,Fort Belknap Reservation,,,New Retailer,Independent,,,N,7589316.0
1995,1995,,,WOLF POINT IDE PHARMACY,1115 4TH AVE N,Correct,1115 4TH AVE N,WOLF POINT,Correct,WOLF POINT,MT,Correct,MT,59201,Correct,59201.0,,,48.101112,,,-105.64281000000001,,,"1115 4th Ave N, Wolf Point, MT, 59201",,Correct,ROOSEVELT,,,,,,Active,POINT (-105.64281 48.101112),Yes,,Fort Peck,Fort Peck Indian Reservation,,,New Retailer,Independent,,,N,2709919.0
2019,2019,,,PARK CAFE & GROCERY,3147 US HWY 89 W,Correct,3147 US HWY 89 W,BROWNING,Correct,BROWNING,MT,Correct,MT,59417,Correct,59417.0,,,48.74304710000001,,,-113.42976159999999,,,"3147 Us Hwy 89 W, Browning, MT, 59417",,Correct,GLACIER,,,,,,Active,POINT (-113.4297616 48.74304710000001),Yes,,Blackfeet,Blackfeet Indian Reservation,,,New Retailer,Independent,,,N,7329870.0
2049,2049,,,MAIN STREET GROCERY,217 W 2ND AVE,Correct,217 W 2ND AVE,POPLAR,Correct,POPLAR,MT,Correct,MT,59255,Correct,59255.0,,,48.111427,,,-105.19701,,,"217 W 2nd Ave, Poplar, MT, 59255",,Correct,ROOSEVELT,,,,,,Active,POINT (-105.19701 48.111427),Yes,,Fort Peck,Fort Peck Indian Reservation,,,New Retailer,Independent,,,N,273021.0
2090,2090,,,LAME DEER TRADING IGA,501 CHEYENNE AVE,Correct,501 CHEYENNE AVE,LAME DEER,Correct,LAME DEER,MT,Correct,MT,59043,Correct,59043.0,,,45.617653000000004,,,-106.66231499999999,,,"501 Cheyenne Ave, Lame Deer, MT, 59043",,Correct,ROSEBUD,,,,,,Active,POINT (-106.662315 45.617653),Yes,,Northern Cheyenne,Northern Cheyenne Indian Reservation,,,New Retailer,Independent,,,Y,80931.0
2098,2098,,,FARMERS UNION OIL,OLD HWY 87,Correct,OLD HWY 87,LODGE GRASS,Correct,LODGE GRASS,MT,Correct,MT,59050,Correct,59050.0,,,45.3145904,,,-107.3607956,,,"Old Hwy 87, Lodge Grass, MT, 59050",,Correct,BIG HORN,,,,,,Active,POINT (-107.3607956 45.3145904),Yes,,Crow,Crow Reservation,,,New Retailer,Independent,,,N,695788.0
2110,2110,,,FARMERS UNION OIL,211 W F ST,Correct,211 W F ST,POPLAR,Correct,POPLAR,MT,Correct,MT,59255,Correct,59255.0,,,48.112938,,,-105.197395,,,"211 W F St, Poplar, MT, 59255",,Correct,ROOSEVELT,,,,,,Active,POINT (-105.197395 48.112938),Yes,,Fort Peck,Fort Peck Indian Reservation,,,New Retailer,Independent,,,N,3770304.0
2118,2118,,,ST MARY SUPERMARKET,SUN RD & US HWY 89,Correct,SUN RD & US HWY 89,BROWNING,Correct,BROWNING,MT,Correct,MT,59417,Correct,59417.0,,,48.7459045,,,-113.4292865,,,"Sun Rd & Us Hwy 89, Browning, MT, 59417",,Correct,GLACIER,,,,,,Active,POINT (-113.4292865 48.7459045),Yes,,Blackfeet,Blackfeet Indian Reservation,,,New Retailer,Independent,,,N,81228.0
2127,2127,,,GLACIER FAMILY FOODS,601 SE BOUNDARY ST,Correct,601 SE BOUNDARY ST,BROWNING,Correct,BROWNING,MT,Correct,MT,59417,Correct,59417.0,,,48.5498,,,-113.02061,,,"601 SE Boundary St, Browning, MT, 59417",,Correct,GLACIER,,,,,,Active,POINT (-113.02061 48.5498),Yes,,Blackfeet,Blackfeet Indian Reservation,,,New Retailer,Independent,,,N,7000345.0
2182,2182,,,GLACIER WAY CONVENIENCE STORE,330 CENTRAL AVE W,Correct,330 CENTRAL AVE W,BROWNING,Correct,BROWNING,MT,Correct,MT,59417,Correct,59417.0,,,48.5557628,,,-113.0201297,,,"330 Central Ave W, Browning, MT, 59417",,Correct,GLACIER,,,,,,Active,POINT (-113.0201297 48.5557628),Yes,,Blackfeet,Blackfeet Indian Reservation,,,New Retailer,Independent,,,N,672227.0
2188,2188,,,CHEYENNE DEPOT MARKET,CHEYENNE AVE & 4TH ST,Correct,CHEYENNE AVE & 4TH ST,LAME DEER,Correct,LAME DEER,MT,Correct,MT,59043,Correct,59043.0,,,45.6201818,,,-106.6646456,,,"Cheyenne Ave & 4th St, Lame Deer, MT, 59043",,Correct,ROSEBUD,,,,,,Active,POINT (-106.6646456 45.6201818),Yes,,Northern Cheyenne,Northern Cheyenne Indian Reservation,,,New Retailer,Independent,,,N,448261.0
2189,2189,,,CENEX,300 US HIGHWAY 2,Correct,300 US HIGHWAY 2,WOLF POINT,Correct,WOLF POINT,MT,Correct,MT,59201,Correct,59201.0,,,48.0947604,,,-105.6414438,,,"300 Us Highway 2, Wolf Point, MT, 59201",,Correct,ROOSEVELT,,,,,,Active,POINT (-105.6414438 48.0947604),Yes,,Fort Peck,Fort Peck Indian Reservation,,,New Retailer,Independent,,,Y,7032461.0
2209,2209,,,HEIDI SNACK SHOP ESPRESSO STAND,1 RTE 3,Correct,1 RTE 3,BROWNING,Correct,BROWNING,MT,Correct,MT,59417,Correct,59417.0,,,48.8566279,,,-113.43580700000001,,,"1 Rte 3, Browning, MT, 59417",,Correct,GLACIER,,,,,,Active,POINT (-113.435807 48.8566279),Yes,,Blackfeet,Blackfeet Indian Reservation,,,New Retailer,Independent,,,N,7333146.0
2210,2210,,,BROWNIES GROCERY,1020 US HWY 49,Correct,1020 US HWY 49,EAST GLACIER PARK,Correct,EAST GLACIER PARK,MT,Correct,MT,59434,Correct,59434.0,,,48.4485486,,,-113.22498,,,"1020 US Hwy 49, East Glacier Park, MT, 59434",,Correct,GLACIER,,,,,,Active,POINT (-113.22498 48.4485486),Yes,,Blackfeet,Blackfeet Indian Reservation,,,New Retailer,Independent,,,N,752957.0
2213,2213,,,SAINT MARY GAS & GROCERY,72 HWY 89,Correct,72 HWY 89,BROWNING,Correct,BROWNING,MT,Correct,MT,59417,Correct,59417.0,,,48.5559686,,,-113.0342139,,,"72 Hwy 89, Browning, MT, 59417",,Correct,GLACIER,,,,,,Active,POINT (-113.0342139 48.5559686),Yes,,Blackfeet,Blackfeet Indian Reservation,,,New Retailer,Independent,,,N,3949069.0
2214,2214,,,CENEX CONVENIENCE STORE,603 US HIGHWAY 2 W,Correct,603 US HIGHWAY 2 W,WOLF POINT,Correct,WOLF POINT,MT,Correct,MT,59201,Correct,59201.0,,,48.091509,,,-105.64720279999999,,,"603 Us Highway 2 W, Wolf Point, MT, 59201",,Correct,ROOSEVELT,,,,,,Active,POINT (-105.6472028 48.091509),Yes,,Fort Peck,Fort Peck Indian Reservation,,,New Retailer,Independent,,,Y,1514573.0
2216,2216,,,CROW NATION EXPRESS CENTER,42 HOSPITAL LOOP,Correct,42 HOSPITAL LOOP,CROW AGENCY,Correct,CROW AGENCY,MT,Correct,MT,59022,Correct,59022.0,,,45.60177210000001,,,-107.46217299999999,,,"42 Hospital Loop, Crow Agency, MT, 59022",,Correct,BIG HORN,,,,,,Active,POINT (-107.462173 45.60177210000001),Yes,,Crow,Crow Reservation,,,New Retailer,Independent,,,N,7448177.0
2230,2230,,,WESTERN PUMP,HWY 212,Correct,HWY 212,ASHLAND,Correct,ASHLAND,MT,Correct,MT,59003,Correct,59003.0,,,45.599451200000004,,,-106.3173743,,,"Hwy 212, Ashland, MT, 59003",,Correct,ROSEBUD,,,,,,Active,POINT (-106.3173743 45.5994512),Yes,,Northern Cheyenne,Northern Cheyenne Indian Reservation,,,New Retailer,Independent,,,N,1829648.0
2232,2232,,,CROW NATION EXPRESS CENTER,HWY 212 & I 90,Correct,HWY 212 & I 90,CROW AGENCY,Correct,CROW AGENCY,MT,Correct,MT,59022,Correct,59022.0,,,45.579281200000004,,,-107.4471959,,,"Hwy 212 & I 90, Crow Agency, MT, 59022",,Correct,BIG HORN,,,,,,Active,POINT (-107.4471959 45.5792812),Yes,,Crow,Crow Reservation,,,New Retailer,Independent,,,N,684558.0
2250,2250,,,GIT N GO CONV STORE,132 US HIGHWAY 2 E,Correct,132 US HIGHWAY 2 E,WOLF POINT,Correct,WOLF POINT,MT,Correct,MT,59201,Correct,59201.0,,,48.0957259,,,-105.63849180000001,,,"132 Us Highway 2 E, Wolf Point, MT, 59201",,Correct,ROOSEVELT,,,,,,Active,POINT (-105.6384918 48.0957259),Yes,,Fort Peck,Fort Peck Indian Reservation,,,New Retailer,Independent,,,N,743922.0
2258,2258,,,GLACIER WAY STORE,99 HWY 464,Correct,99 HWY 464,BROWNING,Correct,BROWNING,MT,Correct,MT,59417,Correct,59417.0,,,48.573822,,,-113.01276999999999,,,"99 Hwy 464, Browning, MT, 59417",,Correct,GLACIER,,,,,,Active,POINT (-113.01277 48.573822),Yes,,Blackfeet,Blackfeet Indian Reservation,,,New Retailer,Independent,,,N,925488.0
2259,2259,,,BEAR TRACK TRAVEL CENTER,20958 US HWY 2,Correct,20958 US HWY 2,EAST GLACIER PARK,Correct,EAST GLACIER PARK,MT,Correct,MT,59434,Correct,59434.0,,,48.4443806,,,-113.21711,,,"20958 US Hwy 2, East Glacier Park, MT, 59434",,Correct,GLACIER,,,,,,Active,POINT (-113.21711 48.4443806),Yes,,Blackfeet,Blackfeet Indian Reservation,,,New Retailer,Independent,,,N,1877740.0
2386,2386,,,RESERVE BAR,123 RESERVE HWY E,123  HWY E,123  HWY E,RESERVE,Correct,RESERVE,MT,Correct,MT,59258,Correct,59258.0,,,48.606156299999995,,,-104.4639011,,,"123 Reserve Hwy E, Reserve, MT, 59258",,Correct,SHERIDAN,,,,,,Active,POINT (-104.4639011 48.6061563),Yes,,Fort Peck,Fort Peck Indian Reservation,,,New Retailer,Independent,,,N,7015465.0
2394,2394,,,HORSESHOE BAR,57777 HWY 2,Correct,57777 HWY 2,FRAZER,Correct,FRAZER,MT,Correct,MT,59225,Correct,59225.0,,,48.062394,,,-105.885825,,,"57777 Hwy 2, Frazer, MT, 59225",,Correct,VALLEY,,,,,,Active,POINT (-105.885825 48.062394),Yes,,Fort Peck,Fort Peck Indian Reservation,,,New Retailer,Independent,,,N,2135120.0
2401,2401,,,KJS BAR,701 GRANDMA B BLVD,Correct,701 GRANDMA B BLVD,BROCKTON,Correct,BROCKTON,MT,Correct,MT,59213,Correct,59213.0,,,48.149868,,,-104.91808,,,"701 Grandma B Blvd, Brockton, MT, 59213",,Correct,ROOSEVELT,,,,,,Active,POINT (-104.91808 48.149868),Yes,,Fort Peck,Fort Peck Indian Reservation,,,New Retailer,Independent,,,N,7589035.0
2405,2405,,,WATERHOLE,100 3RD AVE S,Correct,100 3RD AVE S,WOLF POINT,Correct,WOLF POINT,MT,Correct,MT,59201,Correct,59201.0,,,48.0861489,,,-105.6407417,,,"100 3rd Ave S, Wolf Point, MT, 59201",,Correct,ROOSEVELT,,,,,,Active,POINT (-105.6407417 48.0861489),Yes,,Fort Peck,Fort Peck Indian Reservation,,,New Retailer,Independent,,,N,5594305.0
2427,2427,,,ICKS PLACE,107 N PIEGAN ST,Correct,107 N PIEGAN ST,BROWNING,Correct,BROWNING,MT,Correct,MT,59417,Correct,59417.0,,,48.5563908,,,-113.0138243,,,"107 N Piegan St, Browning, MT, 59417",,Correct,GLACIER,,,,,,Active,POINT (-113.0138243 48.5563908),Yes,,Blackfeet,Blackfeet Indian Reservation,,,New Retailer,Independent,,,N,5567886.0
2442,2442,,,SHOPKO HOMETOWN,600 US HIGHWAY 2 E,Correct,600 US HIGHWAY 2 E,WOLF POINT,Correct,WOLF POINT,MT,Correct,MT,59201,Correct,59201.0,,,48.0999433,,,-105.6296233,,,"600 Us Highway 2 E, Wolf Point, MT, 59201",,Correct,ROOSEVELT,,,,,,Active,POINT (-105.6296233 48.0999433),Yes,,Fort Peck,Fort Peck Indian Reservation,,,New Retailer,ShopKo Stores Inc,Green Bay,WI,N,7307421.0
2444,2444,,,WILEYS BAR,411 CENTRAL AVE,Correct,411 CENTRAL AVE,RESERVE,Correct,RESERVE,MT,Correct,MT,59258,Correct,59258.0,,,48.6055555,,,-104.46114920000001,,,"411 Central Ave, Reserve, MT, 59258",,Correct,SHERIDAN,,,,,,Active,POINT (-104.4611492 48.6055555),Yes,,Fort Peck,Fort Peck Indian Reservation,,,New Retailer,Independent,,,N,5583288.0
2512,2512,,,AMERICAN LEGION,71 GOLF COURSE RD N,Correct,71 GOLF COURSE RD N,CUT BANK,Correct,CUT BANK,MT,Correct,MT,59427,Correct,59427.0,,,48.62339,,,-112.35165400000001,,,"71 Golf Course Rd N, Cut Bank, MT, 59427",,Correct,GLACIER,,,,,,Active,POINT (-112.351654 48.62339),Yes,,Blackfeet,Blackfeet Indian Reservation,,,New Retailer,Independent,,,Y,7286670.0
2525,2525,,,ELKS LODGE,304 MAIN ST,Correct,304 MAIN ST,WOLF POINT,Correct,WOLF POINT,MT,Correct,MT,59201,Correct,59201.0,,,48.090252,,,-105.64097,,,"304 Main St, Wolf Point, MT, 59201",,Correct,ROOSEVELT,,,,,,Active,POINT (-105.64097 48.090252),Yes,,Fort Peck,Fort Peck Indian Reservation,,,New Retailer,Independent,,,Y,5561621.0
2531,2531,,,AMERICAN LEGION,107 A ST,Correct,107 A ST,POPLAR,Correct,POPLAR,MT,Correct,MT,59255,Correct,59255.0,,,48.1080584,,,-105.19671149999999,,,"107 A St, Poplar, MT, 59255",,Correct,ROOSEVELT,,,,,,Active,POINT (-105.1967115 48.1080584),Yes,,Fort Peck,Fort Peck Indian Reservation,,,New Retailer,Independent,,,Y,5548176.0
2541,2541,,,STATE LINE CLUB,2 US HIGHWAY 2,Correct,2 US HIGHWAY 2,BAINVILLE,Correct,BAINVILLE,MT,Correct,MT,59212,Correct,59212.0,,,48.137356,,,-104.04523,,,"2 Us Highway 2, Bainville, MT, 59212",,Correct,ROOSEVELT,,,,,,Active,POINT (-104.04523 48.137356),Yes,,Turtle Mountain,Turtle Mountain Off-Reservation Trust Land,,,New Retailer,Independent,,,N,5588269.0
2556,2556,,,CATTLEMENS CUT,6046 HIGHWAY 13,Correct,6046 HIGHWAY 13,WOLF POINT,Correct,WOLF POINT,MT,Correct,MT,59201,Correct,59201.0,,,48.121466,,,-105.50678149999999,,,"6046 Highway 13, Wolf Point, MT, 59201",,Correct,ROOSEVELT,,,,,,Active,POINT (-105.5067815 48.121466),Yes,,Fort Peck,Fort Peck Indian Reservation,,,New Retailer,Independent,,,N,7521024.0
2566,2566,,,ST MARYS GLACIER KOA,106 W SHORE RD,Correct,106 W SHORE RD,BROWNING,Correct,BROWNING,MT,Correct,MT,59417,Correct,59417.0,,,48.7582703,,,-113.4357597,,,"106 W Shore Rd, Browning, MT, 59417",,Correct,GLACIER,,,,,,Active,POINT (-113.4357597 48.7582703),Yes,,Blackfeet,Blackfeet Indian Reservation,,,New Retailer,Independent,,,N,3180749.0
2571,2571,,,NORTHERN LIGHTS CASINO,510 BLAINE ST,Correct,510 BLAINE ST,WOLF POINT,Correct,WOLF POINT,MT,Correct,MT,59201,Correct,59201.0,,,48.092715999999996,,,-105.64672,,,"510 Blaine St, Wolf Point, MT, 59201",,Correct,ROOSEVELT,,,,,,Active,POINT (-105.64672 48.092716),Yes,,Fort Peck,Fort Peck Indian Reservation,,,New Retailer,Independent,,,N,5581192.0
2573,2573,,,CUT BANK COUNTRY CLUB,59 GOLF COURSE RD N,Correct,59 GOLF COURSE RD N,CUT BANK,Correct,CUT BANK,MT,Correct,MT,59427,Correct,59427.0,,,48.62375,,,-112.35206000000001,,,"59 Golf Course Rd N, Cut Bank, MT, 59427",,Correct,GLACIER,,,,,,Active,POINT (-112.35206 48.62375),Yes,,Blackfeet,Blackfeet Indian Reservation,,,New Retailer,Independent,,,N,5558153.0
2592,2592,,,GLACIER PARK GOLF COURSE,1 MIDVALE LN,Correct,1 MIDVALE LN,EAST GLACIER PARK,Correct,EAST GLACIER PARK,MT,Correct,MT,59434,Correct,59434.0,,,48.44729810000001,,,-113.2216378,,,"1 Midvale Ln, East Glacier Park, MT, 59434",,Correct,GLACIER,,,,,,Active,POINT (-113.2216378 48.44729810000001),Yes,,Blackfeet,Blackfeet Indian Reservation,,,New Retailer,Independent,,,N,7406933.0
2596,2596,,,AIRPORT GOLF COURSE,HWY 25 E,Correct,HWY 25 E,WOLF POINT,Correct,WOLF POINT,MT,Correct,MT,59201,Correct,59201.0,,,48.0905248,,,-105.6408477,,,"Hwy 25 E, Wolf Point, MT, 59201",,Correct,ROOSEVELT,,,,,,Active,POINT (-105.6408477 48.0905248),Yes,,Fort Peck,Fort Peck Indian Reservation,,,New Retailer,Independent,,,N,2010348.0
2597,2597,,,COLBYS CASINO,4 US HIGHWAY 2,Correct,4 US HIGHWAY 2,BAINVILLE,Correct,BAINVILLE,MT,Correct,MT,59212,Correct,59212.0,,,48.137375,,,-104.04538000000001,,,"4 Us Highway 2, Bainville, MT, 59212",,Correct,ROOSEVELT,,,,,,Active,POINT (-104.04538 48.137375),Yes,,Turtle Mountain,Turtle Mountain Off-Reservation Trust Land,,,New Retailer,Independent,,,N,7254016.0
2622,2622,,,NORTHERN WINZ CASINO,11031 HWY 87,Correct,11031 HWY 87,BOX ELDER,Correct,BOX ELDER,MT,Correct,MT,59521,Correct,59521.0,,,48.3924119,,,-109.9227527,,,"11031 Hwy 87, Box Elder, MT, 59521",,Correct,HILL,,,,,,Active,POINT (-109.9227527 48.3924119),Yes,,Rocky Boy's,Rocky Boy's Off-Reservation Trust Land,,,New Retailer,Independent,,,N,2164535.0
2645,2645,,,MARK LANES,113 PUBLIC SQ,Correct,113 PUBLIC SQ,BROWNING,Correct,BROWNING,MT,Correct,MT,59417,Correct,59417.0,,,48.55942,,,-113.01437,,,"113 Public Sq, Browning, MT, 59417",,Correct,GLACIER,,,,,,Active,POINT (-113.01437 48.55942),Yes,,Blackfeet,Blackfeet Indian Reservation,,,New Retailer,Independent,,,N,3177416.0
2651,2651,,,MAIN STREET LIQUOR,210 MAIN ST,Correct,210 MAIN ST,HOT SPRINGS,Correct,HOT SPRINGS,MT,Correct,MT,59845,Correct,59845.0,,,47.608475,,,-114.67007,,,"210 Main St, Hot Springs, MT, 59845",,Correct,SANDERS,,,,,,Active,POINT (-114.67007 47.608475),Yes,,Flathead,Flathead Reservation,,,New Retailer,Independent,,,N,7570879.0
2661,2661,,,UNITED DRUG R & R,63802 US HIGHWAY 93,Correct,63802 US HIGHWAY 93,RONAN,Correct,RONAN,MT,Correct,MT,59864,Correct,59864.0,,,47.5199872,,,-114.09648419999999,,,"63802 Us Highway 93, Ronan, MT, 59864",,Correct,LAKE,,,,,,Active,POINT (-114.0964842 47.5199872),Yes,,Flathead,Flathead Reservation,,,New Retailer,United Drug Co-Op,Phoenix,AZ,N,671611.0
2664,2664,,,MISSION DRUG PHARMACY,110 N MAIN ST,Correct,110 N MAIN ST,SAINT IGNATIUS,Correct,SAINT IGNATIUS,MT,Correct,MT,59865,Correct,59865.0,,,47.3176651,,,-114.09680359999999,,,"110 N Main St, Saint Ignatius, MT, 59865",,Correct,LAKE,,,,,,Active,POINT (-114.0968036 47.3176651),Yes,,Flathead,Flathead Reservation,,,New Retailer,Independent,,,N,2103648.0
2668,2668,,,MONTANA AGENCY OUTLET,108 BLAINE ST,Correct,108 BLAINE ST,SAINT IGNATIUS,Correct,SAINT IGNATIUS,MT,Correct,MT,59865,Correct,59865.0,,,47.3189323,,,-114.09570169999999,,,"108 Blaine St, Saint Ignatius, MT, 59865",,Correct,LAKE,,,,,,Active,POINT (-114.0957017 47.3189323),Yes,,Flathead,Flathead Reservation,,,New Retailer,Independent,,,Y,1407857.0
2672,2672,,,PROVIDENCE LAKESHORE PHARMACY,50331 US HIGHWAY 93,Correct,50331 US HIGHWAY 93,POLSON,Correct,POLSON,MT,Correct,MT,59860,Correct,59860.0,,,47.692776,,,-114.14047,,,"50331 Us Highway 93, Polson, MT, 59860",,Correct,LAKE,,,,,,Active,POINT (-114.14047 47.692776),Yes,,Flathead,Flathead Reservation,,,New Retailer,Independent,,,N,7419585.0
2681,2681,,,FAMILY HEALTH PHARMACY,63307 US HIGHWAY 93,Correct,63307 US HIGHWAY 93,RONAN,Correct,RONAN,MT,Correct,MT,59864,Correct,59864.0,,,47.535717,,,-114.09948999999999,,,"63307 Us Highway 93, Ronan, MT, 59864",,Correct,LAKE,,,,,,Active,POINT (-114.09949 47.535717),Yes,,Flathead,Flathead Reservation,,,New Retailer,Independent,,,N,1620037.0
2683,2683,,,MONTANA AGENCY OUTLET,127 MAIN ST SW,Correct,127 MAIN ST SW,RONAN,Correct,RONAN,MT,Correct,MT,59864,Correct,59864.0,,,47.528725,,,-114.09903999999999,,,"127 Main St SW, Ronan, MT, 59864",,Correct,LAKE,,,,,,Active,POINT (-114.09904 47.528725),Yes,,Flathead,Flathead Reservation,,,New Retailer,Independent,,,Y,1000415.0
2737,2737,,,WALGREENS,40770 MT HIGHWAY 35,Correct,40770 MT HIGHWAY 35,POLSON,Correct,POLSON,MT,Correct,MT,59860,Correct,59860.0,,,47.689133,,,-114.11873,,,"40770 Mt Highway 35, Polson, MT, 59860",,Correct,LAKE,,,,,,Active,POINT (-114.11873 47.689133),Yes,,Flathead,Flathead Reservation,,,New Retailer,Walgreens Co,Deerfield,IL,N,7356640.0
2745,2745,,,MISSION MOUNTAIN NATURAL FOODS,319 MAIN ST,Correct,319 MAIN ST,POLSON,Correct,POLSON,MT,Correct,MT,59860,Correct,59860.0,,,47.69313,,,-114.16338,,,"319 Main St, Polson, MT, 59860",,Correct,LAKE,,,,,,Active,POINT (-114.16338 47.69313),Yes,,Flathead,Flathead Reservation,,,New Retailer,Independent,,,N,7016718.0
2771,2771,,,MISSION MART,63417 US HIGHWAY 93,Correct,63417 US HIGHWAY 93,RONAN,Correct,RONAN,MT,Correct,MT,59864,Correct,59864.0,,,47.535645,,,-114.09941,,,"63417 Us Highway 93, Ronan, MT, 59864",,Correct,LAKE,,,,,,Active,POINT (-114.09941 47.535645),Yes,,Flathead,Flathead Reservation,,,New Retailer,Independent,,,N,167281.0
2780,2780,,,SAFEWAY FUEL STATION,146 S SHORE RTE,Correct,146 S SHORE RTE,POLSON,Correct,POLSON,MT,Correct,MT,59860,Correct,59860.0,,,47.6874547,,,-114.12372759999998,,,"146 S Shore Rte, Polson, MT, 59860",,Correct,LAKE,,,,,,Active,POINT (-114.1237276 47.6874547),Yes,,Flathead,Flathead Reservation,,,New Retailer,Albertsons Safeway/InterMtn Conv,North Salt Lake,UT,N,2598591.0
2790,2790,,,CONOCO,20750 US HIGHWAY 93 N,Correct,20750 US HIGHWAY 93 N,MISSOULA,Correct,MISSOULA,MT,Correct,MT,59808,Correct,59808.0,,,47.07029,,,-114.065285,,,"20750 Us Highway 93 N, Missoula, MT, 59808",,Correct,MISSOULA,,,,,,Active,POINT (-114.065285 47.07029),Yes,,Flathead,Flathead Reservation,,,New Retailer,Independent,,,Y,684568.0
2792,2792,,,WALMART SUPERCENTER,36318 MEMORY LN,Correct,36318 MEMORY LN,POLSON,Correct,POLSON,MT,Correct,MT,59860,Correct,59860.0,,,47.6847076,,,-114.1211188,,,"36318 Memory Ln, Polson, MT, 59860",,Correct,LAKE,,,,,,Active,POINT (-114.1211188 47.6847076),Yes,,Flathead,Flathead Reservation,,,New Retailer,Walmart Supercenter,Bentonville,AR,N,7275589.0
2796,2796,,,SUPER 1 FOODS,50331 US HIGHWAY 93,Correct,50331 US HIGHWAY 93,POLSON,Correct,POLSON,MT,Correct,MT,59860,Correct,59860.0,,,47.692776,,,-114.14047,,,"50331 US Highway 93, Polson, MT, 59860",,Correct,LAKE,,,,,,Active,POINT (-114.14047 47.692776),Yes,,Flathead,Flathead Reservation,,,New Retailer,Moodys Market Inc,Polson,MT,Y,3889823.0
2809,2809,,,PABLO FAMILY FOODS,36106 W PABLO RD,36106 W  RD,36106 W  RD,PABLO,Correct,PABLO,MT,Correct,MT,59855,Correct,59855.0,,,47.602649799999995,,,-114.11427830000001,,,"36106 W Pablo Rd, Pablo, MT, 59855",,Correct,LAKE,,,,,,Active,POINT (-114.1142783 47.6026498),Yes,,Flathead,Flathead Reservation,,,New Retailer,Independent,,,N,250999.0
2810,2810,,,ARNIES GAS & TIRE,9 US HIGHWAY 93 S,Correct,9 US HIGHWAY 93 S,RONAN,Correct,RONAN,MT,Correct,MT,59864,Correct,59864.0,,,47.529883700000006,,,-114.0975362,,,"9 Us Highway 93 S, Ronan, MT, 59864",,Correct,LAKE,,,,,,Active,POINT (-114.0975362 47.52988370000001),Yes,,Flathead,Flathead Reservation,,,New Retailer,Independent,,,N,638127.0
2824,2824,,,RONAN HARVEST FOODS,63802 US HIGHWAY 93,Correct,63802 US HIGHWAY 93,RONAN,Correct,RONAN,MT,Correct,MT,59864,Correct,59864.0,,,47.5199872,,,-114.09648419999999,,,"63802 Us Highway 93, Ronan, MT, 59864",,Correct,LAKE,,,,,,Active,POINT (-114.0964842 47.5199872),Yes,,Flathead,Flathead Reservation,,,New Retailer,Moodys Market Inc,Polson,MT,Y,576419.0
2831,2831,,,SAFEWAY STORE,40774 MT HIGHWAY 35,Correct,40774 MT HIGHWAY 35,POLSON,Correct,POLSON,MT,Correct,MT,59860,Correct,59860.0,,,47.689133,,,-114.11873,,,"40774 Mt Highway 35, Polson, MT, 59860",,Correct,LAKE,,,,,,Active,POINT (-114.11873 47.689133),Yes,,Flathead,Flathead Reservation,,,New Retailer,Albertsons Safeway/Inter Mtn Div,North Salt Lake,UT,N,451606.0
2890,2890,,,JOES JIFFY STOP,51356 HWY 93,Correct,51356 HWY 93,PABLO,Correct,PABLO,MT,Correct,MT,59855,Correct,59855.0,,,47.592417,,,-114.1129152,,,"51356 Hwy 93, Pablo, MT, 59855",,Correct,LAKE,,,,,,Active,POINT (-114.1129152 47.592417),Yes,,Flathead,Flathead Reservation,,,New Retailer,Independent,,,N,287317.0
2896,2896,,,PIER,9 2ND AVE W,Correct,9 2ND AVE W,POLSON,Correct,POLSON,MT,Correct,MT,59860,Correct,59860.0,,,47.69441,,,-114.16326000000001,,,"9 2nd Ave W, Polson, MT, 59860",,Correct,LAKE,,,,,,Active,POINT (-114.16326 47.69441),Yes,,Flathead,Flathead Reservation,,,New Retailer,Independent,,,N,682521.0
2905,2905,,,POLSON BAY GROCERY,50451 US HIGHWAY 93,Correct,50451 US HIGHWAY 93,POLSON,Correct,POLSON,MT,Correct,MT,59860,Correct,59860.0,,,47.692776,,,-114.14028,,,"50451 Us Highway 93, Polson, MT, 59860",,Correct,LAKE,,,,,,Active,POINT (-114.14028 47.692776),Yes,,Flathead,Flathead Reservation,,,New Retailer,Independent,,,N,468960.0
2913,2913,,,CORNERSTONE CONVENIENCE,1893 MT HIGHWAY 28,Correct,1893 MT HIGHWAY 28,HOT SPRINGS,Correct,HOT SPRINGS,MT,Correct,MT,59845,Correct,59845.0,,,47.60872,,,-114.62598,,,"1893 Mt Highway 28, Hot Springs, MT, 59845",,Correct,SANDERS,,,,,,Active,POINT (-114.62598 47.60872),Yes,,Flathead,Flathead Reservation,,,New Retailer,Independent,,,N,1892994.0
2915,2915,,,MOUNTAIN WEST CO OP,63932 US HIGHWAY 93,Correct,63932 US HIGHWAY 93,RONAN,Correct,RONAN,MT,Correct,MT,59864,Correct,59864.0,,,47.51762100000001,,,-114.097776,,,"63932 Us Highway 93, Ronan, MT, 59864",,Correct,LAKE,,,,,,Active,POINT (-114.097776 47.51762100000001),Yes,,Flathead,Flathead Reservation,,,New Retailer,Independent,,,N,514413.0
2991,2991,,,TOWN PUMP,63459 US HIGHWAY 93,Correct,63459 US HIGHWAY 93,RONAN,Correct,RONAN,MT,Correct,MT,59864,Correct,59864.0,,,47.535614,,,-114.09938000000001,,,"63459 Us Highway 93, Ronan, MT, 59864",,Correct,LAKE,,,,,,Active,POINT (-114.09938 47.535614),Yes,,Flathead,Flathead Reservation,,,New Retailer,Town Pump Food St/L Goss,Butte,MT,N,7247801.0
3007,3007,,,DYNO MART,62945 US HIGHWAY 93,Correct,62945 US HIGHWAY 93,RONAN,Correct,RONAN,MT,Correct,MT,59864,Correct,59864.0,,,47.53595,,,-114.09976,,,"62945 Us Highway 93, Ronan, MT, 59864",,Correct,LAKE,,,,,,Active,POINT (-114.09976 47.53595),Yes,,Flathead,Flathead Reservation,,,New Retailer,Independent,,,N,1529490.0
3013,3013,,,TOWN PUMP,50667 US HIGHWAY 93,Correct,50667 US HIGHWAY 93,POLSON,Correct,POLSON,MT,Correct,MT,59860,Correct,59860.0,,,47.693104,,,-114.13083,,,"50667 Us Highway 93, Polson, MT, 59860",,Correct,LAKE,,,,,,Active,POINT (-114.13083 47.693104),Yes,,Flathead,Flathead Reservation,,,New Retailer,Town Pump Food St/L Goss,Butte,MT,N,162231.0
3103,3103,,,VALLEY CLUB,407 3RD AVE NW,Correct,407 3RD AVE NW,RONAN,Correct,RONAN,MT,Correct,MT,59864,Correct,59864.0,,,47.53349,,,-114.10236,,,"407 3rd Ave NW, Ronan, MT, 59864",,Correct,LAKE,,,,,,Active,POINT (-114.10236 47.53349),Yes,,Flathead,Flathead Reservation,,,New Retailer,Independent,,,N,5592579.0
3117,3117,,,WILLARDS,325 MAIN ST SW,Correct,325 MAIN ST SW,RONAN,Correct,RONAN,MT,Correct,MT,59864,Correct,59864.0,,,47.528729999999996,,,-114.10211000000001,,,"325 Main St SW, Ronan, MT, 59864",,Correct,LAKE,,,,,,Active,POINT (-114.10211 47.52873),Yes,,Flathead,Flathead Reservation,,,New Retailer,Independent,,,N,5595041.0
3120,3120,,,MONTANA BAR,201 MAIN ST,Correct,201 MAIN ST,HOT SPRINGS,Correct,HOT SPRINGS,MT,Correct,MT,59845,Correct,59845.0,,,47.608463,,,-114.66994,,,"201 Main St, Hot Springs, MT, 59845",,Correct,SANDERS,,,,,,Active,POINT (-114.66994 47.608463),Yes,,Flathead,Flathead Reservation,,,New Retailer,Independent,,,N,5575678.0
3123,3123,,,FORTY FOUR BAR,73124 US HIGHWAY 93,Correct,73124 US HIGHWAY 93,SAINT IGNATIUS,Correct,SAINT IGNATIUS,MT,Correct,MT,59865,Correct,59865.0,,,47.3850645,,,-114.09631,,,"73124 Us Highway 93, Saint Ignatius, MT, 59865",,Correct,LAKE,,,,,,Active,POINT (-114.09631 47.3850645),Yes,,Flathead,Flathead Reservation,,,New Retailer,Independent,,,N,5563247.0
3139,3139,,,TAILGATE BAR & GRILL,409 E 3RD AVE,Correct,409 E 3RD AVE,PABLO,Correct,PABLO,MT,Correct,MT,59855,Correct,59855.0,,,47.599983,,,-114.119156,,,"409 E 3rd Ave, Pablo, MT, 59855",,Correct,LAKE,,,,,,Active,POINT (-114.119156 47.599983),Yes,,Flathead,Flathead Reservation,,,New Retailer,Independent,,,N,5579017.0
3142,3142,,,STOCKMAN BAR & CAFE,92580 US HIGHWAY 93,Correct,92580 US HIGHWAY 93,ARLEE,Correct,ARLEE,MT,Correct,MT,59821,Correct,59821.0,,,47.161156299999995,,,-114.08348490000002,,,"92580 Us Highway 93, Arlee, MT, 59821",,Correct,LAKE,,,,,,Active,POINT (-114.0834849 47.1611563),Yes,,Flathead,Flathead Reservation,,,New Retailer,Independent,,,N,7007543.0
3144,3144,,,NEW CLUB BAR,28 MAIN ST SW,Correct,28 MAIN ST SW,RONAN,Correct,RONAN,MT,Correct,MT,59864,Correct,59864.0,,,47.528748,,,-114.09754,,,"28 Main St SW, Ronan, MT, 59864",,Correct,LAKE,,,,,,Active,POINT (-114.09754 47.528748),Yes,,Flathead,Flathead Reservation,,,New Retailer,Independent,,,N,5577097.0
3152,3152,,,CHEERS ETC,504 3RD AVE E,Correct,504 3RD AVE E,PABLO,Correct,PABLO,MT,Correct,MT,59855,Correct,59855.0,,,47.601079999999996,,,-114.11913999999999,,,"504 3rd Ave E, Pablo, MT, 59855",,Correct,LAKE,,,,,,Active,POINT (-114.11914 47.60108),Yes,,Flathead,Flathead Reservation,,,New Retailer,Independent,,,N,5555221.0
3157,3157,,,FOUR STAR BAR,26756 US HIGHWAY 93,Correct,26756 US HIGHWAY 93,RAVALLI,Correct,RAVALLI,MT,Correct,MT,59863,Correct,59863.0,,,47.27271,,,-114.17831399999999,,,"26756 Us Highway 93, Ravalli, MT, 59863",,Correct,LAKE,,,,,,Active,POINT (-114.178314 47.27271),Yes,,Flathead,Flathead Reservation,,,New Retailer,Independent,,,N,5563329.0
3158,3158,,,SOUTH SHORE LOUNGE,109 ANCHOR WAY,Correct,109 ANCHOR WAY,POLSON,Correct,POLSON,MT,Correct,MT,59860,Correct,59860.0,,,47.68996679999999,,,-114.12571729999999,,,"109 Anchor Way, Polson, MT, 59860",,Correct,LAKE,,,,,,Active,POINT (-114.1257173 47.68996679999999),Yes,,Flathead,Flathead Reservation,,,New Retailer,Independent,,,N,7101592.0
3165,3165,,,BIG RIVER CANTINA,303 A ST,Correct,303 A ST,DIXON,Correct,DIXON,MT,Correct,MT,59831,Correct,59831.0,,,47.316765000000004,,,-114.31746000000001,,,"303 A St, Dixon, MT, 59831",,Correct,SANDERS,,,,,,Active,POINT (-114.31746 47.316765),Yes,,Flathead,Flathead Reservation,,,New Retailer,Independent,,,N,7238314.0
3169,3169,,,THE LAKE BAR,49494 US HIGHWAY 93,Correct,49494 US HIGHWAY 93,POLSON,Correct,POLSON,MT,Correct,MT,59860,Correct,59860.0,,,47.69442,,,-114.16288999999999,,,"49494 Us Highway 93, Polson, MT, 59860",,Correct,LAKE,,,,,,Active,POINT (-114.16289 47.69442),Yes,,Flathead,Flathead Reservation,,,New Retailer,Independent,,,N,7320110.0
3172,3172,,,SILVER DOLLAR BAR & GRILL,100 1ST AVE,Correct,100 1ST AVE,SAINT IGNATIUS,Correct,SAINT IGNATIUS,MT,Correct,MT,59865,Correct,59865.0,,,47.3188998,,,-114.0946774,,,"100 1st Ave, Saint Ignatius, MT, 59865",,Correct,LAKE,,,,,,Active,POINT (-114.0946774 47.3188998),Yes,,Flathead,Flathead Reservation,,,New Retailer,Independent,,,N,5586606.0
3173,3173,,,LAKE BAR & CASINO,9 2ND AVE E,Correct,9 2ND AVE E,POLSON,Correct,POLSON,MT,Correct,MT,59860,Correct,59860.0,,,47.69441,,,-114.16326000000001,,,"9 2nd Ave E, Polson, MT, 59860",,Correct,LAKE,,,,,,Active,POINT (-114.16326 47.69441),Yes,,Flathead,Flathead Reservation,,,New Retailer,Independent,,,N,5559690.0
3176,3176,,,SECOND CHANCE SALOON,125 MAIN ST SW,Correct,125 MAIN ST SW,RONAN,Correct,RONAN,MT,Correct,MT,59864,Correct,59864.0,,,47.528725,,,-114.099014,,,"125 Main St SW, Ronan, MT, 59864",,Correct,LAKE,,,,,,Active,POINT (-114.099014 47.528725),Yes,,Flathead,Flathead Reservation,,,New Retailer,Independent,,,N,5585790.0
3184,3184,,,FERGIES BAR,213 MAIN ST,Correct,213 MAIN ST,HOT SPRINGS,Correct,HOT SPRINGS,MT,Correct,MT,59845,Correct,59845.0,,,47.608463,,,-114.67008999999999,,,"213 Main St, Hot Springs, MT, 59845",,Correct,SANDERS,,,,,,Active,POINT (-114.67009 47.608463),Yes,,Flathead,Flathead Reservation,,,New Retailer,Independent,,,N,5580572.0
3187,3187,,,ELKS LODGE,512 MAIN ST,Correct,512 MAIN ST,POLSON,Correct,POLSON,MT,Correct,MT,59860,Correct,59860.0,,,47.691179999999996,,,-114.16338,,,"512 Main St, Polson, MT, 59860",,Correct,LAKE,,,,,,Active,POINT (-114.16338 47.69118),Yes,,Flathead,Flathead Reservation,,,New Retailer,Independent,,,Y,5561640.0
3197,3197,,,BRANDING IRON LOUNGE,56721 MT HIGHWAY 212,Correct,56721 MT HIGHWAY 212,CHARLO,Correct,CHARLO,MT,Correct,MT,59824,Correct,59824.0,,,47.43622,,,-114.1723,,,"56721 Mt Highway 212, Charlo, MT, 59824",,Correct,LAKE,,,,,,Active,POINT (-114.1723 47.43622),Yes,,Flathead,Flathead Reservation,,,New Retailer,Independent,,,N,5552329.0
3206,3206,,,VETERANS OF FOREIGN WARS,423 MAIN ST,Correct,423 MAIN ST,POLSON,Correct,POLSON,MT,Correct,MT,59860,Correct,59860.0,,,47.69204000000001,,,-114.163376,,,"423 Main St, Polson, MT, 59860",,Correct,LAKE,,,,,,Active,POINT (-114.163376 47.69204000000001),Yes,,Flathead,Flathead Reservation,,,New Retailer,Independent,,,Y,5593107.0
3213,3213,,,IDLE SPUR,312 A ST,Correct,312 A ST,DAYTON,Correct,DAYTON,MT,Correct,MT,59914,Correct,59914.0,,,47.8663843,,,-114.27464199999999,,,"312 A St, Dayton, MT, 59914",,Correct,LAKE,,,,,,Active,POINT (-114.274642 47.8663843),Yes,,Flathead,Flathead Reservation,,,New Retailer,Independent,,,N,5567919.0
3222,3222,,,SWANEES BAR & GRILL,820 SHORELINE DR,Correct,820 SHORELINE DR,POLSON,Correct,POLSON,MT,Correct,MT,59860,Correct,59860.0,,,47.7027,,,-114.18188500000001,,,"820 Shoreline Dr, Polson, MT, 59860",,Correct,LAKE,,,,,,Active,POINT (-114.181885 47.7027),Yes,,Flathead,Flathead Reservation,,,New Retailer,Independent,,,N,5559024.0
3255,3255,,,PIGASUS BAR & CASINO,92637 HWY 93,Correct,92637 HWY 93,ARLEE,Correct,ARLEE,MT,Correct,MT,59821,Correct,59821.0,,,47.160379999999996,,,-114.08312,,,"92637 Hwy 93, Arlee, MT, 59821",,Correct,LAKE,,,,,,Active,POINT (-114.08312 47.16038),Yes,,Flathead,Flathead Reservation,,,New Retailer,Independent,,,N,2200409.0
3271,3271,,,LUCKY STRIKE LANES,412 MAIN ST SE,Correct,412 MAIN ST SE,RONAN,Correct,RONAN,MT,Correct,MT,59864,Correct,59864.0,,,47.528744,,,-114.09156999999999,,,"412 Main St SE, Ronan, MT, 59864",,Correct,LAKE,,,,,,Active,POINT (-114.09157 47.528744),Yes,,Flathead,Flathead Reservation,,,New Retailer,Independent,,,N,5573053.0
3273,3273,,,MISSION MOUNTAIN GOLF COURSE,640 STAGECOACH TRL,Correct,640 STAGECOACH TRL,RONAN,Correct,RONAN,MT,Correct,MT,59864,Correct,59864.0,,,47.534195000000004,,,-114.15178,,,"640 Stagecoach Trl, Ronan, MT, 59864",,Correct,LAKE,,,,,,Active,POINT (-114.15178 47.534195),Yes,,Flathead,Flathead Reservation,,,New Retailer,Independent,,,N,5575470.0
3284,3284,,,POLSON BAY GOLF COURSE,111 BAYVIEW DR,Correct,111 BAYVIEW DR,POLSON,Correct,POLSON,MT,Correct,MT,59860,Correct,59860.0,,,47.692825,,,-114.12799,,,"111 Bayview Dr, Polson, MT, 59860",,Correct,LAKE,,,,,,Active,POINT (-114.12799 47.692825),Yes,,Flathead,Flathead Reservation,,,New Retailer,Independent,,,N,1904891.0
3286,3286,,,SPORTSPAGE BOWL CO,101 HERITAGE LN,Correct,101 HERITAGE LN,POLSON,Correct,POLSON,MT,Correct,MT,59860,Correct,59860.0,,,47.686802,,,-114.12033999999998,,,"101 Heritage Ln, Polson, MT, 59860",,Correct,LAKE,,,,,,Active,POINT (-114.12034 47.686802),Yes,,Flathead,Flathead Reservation,,,New Retailer,Independent,,,N,5587831.0
3336,3336,,,THE MARINA AT BIG ARM,509 A ST,Correct,509 A ST,BIG ARM,Correct,BIG ARM,MT,Correct,MT,59910,Correct,59910.0,,,47.8011469,,,-114.28640159999998,,,"509 A St, Big Arm, MT, 59910",,Correct,LAKE,,,,,,Active,POINT (-114.2864016 47.8011469),Yes,,Flathead,Flathead Reservation,,,New Retailer,Independent,,,N,7414671.0
