Unnamed: 0,IMPAQ_ID,DBA Name,DBA Name_changes,DBA Name_update,Address Line 1,Address Line 1_changes,Address Line 1_update,City,City_changes,City_update,State,State_changes,State_update,Zip,Zip_changes,Zip_update,Latitude,Latitude_changes,Latitude_update,Longitude,Longitude_changes,Longitude_update,Full Address,Full Address_changes,Full Address_update,County,County_changes,County_update,Address Line 2,matchsource,est_id,found_pic,Manual Result,biz_status,Coordinates,On Tribe Land,Miles to Nearest Tribe,Assoc Tribe,Assoc Res,Nearest Tribe,Nearest Res,ori_flg,Owner Name,Owner City,Owner State,Non-Corporate Owned,Niel_id,SoS_record,entity,agent_name,agent_address,agent_city,agent_state,agent_zip
881,881,PUEBLO DE COCHITI CONVENIENCE STOR,Correct,PUEBLO DE COCHITI CONVENIENCE STOR,1405 COCHITI HWY,Correct,1405 COCHITI HWY,COCHITI LAKE,Correct,COCHITI LAKE,NM,Correct,NM,87043,87083,87083.0,35.64788096,35.6476811,35.6476811,-106.3311657,-106.33106509999999,-106.33106509999999,"1405 COCHITI HWY  COCHITI LAKE, NM 87043","1405 Cochiti Hwy, Cochiti Lake, NM 87083, USA","1405 Cochiti Hwy, Cochiti Lake, NM 87083, USA",SANDOVAL,Correct,SANDOVAL,,Original,881.0,,,Active,POINT (-106.3310651 35.6476811),Yes,0.0,Cochiti,Pueblo de Cochiti,,,From Original List,,,,,,,,,,,,
882,882,NAVAJO LAKE MARINA,Correct,NAVAJO LAKE MARINA,1448 HWY 511 HBU#6,#42 CR 4110,#42 CR 4110,NAVAJO DAM,Correct,NAVAJO DAM,NM,Correct,NM,87419,Correct,87419.0,36.80749569,36.8190683,36.8190683,-107.6103057,-107.61409350000001,-107.61409350000001,"1448 HWY 511 HBU#6  NAVAJO DAM, NM 87419","#42 CR 4110, Navajo Dam, NM 87419, USA","#42 CR 4110, Navajo Dam, NM 87419, USA",SAN JUAN,Correct,SAN JUAN,,Original,882.0,,,Active,POINT (-107.6140935 36.8190683),No,11.816371250829082,,,Southern Ute,Southern Ute Reservation,From Original List,,,,,,,,,,,,
883,883,ALLSUP'S/PHILLIPS 66,Correct,ALLSUP'S/PHILLIPS 66,507 PASEO DEL PUEBLO NORTE,Correct,507 PASEO DEL PUEBLO NORTE,TAOS,Correct,TAOS,NM,Correct,NM,87571,Correct,87571.0,36.36955976,Correct,36.36955976,-105.5968154,Correct,-105.5968154,"507 PASEO DEL PUEBLO NORTE  TAOS, NM 87571",Correct,"507 PASEO DEL PUEBLO NORTE TAOS, NM 87571",TAOS,Correct,TAOS,,Original,883.0,1.0,yes,Active,POINT (-105.5968154 36.36955976),No,2.0724098676587226,,,Taos,Taos Pueblo,From Original List,,,,,,,,,,,,
884,884,CAMEL ROCK,CAMEL ROCK CASINO,CAMEL ROCK CASINO,17486 U.S. HWY 84-285,17486A US-84,17486A US-84,SANTA FE,Correct,SANTA FE,NM,Correct,NM,87506,Correct,87506.0,35.77928,35.769459499999996,35.769459499999996,-105.9478,-105.94715009999999,-105.94715009999999,"17486 U.S. HWY 84-285  SANTA FE, NM 87506","17486A US-84, Santa Fe, NM 87506, USA","17486A US-84, Santa Fe, NM 87506, USA",SANTA FE,Correct,SANTA FE,,Original,884.0,1.0,no,Closed,POINT (-105.9471501 35.7694595),Yes,0.0,Tesuque,Tesuque Pueblo,,,From Original List,,,,,,,,,,,,
885,885,ABE'S MOTEL &  FLY SHOP INC.,Correct,ABE'S MOTEL &  FLY SHOP INC.,1791 HWY 173,1791 -173,1791 -173,NAVAJO DAM,Correct,NAVAJO DAM,NM,Correct,NM,87419,Correct,87419.0,36.80486766,36.805223,36.805223,-107.6953019,-107.695698,-107.695698,"1791 HWY 173  NAVAJO DAM, NM 87419","1791 NM-173, Navajo Dam, NM 87419, USA","1791 NM-173, Navajo Dam, NM 87419, USA",SAN JUAN,Correct,SAN JUAN,,Original,885.0,,,Active,POINT (-107.695698 36.805223),No,10.129072537537633,,,Navajo Nation,Navajo Nation Reservation,From Original List,,,,,,,,,,,,
886,886,SPORTSMAN'S INN,Correct,SPORTSMAN'S INN,1808 NEW MEXICO 173,Correct,1808 NEW MEXICO 173,NAVAJO DAM,Correct,NAVAJO DAM,NM,Correct,NM,87419,Correct,87419.0,36.80495062,Correct,36.80495062,-107.6928365,Correct,-107.6928365,"1808 NEW MEXICO 173  NAVAJO DAM, NM 87419",Correct,"1808 NEW MEXICO 173 NAVAJO DAM, NM 87419",SAN JUAN,Correct,SAN JUAN,,Original,886.0,1.0,yes,Active,POINT (-107.6928365 36.80495062),No,10.155848588096974,,,Navajo Nation,Navajo Nation Reservation,From Original List,,,,,,,,,,,,
887,887,PHILLIPS 66,Correct,PHILLIPS 66,2016 TAOS HWY,1547 PASEO DEL PUEBLO SUR,1547 PASEO DEL PUEBLO SUR,SAN JUAN PUEBLO,TAOS,TAOS,NM,Correct,NM,87566,87571,87571.0,,36.3662759,36.3662759,,-105.59967320000001,-105.59967320000001,"2016 TAOS HWY  SAN JUAN PUEBLO, NM 87566","1547 Paseo Del Pueblo Sur, Taos, NM 87571, USA","1547 Paseo Del Pueblo Sur, Taos, NM 87571, USA",RIO ARRIBA,Correct,TAOS,,Original,887.0,,,Active,POINT (-105.5996732 36.3662759),Unknown,,Unknown,Unknown,,,From Original List,,,,,,,,,,,,
888,888,SAN FELIPE PUEBLO TRAVEL CENTER,SAN FELIPE TRAVEL CENTER AND PUEBLO RESTAURANT,SAN FELIPE TRAVEL CENTER AND PUEBLO RESTAURANT,26 HAGAN ROAD,26 HAGON RD,26 HAGON RD,SAN FELIPE PUEBLO,ALGODONES,ALGODONES,NM,Correct,NM,87001,Correct,87001.0,35.41539726,35.4162076,35.4162076,-106.4013668,-106.40173130000001,-106.40173130000001,"26 HAGAN ROAD  SAN FELIPE PUEBLO, NM 87001","26 Hagon Rd, Algodones, NM 87001, USA","26 Hagon Rd, Algodones, NM 87001, USA",SANDOVAL,Correct,SANDOVAL,,Original,888.0,,,Active,POINT (-106.4017313 35.4162076),Yes,0.0,San Felipe,San Felipe Pueblo,,,From Original List,,,,,,,,,,,,
889,889,EAGLE MART,OHKAY EAGLE MART,OHKAY EAGLE MART,2208 RIVERSIDE DR,Correct,2208 RIVERSIDE DR,ESPANOLA,Correct,ESPANOLA,NM,Correct,NM,87532,Correct,87532.0,36.0259109,Correct,36.0259109,-106.0640221,Correct,-106.0640221,"2208 RIVERSIDE DR  ESPANOLA, NM 87532",Correct,"2208 RIVERSIDE DR ESPANOLA, NM 87532",RIO ARRIBA,Correct,RIO ARRIBA,,Original,889.0,1.0,yes,Active,POINT (-106.0640221 36.0259109),Yes,0.0,Ohkay Owingeh,Ohkay Owingeh,,,From Original List,,,,,,,,,,,,
890,890,CIRCLE W FOOD STORE,CIRCLE W PAWN,CIRCLE W PAWN,3316 HIGHWAY 64,Correct,3316 HIGHWAY 64,WATERFLOW,Correct,WATERFLOW,NM,Correct,NM,87421,Correct,87421.0,36.76007,Correct,36.76007,-108.4674,Correct,-108.4674,"3316 HIGHWAY 64  WATERFLOW, NM 87421",Correct,"3316 HIGHWAY 64 WATERFLOW, NM 87421",SAN JUAN,Correct,SAN JUAN,,Original,890.0,1.0,yes,Active,POINT (-108.4674 36.76007),No,0.8490647641325911,,,Navajo Nation,Navajo Nation Reservation,From Original List,,,,,,,,,,,,
891,891,MUSTANG 7260 SHELL,Correct,MUSTANG 7260 SHELL,3215 HWY 64,3215 US-64,3215 US-64,WATERFLOW,Correct,WATERFLOW,NM,Correct,NM,87421,Correct,87421.0,36.74987418,36.7507598,36.7507598,-108.5288024,-108.5283963,-108.5283963,"3215 HWY 64  WATERFLOW, NM 87421","3215 US-64, Waterflow, NM 87421, USA","3215 US-64, Waterflow, NM 87421, USA",SAN JUAN,Correct,SAN JUAN,,Original,891.0,,,Active,POINT (-108.5283963 36.7507598),No,0.3565663139012327,,,Navajo Nation,Navajo Nation Reservation,From Original List,,,,,,,,,,,,
892,892,THOMPSON'S STATION &  MARKET,Can't Validate,THOMPSON'S STATION &  MARKET,34 TELSTAR RD,Can't Validate,34 TELSTAR RD,CHURCH ROCK,Can't Validate,CHURCH ROCK,NM,Can't Validate,NM,87311,Can't Validate,87311.0,35.53705765,Can't Validate,35.53705765,-108.60109,Can't Validate,-108.60109,"34 TELSTAR RD  CHURCH ROCK, NM 87311",Can't Validate,"34 TELSTAR RD CHURCH ROCK, NM 87311",MCKINLEY,Can't Validate,MCKINLEY,,Original,892.0,,,Can't Validate,POINT (-108.60109 35.53705765),Yes,0.0,Navajo Nation,Navajo Nation Reservation,,,From Original List,,,,,,,,,,,,
893,893,LENO'S SMOKE SHOP,Correct,LENO'S SMOKE SHOP,3741 HWY 47,3741 -47,3741 -47,ISLETA,BOSQUE FARMS,BOSQUE FARMS,NM,Correct,NM,87068,Correct,87068.0,34.90275682,34.904710200000004,34.904710200000004,-106.6813527,-106.6813619,-106.6813619,"3741 HWY 47  ISLETA, NM 87068","3741 NM-47, Bosque Farms, NM 87068, USA","3741 NM-47, Bosque Farms, NM 87068, USA",BERNALILLO,Correct,VALENCIA,,Original,893.0,,,Active,POINT (-106.6813619 34.9047102),Yes,0.0,Isleta,Isleta Pueblo,,,From Original List,,,,,,,,,,,,
894,894,WESTERN REFINERY - MUSTANG #7207,Can't Validate,WESTERN REFINERY - MUSTANG #7207,409 NMS HWY 566,Can't Validate,409 NMS HWY 566,CHURCH ROCK,Can't Validate,CHURCH ROCK,NM,Can't Validate,NM,87311,Can't Validate,87311.0,35.53439,Can't Validate,35.53439,-108.6065,Can't Validate,-108.6065,"409 NMS HWY 566  CHURCH ROCK, NM 87311",Can't Validate,"409 NMS HWY 566 CHURCH ROCK, NM 87311",MCKINLEY,Can't Validate,MCKINLEY,,Original,894.0,,,Can't Validate,POINT (-108.6065 35.53439),Yes,0.0,Navajo Nation,Navajo Nation Reservation,,,From Original List,,,,,,,,,,,,
895,895,ALLSUP'S SHELL,Correct,ALLSUP'S SHELL,507 PASEO DEL PUEBLO NORTE,Correct,507 PASEO DEL PUEBLO NORTE,TAOS,Correct,TAOS,NM,Correct,NM,87571,Correct,87571.0,36.39466185,Correct,36.39466185,-105.5711204,Correct,-105.5711204,"507 PASEO DEL PUEBLO NORTE  TAOS, NM 87571",Correct,"507 PASEO DEL PUEBLO NORTE TAOS, NM 87571",TAOS,Correct,TAOS,,Original,895.0,1.0,yes,Active,POINT (-105.5711204 36.39466185),No,0.4525033927435478,,,Taos,Taos Pueblo,From Original List,,,,,,,,,,,,
896,896,GIANT CONOCO,Correct,GIANT CONOCO,650 N BOSQUE BLVD,Correct,650 N BOSQUE BLVD,BOSQUE FARMS,Correct,BOSQUE FARMS,NM,Correct,NM,87068,Correct,87068.0,34.86270102,Correct,34.86270102,-106.7006881,Correct,-106.7006881,"650 N BOSQUE BLVD  BOSQUE FARMS, NM 87068",Correct,"650 N BOSQUE BLVD BOSQUE FARMS, NM 87068",VALENCIA,Correct,VALENCIA,,Original,896.0,,,Active,POINT (-106.7006881 34.86270102),No,0.5491910291643934,,,Isleta,Isleta Pueblo,From Original List,,,,,,,,,,,,
897,897,GOLDEN'S FOOD STORE/FINA,Correct,GOLDEN'S FOOD STORE/FINA,700 COUNTY ROAD 6100,Correct,700 COUNTY ROAD 6100,FRUITLAND,Correct,FRUITLAND,NM,Correct,NM,87416,Correct,87416.0,36.74010753,Correct,36.74010753,-108.3958017,Correct,-108.3958017,"700 COUNTY ROAD 6100  FRUITLAND, NM 87416",Correct,"700 COUNTY ROAD 6100 FRUITLAND, NM 87416",SAN JUAN,Correct,SAN JUAN,,Original,897.0,,,Active,POINT (-108.3958017 36.74010753),No,0.3700699441636648,,,Navajo Nation,Navajo Nation Reservation,From Original List,,,,,,,,,,,,
898,898,CIRCLE K (#1436),Can't Validate,CIRCLE K (#1436),844 HWY 550,Can't Validate,844 HWY 550,FLORA VISTA,Can't Validate,FLORA VISTA,NM,Can't Validate,NM,87415,Can't Validate,87415.0,,Can't Validate,,,Can't Validate,,"844 HWY 550  FLORA VISTA, NM 87415",Can't Validate,"844 HWY 550 FLORA VISTA, NM 87415",SAN JUAN,Can't Validate,SAN JUAN,,Original,898.0,,,Can't Validate,POINT (nan nan),Unknown,,Unknown,Unknown,,,From Original List,,,,,,,,,,,,
899,899,SEVEN TO ELEVEN,Correct,SEVEN TO ELEVEN,E 64 HWY,Correct,E 64 HWY,SHIPROCK,Correct,SHIPROCK,NM,Correct,NM,87420,Correct,87420.0,36.87129166,Correct,36.87129166,-109.0448423,Correct,-109.0448423,"E 64 HWY  SHIPROCK, NM 87420",Correct,"E 64 HWY SHIPROCK, NM 87420",SAN JUAN,Correct,SAN JUAN,,Original,899.0,1.0,yes,Active,POINT (-109.0448423 36.87129166),Yes,0.0,Navajo Nation,Navajo Nation Reservation,,,From Original List,,,,,,,,,,,,
900,900,SHIPROCK QUICKSTOP/Sinclair/Dinocare/,Correct,SHIPROCK QUICKSTOP/Sinclair/Dinocare/,E HWY 64,Correct,E HWY 64,SHIPROCK,Correct,SHIPROCK,NM,Correct,NM,87420,Correct,87420.0,36.87129166,Correct,36.87129166,-109.0448423,Correct,-109.0448423,"E HWY 64  SHIPROCK, NM 87420",Correct,"E HWY 64 SHIPROCK, NM 87420",SAN JUAN,Correct,SAN JUAN,,Original,900.0,,,Active,POINT (-109.0448423 36.87129166),Yes,0.0,Navajo Nation,Navajo Nation Reservation,,,From Original List,,,,,,,,,,,,
901,901,THE STORE,Can't Validate,THE STORE,HCR 74 BOX 5,Can't Validate,HCR 74 BOX 5,LINDRITH,Can't Validate,LINDRITH,NM,Can't Validate,NM,87029,Can't Validate,87029.0,,Can't Validate,,,Can't Validate,,"HCR 74 BOX 5  LINDRITH, NM 87029",Can't Validate,"HCR 74 BOX 5 LINDRITH, NM 87029",RIO ARRIBA,Can't Validate,RIO ARRIBA,,Original,901.0,,,Can't Validate,POINT (nan nan),Unknown,,Unknown,Unknown,,,From Original List,,,,,,,,,,,,
902,902,YAH TA HEY PAWN SHOP,HORIZON PAWN,HORIZON PAWN,HIGHWAY 491 & HIGHWAY 264,U.S. 491 11 MILES NORTH OF GALLUP,U.S. 491 11 MILES NORTH OF GALLUP,YATAHEY,GALLUP,GALLUP,NM,Correct,NM,87375,87301,87301.0,35.62656,35.658905,35.658905,-108.7811,-108.76993700000001,-108.76993700000001,"HIGHWAY 491 & HIGHWAY 264  YATAHEY, NM 87375","U.S. 491 11 miles north of gallup, Gallup, NM 87301, USA","U.S. 491 11 miles north of gallup, Gallup, NM 87301, USA",MCKINLEY,Correct,MCKINLEY,,Original,902.0,1.0,maybe,Active,POINT (-108.769937 35.658905),No,0.05124712969584051,,,Navajo Nation,Navajo Nation Reservation,From Original List,,,,,,,,,,,,
903,903,KEWA CAFE,Correct,KEWA CAFE,1 EAST HIGHWAY 22,Correct,1 EAST HIGHWAY 22,SANTO DOMINGO,Correct,SANTO DOMINGO,NM,Correct,NM,87052,Correct,87052.0,35.47832000000001,Correct,35.47832000000001,-106.3124,Correct,-106.3124,"1 EAST HIGHWAY 22  SANTO DOMINGO, NM 87052",Correct,"1 EAST HIGHWAY 22 SANTO DOMINGO, NM 87052",SANDOVAL,Correct,SANDOVAL,,Original,903.0,1.0,yes,Active,POINT (-106.3124 35.47832000000001),Yes,0.0,Santo Domingo,Santo Domingo Pueblo,,,From Original List,,,,,,,,,,,,
904,904,SEVEN TO ELEVEN FOOD STORE,Correct,SEVEN TO ELEVEN FOOD STORE,HWY 491,Correct,HWY 491,SHIPROCK,Correct,SHIPROCK,NM,Correct,NM,87420,Correct,87420.0,36.75201457,Correct,36.75201457,-108.7020208,Correct,-108.7020208,"HWY 491  SHIPROCK, NM 87420",Correct,"HWY 491 SHIPROCK, NM 87420",SAN JUAN,Correct,SAN JUAN,,Original,904.0,1.0,yes,Active,POINT (-108.7020208 36.75201457),Yes,0.0,Navajo Nation,Navajo Nation Reservation,,,From Original List,,,,,,,,,,,,
905,905,CITY MARKET,Correct,CITY MARKET,HWY 491 &  HWY 64,"US 491 & NM, US-64","US 491 & NM, US-64",SHIPROCK,Correct,SHIPROCK,NM,Correct,NM,87420,Correct,87420.0,36.77718,36.776073100000005,36.77607310000001,-108.6966,-108.6996273,-108.6996273,"HWY 491 &  HWY 64  SHIPROCK, NM 87420","Us 491 & Nm, US-64, Shiprock, NM 87420, USA","Us 491 & Nm, US-64, Shiprock, NM 87420, USA",SAN JUAN,Correct,SAN JUAN,,Original,905.0,,,Active,POINT (-108.6996273 36.77607310000001),Yes,0.0,Navajo Nation,Navajo Nation Reservation,,,From Original List,,,,,,655852,"CITY MARKET, INC.",MERGED OUT OF EXISTENCE,SEE FT11 FOR SERVICE OF PROCESS,,,
906,906,CITGO,Correct,CITGO,US-491 & US-64,Correct,US-491 & US-64,Shiprock,Correct,Shiprock,NM,Correct,NM,87420,Correct,87420.0,36.77718,Correct,36.77718,-108.6966,Correct,-108.6966,"US-491 & US-64  Shiprock, NM 87420",Correct,"US-491 & US-64 Shiprock, NM 87420",SAN JUAN,Correct,SAN JUAN,,Original,906.0,1.0,yes,Active,POINT (-108.6966 36.77718),Yes,0.0,Navajo Nation,Navajo Nation Reservation,,,From Original List,,,,,,251777,CITGO PIPELINE COMPANY,SECRETARY OF STATE,EXECUTIVE-LEGISLATIVE BUILDING SANTA FE NM 87503,SANTA FE,NM,87503
907,907,SEVEN ELEVEN,Correct,SEVEN ELEVEN,HWY 64,Correct,HWY 64,SHIPROCK,Correct,SHIPROCK,NM,Correct,NM,87420,Correct,87420.0,36.87129166,Correct,36.87129166,-109.0448423,Correct,-109.0448423,"HWY 64  SHIPROCK, NM 87420",Correct,"HWY 64 SHIPROCK, NM 87420",SAN JUAN,Correct,SAN JUAN,,Original,907.0,1.0,yes,Active,POINT (-109.0448423 36.87129166),Yes,0.0,Navajo Nation,Navajo Nation Reservation,,,From Original List,,,,,,4918738,"SEVEN ELEVEN ELEVEN, LLC",JOSHUA JAMESON,101 PERKINS DR. STE. 2 LAS CRUCES NM 88005,LAS CRUCES,NM,88005
908,908,POJOAQUE CONVENIENCE STORE,Correct,POJOAQUE CONVENIENCE STORE,HWY 84/285,112 CITIES OF GOLD RD,112 CITIES OF GOLD RD,POJOAQUE VALLEY,SANTA FE,SANTA FE,NM,Correct,NM,87501,87506,87506.0,35.87738,35.878594899999996,35.878594899999996,-106.0661,-106.0085263,-106.0085263,"HWY 84/285  POJOAQUE VALLEY, NM 87501","112 Cities of Gold Rd, Santa Fe, NM 87506, USA","112 Cities of Gold Rd, Santa Fe, NM 87506, USA",SANTA FE,Correct,SANTA FE,,Original,908.0,1.0,yes,Active,POINT (-106.0085263 35.8785949),Yes,0.0,Pojoaque,Pueblo of Pojoaque,,,From Original List,,,,,,,,,,,,
909,909,THRIFTWAY,Can't Validate,THRIFTWAY,JCT HWYS 494 & 64,Can't Validate,JCT HWYS 494 & 64,SHIPROCK,Can't Validate,SHIPROCK,NM,Can't Validate,NM,87420,Can't Validate,87420.0,36.784113,Can't Validate,36.784113,-108.6757,Can't Validate,-108.6757,"JCT HWYS 494 & 64  SHIPROCK, NM 87420",Can't Validate,"JCT HWYS 494 & 64 SHIPROCK, NM 87420",SAN JUAN,Can't Validate,SAN JUAN,,Google,909.0,,,Can't Validate,POINT (-108.6757 36.784113),Yes,0.0,Navajo Nation,Navajo Nation Reservation,,,From Original List,,,,,,486878,THRIFTWAY CO.,ROBERT G MOSS,501 AIRPORT DR STE 100 FARMINTGON NM 87401,FARMINTGON,NM,87401
910,910,NAVAJO COUNTRY EXPRESS / ICM,Correct,NAVAJO COUNTRY EXPRESS / ICM,JUNCTION 64 W &  491 S,US-64,US-64,SHIPROCK,Correct,SHIPROCK,NM,Correct,NM,87420,Correct,87420.0,36.77718,36.7775547,36.7775547,-108.6966,-108.6962896,-108.6962896,"JUNCTION 64 W &  491 S  SHIPROCK, NM 87420","US-64, Shiprock, NM 87420, USA","US-64, Shiprock, NM 87420, USA",SAN JUAN,Correct,SAN JUAN,,Original,910.0,,,Active,POINT (-108.6962896 36.7775547),Yes,0.0,Navajo Nation,Navajo Nation Reservation,,,From Original List,,,,,,,,,,,,
911,911,DINO MART / SINCLAIR,Correct,DINO MART / SINCLAIR,HIGHWAY 491 NORTH,Correct,HIGHWAY 491 NORTH,SHIPROCK,Correct,SHIPROCK,NM,Correct,NM,87420,Correct,87420.0,36.75201457,Correct,36.75201457,-108.7020208,Correct,-108.7020208,"HIGHWAY 491 NORTH  SHIPROCK, NM 87420",Correct,"HIGHWAY 491 NORTH SHIPROCK, NM 87420",SAN JUAN,Correct,SAN JUAN,,Original,911.0,1.0,yes,Active,POINT (-108.7020208 36.75201457),Yes,0.0,Navajo Nation,Navajo Nation Reservation,,,From Original List,,,,,,,,,,,,
912,912,MUSTANG,Can't Validate,MUSTANG,ROAD 371 MAIN STREET,Can't Validate,ROAD 371 MAIN STREET,CROWNPOINT,Can't Validate,CROWNPOINT,NM,Can't Validate,NM,87313,Can't Validate,87313.0,35.67808,Can't Validate,35.67808,-108.1512,Can't Validate,-108.1512,"ROAD 371 MAIN STREET  CROWNPOINT, NM 87313",Can't Validate,"ROAD 371 MAIN STREET CROWNPOINT, NM 87313",MCKINLEY,Can't Validate,MCKINLEY,,Original,912.0,1.0,maybe,Can't Validate,POINT (-108.1512 35.67808),Yes,0.0,Navajo Nation,Navajo Nation Reservation,,,From Original List,,,,,,,,,,,,
913,913,PHILLIPS 66/FOOD MART,Correct,PHILLIPS 66/FOOD MART,66 NM- 4 ROVER BOULEVARD,Correct,66 NM- 4 ROVER BOULEVARD,WHITE ROCK,Correct,WHITE ROCK,NM,Correct,NM,87544,Correct,87544.0,35.82765999999999,Correct,35.82765999999999,-106.2059,Correct,-106.2059,"66 NM- 4 ROVER BOULEVARD  WHITE ROCK, NM 87544",Correct,"66 NM- 4 ROVER BOULEVARD WHITE ROCK, NM 87544",LOS ALAMOS,Correct,LOS ALAMOS,,Original,913.0,,,Closed,POINT (-106.2059 35.82765999999999),No,0.10481423172117957,,,San Ildefonso,San Ildefonso Pueblo,From Original List,,,,,,,,,,,,
914,914,NAVAJO PINE SUPERMARKET,Correct,NAVAJO PINE SUPERMARKET,RT.12 SHEPARD SPRINGS RD.,1 WALNUT AVE,1 WALNUT AVE,NAVAJO,Correct,NAVAJO,NM,Correct,NM,87328,Correct,87328.0,35.90988956,35.9042249,35.9042249,-109.0236633,-109.03683899999999,-109.03683899999999,"RT.12 SHEPARD SPRINGS RD.  NAVAJO, NM 87328","1 Walnut Ave, Navajo, NM 87328, USA","1 Walnut Ave, Navajo, NM 87328, USA",MCKINLEY,Correct,MCKINLEY,,Original,914.0,,,Active,POINT (-109.036839 35.9042249),Yes,0.0,Navajo Nation,Navajo Nation Reservation,,,From Original List,,,,,,,,,,,,
915,915,VILLA DE CUBERO,Can't Validate,VILLA DE CUBERO,STATE ROAD 124 MM 14,Can't Validate,STATE ROAD 124 MM 14,CUBERO,Can't Validate,CUBERO,NM,Can't Validate,NM,87014,Can't Validate,87014.0,34.81297960000001,Can't Validate,34.81297960000001,-108.0435002,Can't Validate,-108.0435002,"STATE ROAD 124 MM 14  CUBERO, NM 87014",Can't Validate,"STATE ROAD 124 MM 14 CUBERO, NM 87014",CIBOLA,Can't Validate,CIBOLA,,Original,915.0,,,Can't Validate,POINT (-108.0435002 34.81297960000001),No,9.590211923997376,,,Acoma,Acoma Pueblo,From Original List,,,,,,,,,,,,
916,916,OH KAY MARKET AND PHILLIPS 66,Correct,OH KAY MARKET AND PHILLIPS 66,TAOS HWY,Correct,TAOS HWY,SAN JUAN PUEBLO,Correct,SAN JUAN PUEBLO,NM,Correct,NM,87566,Correct,87566.0,36.07763292,Correct,36.07763292,-106.1073321,Correct,-106.1073321,"TAOS HWY  SAN JUAN PUEBLO, NM 87566",Correct,"TAOS HWY SAN JUAN PUEBLO, NM 87566",RIO ARRIBA,Correct,RIO ARRIBA,,Original,916.0,1.0,yes,Active,POINT (-106.1073321 36.07763292),Yes,0.0,Ohkay Owingeh,Ohkay Owingeh,,,From Original List,,,,,,,,,,,,
917,917,SHELL GAS,Correct,SHELL GAS,US 64 US 491,Correct,US 64 US 491,SHIPROCK,Correct,SHIPROCK,NM,Correct,NM,87420,Correct,87420.0,36.78435,Correct,36.78435,-108.667,Correct,-108.667,"US 64 US 491  SHIPROCK, NM 87420",Correct,"US 64 US 491 SHIPROCK, NM 87420",SAN JUAN,Correct,SAN JUAN,,Original,917.0,,,Active,POINT (-108.667 36.78435),Yes,0.0,Navajo Nation,Navajo Nation Reservation,,,From Original List,,,,,,,,,,,,
918,918,NAVAJO COUNTRY EXPRESS,Correct,NAVAJO COUNTRY EXPRESS,W 64 &  HWY 491,US-64,US-64,SHIPROCK,Correct,SHIPROCK,NM,Correct,NM,87420,Correct,87420.0,36.84615761,36.7775547,36.7775547,-108.7413378,-108.6962896,-108.6962896,"W 64 &  HWY 491  SHIPROCK, NM 87420","US-64, Shiprock, NM 87420, USA","US-64, Shiprock, NM 87420, USA",SAN JUAN,Correct,SAN JUAN,,Original,918.0,,,Active,POINT (-108.6962896 36.7775547),Yes,0.0,Navajo Nation,Navajo Nation Reservation,,,From Original List,,,,,,,,,,,,
919,919,GIANT WESTERN REFINERY,Correct,GIANT WESTERN REFINERY,WEST US 491 / JUNCTION 64,91 US-64,91 US-64,SHIPROCK,Correct,SHIPROCK,NM,Correct,NM,87420,Correct,87420.0,36.87129166,36.77746109999999,36.77746109999999,-109.0448423,-108.6971256,-108.6971256,"WEST US 491 / JUNCTION 64  SHIPROCK, NM 87420","91 US-64, Shiprock, NM 87420, USA","91 US-64, Shiprock, NM 87420, USA",SAN JUAN,Correct,SAN JUAN,,Original,919.0,,,Active,POINT (-108.6971256 36.77746109999999),Yes,0.0,Navajo Nation,Navajo Nation Reservation,,,From Original List,,,,,,,,,,,,
920,920,BASHAS,Correct,BASHAS,371 STATE ROAD 9,Correct,371 STATE ROAD 9,CROWNPOINT,Correct,CROWNPOINT,NM,Correct,NM,87313,Correct,87313.0,35.69762,Correct,35.69762,-108.1414,Correct,-108.1414,"371 STATE ROAD 9  CROWNPOINT, NM 87313",Correct,"371 STATE ROAD 9 CROWNPOINT, NM 87313",MCKINLEY,Correct,MCKINLEY,,Original,920.0,1.0,yes,Active,POINT (-108.1414 35.69762),Yes,0.0,Navajo Nation,Navajo Nation Reservation,,,From Original List,,,,,,1418292,BASHAS' INC.,C T CORPORATION SYSTEM,206 S CORONADO AVE ESPANOLA NM 87532 2792,ESPANOLA,NM,87532
921,921,CASINO APACHE TRAVEL CENTER,Correct,CASINO APACHE TRAVEL CENTER,25895 US HIGHWAY 70,25845 US-70,25845 US-70,MESCALERO,Correct,MESCALERO,NM,Correct,NM,88340,Correct,88340.0,33.30016,33.29809349999999,33.29809349999999,-105.6562,-105.66044,-105.66044,"25895 US HIGHWAY 70  MESCALERO, NM 88340","25845 US-70, Mescalero, NM 88340, USA","25845 US-70, Mescalero, NM 88340, USA",OTERO,Correct,OTERO,,Original,921.0,,,Active,POINT (-105.66044 33.29809349999999),Yes,0.0,Mescalero,Mescalero Reservation,,,From Original List,,,,,,,,,,,,
922,922,GIANT,Correct,GIANT,1189 HIGHWAY 53,1189 -53,1189 -53,ZUNI,Correct,ZUNI,NM,Correct,NM,87327,Correct,87327.0,35.06948,35.0699848,35.0699848,-108.8477,-108.84588829999998,-108.84588829999998,"1189 HIGHWAY 53  ZUNI, NM 87327","1189 NM-53, Zuni, NM 87327, USA","1189 NM-53, Zuni, NM 87327, USA",MCKINLEY,Correct,MCKINLEY,,Original,922.0,,,Active,POINT (-108.8458883 35.0699848),Yes,0.0,Zuni,Zuni Reservation,,,From Original List,,,,,,,,,,,,
923,923,INDIAN COUNTRY TOBACCO,Can't Validate,INDIAN COUNTRY TOBACCO,53 JEMEZ DAM RD,Can't Validate,53 JEMEZ DAM RD,BERNALILLO,Can't Validate,BERNALILLO,NM,Can't Validate,NM,87004,Can't Validate,87004.0,35.3279,Can't Validate,35.3279,-106.5668,Can't Validate,-106.5668,"53 JEMEZ DAM RD  BERNALILLO, NM 87004",Can't Validate,"53 JEMEZ DAM RD BERNALILLO, NM 87004",SANDOVAL,Can't Validate,SANDOVAL,,Original,923.0,,,Can't Validate,POINT (-106.5668 35.3279),No,0.0090356326147382,,,Santa Ana,Santa Ana Pueblo,From Original List,,,,,,2324937,"INDIAN COUNTRY TOBACCO, INC.",ARMAND ORTEGA,1000 E. HWY. 66 GALLUP NM 87301,GALLUP,NM,87301
924,924,POJOAQUE SUPERMARKET,Correct,POJOAQUE SUPERMARKET,9 W GUTIERREZ,Correct,9 W GUTIERREZ,SANTA FE,Correct,SANTA FE,NM,Correct,NM,87506,Correct,87506.0,35.883,Correct,35.883,-106.0136,Correct,-106.0136,"9 W GUTIERREZ  SANTA FE, NM 87506",Correct,"9 W GUTIERREZ SANTA FE, NM 87506",SANTA FE,Correct,SANTA FE,,Original,924.0,,,Active,POINT (-106.0136 35.883),Yes,0.0,Pojoaque,Pueblo of Pojoaque,,,From Original List,,,,,,,,,,,,
925,925,SMOKE CIGGNALS LLC,Correct,SMOKE CIGGNALS LLC,2951 HWY 314,2951 -314,2951 -314,LOS LUNAS,Correct,LOS LUNAS,NM,Correct,NM,87031,Correct,87031.0,34.773379,34.842438400000006,34.842438400000006,-106.743546,-106.7286469,-106.7286469,"2951 HWY 314  LOS LUNAS, NM 87031","2951 NM-314, Los Lunas, NM 87031, USA","2951 NM-314, Los Lunas, NM 87031, USA",VALENCIA,Correct,VALENCIA,,Original,925.0,,,Active,POINT (-106.7286469 34.84243840000001),Yes,0.0,Isleta,Isleta Pueblo,,,From Original List,,,,,,,,,,,,
926,926,APACHE HOMELANDS ENTERTAINMENT CENTER AND SMOKE SHOP,Correct,APACHE HOMELANDS ENTERTAINMENT CENTER AND SMOKE SHOP,20885 FRONTAGE RD.,Correct,20885 FRONTAGE RD.,DEMING,Correct,DEMING,NM,Correct,NM,88030,Correct,88030.0,32.241240000000005,Correct,32.241240000000005,-107.4201,Correct,-107.4201,"20885 FRONTAGE RD.  DEMING, NM 88030",Correct,"20885 FRONTAGE RD. DEMING, NM 88030",,Correct,LUNA,,Original,926.0,,,Active,POINT (-107.4201 32.24124),Yes,0.0,Fort Sill Apache,Fort Sill Apache Indian Reservation,,,From Original List,,,,,,,,,,,,
927,927,ISLETA LAKES & RV PARK,Can't Validate,ISLETA LAKES & RV PARK,4051 HWY. 47,Can't Validate,4051 HWY. 47,ALBUQUERQUE,Can't Validate,ALBUQUERQUE,NM,Can't Validate,NM,87105,Can't Validate,87105.0,35.020062,Can't Validate,35.020062,-106.647136,Can't Validate,-106.647136,"4051 HWY. 47  ALBUQUERQUE, NM 87105",Can't Validate,"4051 HWY. 47 ALBUQUERQUE, NM 87105",,Can't Validate,BERNALILLO,,Original,927.0,,,Can't Validate,POINT (-106.647136 35.020062),No,4.7806214681454025,,,Isleta,Isleta Pueblo,From Original List,,,,,,,,,,,,
928,928,ISLETA GAS/ISLETA ONE STOP,Correct,ISLETA GAS/ISLETA ONE STOP,4047 HIGHWAY 47 SOUTHEAST,4047 -47,4047 -47,ALBUQUERQUE,Correct,ALBUQUERQUE,NM,Correct,NM,87105,Correct,87105.0,35.02227,34.9465854,34.9465854,-106.6469,-106.664272,-106.664272,"4047 HIGHWAY 47 SOUTHEAST  ALBUQUERQUE, NM 87105","4047 NM-47, Albuquerque, NM 87105, USA","4047 NM-47, Albuquerque, NM 87105, USA",,Correct,BERNALILLO,,Original,928.0,,,Active,POINT (-106.664272 34.9465854),Yes,0.0,Isleta,Isleta Pueblo,,,From Original List,,,,,,,,,,,,
929,929,ISLETA RESORT & CASINO,Correct,ISLETA RESORT & CASINO,11000 BROADWAY SOUTHEAST,Correct,11000 BROADWAY SOUTHEAST,ALBUQUERQUE,Correct,ALBUQUERQUE,NM,Correct,NM,87105,Correct,87105.0,34.907090000000004,Correct,34.907090000000004,-106.6809,Correct,-106.6809,"11000 BROADWAY SOUTHEAST  ALBUQUERQUE, NM 87105",Correct,"11000 BROADWAY SOUTHEAST ALBUQUERQUE, NM 87105",,Correct,BERNALILLO,,Original,929.0,,,Active,POINT (-106.6809 34.90709),Yes,0.0,Isleta,Isleta Pueblo,,,From Original List,,,,,,,,,,,,
930,930,PHILLIPS 66/SUBWAY,Correct,PHILLIPS 66/SUBWAY,4050 HWY. 47,4090 -47 N,4090 -47 N,ALBUQUERQUE,Correct,ALBUQUERQUE,NM,Correct,NM,87105,Correct,87105.0,35.020399,35.019749100000006,35.01974910000001,-106.646897,-106.64704479999999,-106.64704479999999,"4050 HWY. 47  ALBUQUERQUE, NM 87105","4090 NM-47 N, Albuquerque, NM 87105, USA","4090 NM-47 N, Albuquerque, NM 87105, USA",,Correct,BERNALILLO,,Original,930.0,,,Active,POINT (-106.6470448 35.01974910000001),No,4.760130259662001,,,Isleta,Isleta Pueblo,From Original List,,,,,,,,,,,,
931,931,LIQUOR APODACA'S IN N OUT,Correct,LIQUOR APODACA'S IN N OUT,3513 ST. HWY. 47,3513 -47,3513 -47,BOSQUE FARMS,Correct,BOSQUE FARMS,NM,Correct,NM,87068,Correct,87068.0,34.880877000000005,34.815295500000005,34.815295500000005,-106.687068,-106.6956195,-106.6956195,"3513 ST. HWY. 47  BOSQUE FARMS, NM 87068","3513 NM-47, Bosque Farms, NM 87068, USA","3513 NM-47, Bosque Farms, NM 87068, USA",,Correct,VALENCIA,,Original,931.0,1.0,yes,Active,POINT (-106.6956195 34.8152955),No,1.8401812664593649,,,Isleta,Isleta Pueblo,From Original List,,,,,,,,,,,,
932,932,WALATOWA CONVENIENCE STORE,Correct,WALATOWA CONVENIENCE STORE,7405 HWY. 4,7405 -4,7405 -4,JEMEZ PUEBLO,Correct,JEMEZ PUEBLO,NM,Correct,NM,87024,Correct,87024.0,35.643818,35.6437532,35.6437532,-106.724976,-106.72515600000001,-106.72515600000001,"7405 HWY. 4  JEMEZ PUEBLO, NM 87024","7405 NM-4, Jemez Pueblo, NM 87024, USA","7405 NM-4, Jemez Pueblo, NM 87024, USA",,Correct,SANDOVAL,,Original,932.0,,,Active,POINT (-106.725156 35.6437532),Yes,0.0,Jemez,Jemez Pueblo,,,From Original List,,,,,,,,,,,,
933,933,66 PIT STOP,THE 66 PIT STOP - HOME OF THE LAGUNA BURGER,THE 66 PIT STOP - HOME OF THE LAGUNA BURGER,14311 CENTRAL AVENUE NORTH WEST,Correct,14311 CENTRAL AVENUE NORTH WEST,ALBUQUERQUE,Correct,ALBUQUERQUE,NM,Correct,NM,87121,Correct,87121.0,35.059794000000004,Correct,35.059794000000004,-106.808477,Correct,-106.808477,"14311 CENTRAL AVENUE NORTH WEST  ALBUQUERQUE, NM 87121",Correct,"14311 CENTRAL AVENUE NORTH WEST ALBUQUERQUE, NM 87121",,Correct,BERNALILLO,,Original,933.0,1.0,yes,Active,POINT (-106.808477 35.059794),No,6.7211769395361145,,,Isleta,Isleta Pueblo,From Original List,,,,,,,,,,,,
934,934,CASINO XPRESS,DANCING EAGLE CASINO,DANCING EAGLE CASINO,I-40  EXIT 108,167 CASA BLANCA RD,167 CASA BLANCA RD,CASA BLANCA,PARAJE,PARAJE,NM,Correct,NM,87007,Correct,87007.0,35.031279,35.0310558,35.0310558,-107.473369,-107.4736636,-107.4736636,"I-40  EXIT 108  CASA BLANCA, NM 87007","167 Casa Blanca Rd, Paraje, NM 87007, USA","167 Casa Blanca Rd, Paraje, NM 87007, USA",,Correct,CIBOLA,,Google,934.0,0.0,,Active,POINT (-107.4736636 35.0310558),Yes,0.0,Laguna,Laguna Pueblo,,,From Original List,,,,,,,,,,,,
935,935,DANCING EAGLE CASINO,Correct,DANCING EAGLE CASINO,167 CASA BLANCA ROAD,Correct,167 CASA BLANCA ROAD,CASA BLANCA,Correct,CASA BLANCA,NM,Correct,NM,87007,Correct,87007.0,35.042058000000004,Correct,35.042058000000004,-107.469903,Correct,-107.469903,"167 CASA BLANCA ROAD  CASA BLANCA, NM 87007",Correct,"167 CASA BLANCA ROAD CASA BLANCA, NM 87007",,Correct,CIBOLA,,Original,935.0,,,Active,POINT (-107.469903 35.042058),Yes,0.0,Laguna,Laguna Pueblo,,,From Original List,,,,,,,,,,,,
936,936,MARKET PLACE AT DANCING EAGLE,Correct,MARKET PLACE AT DANCING EAGLE,I-40 AT EXIT 108 SOUTH,Correct,I-40 AT EXIT 108 SOUTH,CASA BLANCA,Correct,CASA BLANCA,NM,Correct,NM,87007,Correct,87007.0,35.03106,Correct,35.03106,-107.4737,Correct,-107.4737,"I-40 AT EXIT 108 SOUTH  CASA BLANCA, NM 87007",Correct,"I-40 AT EXIT 108 SOUTH CASA BLANCA, NM 87007",,Correct,CIBOLA,,Original,936.0,0.0,,Active,POINT (-107.4737 35.03106),Yes,0.0,Laguna,Laguna Pueblo,,,From Original List,,,,,,,,,,,,
937,937,ROUTE 66 TRAVEL CENTER AT DANCING EAGLE,Correct,ROUTE 66 TRAVEL CENTER AT DANCING EAGLE,I-40 EXIT 108,Correct,I-40 EXIT 108,CASA BLANCA,Correct,CASA BLANCA,NM,Correct,NM,87007,Correct,87007.0,35.031279,Correct,35.031279,-107.473369,Correct,-107.473369,"I-40 EXIT 108  CASA BLANCA, NM 87007",Correct,"I-40 EXIT 108 CASA BLANCA, NM 87007",,Correct,CIBOLA,,Google,937.0,,,Active,POINT (-107.473369 35.031279),Yes,0.0,Laguna,Laguna Pueblo,,,From Original List,,,,,,,,,,,,
938,938,PAGUATE MART,Correct,PAGUATE MART,961 STATE HIGHWAY 279,939 STATE HIGHWAY 279,939 STATE HIGHWAY 279,PAGUATE,Correct,PAGUATE,NM,Correct,NM,87040,Correct,87040.0,35.12449,35.145507499999994,35.145507499999994,-107.3383,-107.3749382,-107.3749382,"961 STATE HIGHWAY 279  PAGUATE, NM 87040","939 State Highway 279, Paguate, NM 87040, USA","939 State Highway 279, Paguate, NM 87040, USA",,Correct,CIBOLA,,Original,938.0,,,Active,POINT (-107.3749382 35.14550749999999),Yes,0.0,Laguna,Laguna Pueblo,,,From Original List,,,,,,,,,,,,
939,939,ROUTE 66 CASINO,ROUTE 66 CASINO HOTEL,ROUTE 66 CASINO HOTEL,14500 CENTRAL AVENUE NORTHWEST,Correct,14500 CENTRAL AVENUE NORTHWEST,ALBUQUERQUE,Correct,ALBUQUERQUE,NM,Correct,NM,87121,Correct,87121.0,35.059059999999995,Correct,35.059059999999995,-106.813,Correct,-106.813,"14500 CENTRAL AVENUE NORTHWEST  ALBUQUERQUE, NM 87121",Correct,"14500 CENTRAL AVENUE NORTHWEST ALBUQUERQUE, NM 87121",,Correct,BERNALILLO,,Original,939.0,1.0,maybe,Active,POINT (-106.813 35.05906),No,6.674749857602127,,,Isleta,Isleta Pueblo,From Original List,,,,,,,,,,,,
940,940,ROUTE 66 TRAVEL CENTER,Correct,ROUTE 66 TRAVEL CENTER,14314 CENTRAL AVENUE SOUTHWEST,Correct,14314 CENTRAL AVENUE SOUTHWEST,ALBUQUERQUE,Correct,ALBUQUERQUE,NM,Correct,NM,87121,Correct,87121.0,35.063,Correct,35.063,-106.7809,Correct,-106.7809,"14314 CENTRAL AVENUE SOUTHWEST  ALBUQUERQUE, NM 87121",Correct,"14314 CENTRAL AVENUE SOUTHWEST ALBUQUERQUE, NM 87121",,Correct,BERNALILLO,,Original,940.0,,,Active,POINT (-106.7809 35.063),No,6.936636801564138,,,Isleta,Isleta Pueblo,From Original List,,,,,,,,,,,,
941,941,NAMBE FALLS TRAVEL CENTER,Correct,NAMBE FALLS TRAVEL CENTER,17730 U.S. 84/285,17730 US-84 FRONTAGE,17730 US-84 FRONTAGE,SANTA FE,Correct,SANTA FE,NM,Correct,NM,87506,Correct,87506.0,35.853741,35.85440139999999,35.85440139999999,-105.996582,-105.99634909999999,-105.99634909999999,"17730 U.S. 84/285  SANTA FE, NM 87506","17730 US-84 Frontage, Santa Fe, NM 87506, USA","17730 US-84 Frontage, Santa Fe, NM 87506, USA",,Correct,SANTA FE,,Original,941.0,,,Active,POINT (-105.9963491 35.85440139999999),No,0.033912071056923176,,,Nambe,Nambe Pueblo,From Original List,,,,,,,,,,,,
942,942,NAMBE TRADING POST,NAMBE TRADING POST-GALLERY,NAMBE TRADING POST-GALLERY,20 CR SUMMER RD.,Correct,20 CR SUMMER RD.,NAMBE,Correct,NAMBE,NM,Correct,NM,87506,Correct,87506.0,35.894727,Correct,35.894727,-105.988282,Correct,-105.988282,"20 CR SUMMER RD.  NAMBE, NM 87506",Correct,"20 CR SUMMER RD. NAMBE, NM 87506",,Correct,SANTA FE,,Original,942.0,1.0,maybe,Active,POINT (-105.988282 35.894727),Yes,0.0,Nambe,Nambe Pueblo,,,From Original List,,,,,,,,,,,,
943,943,A-1 AUTO,Correct,A-1 AUTO,14121 NM 75,14122 -75,14122 -75,PENASCO,PEÑASCO,PEÑASCO,NM,Correct,NM,87553,Correct,87553.0,36.177593,36.1776718,36.1776718,-105.697138,-105.69677250000001,-105.69677250000001,"14121 NM 75  PENASCO, NM 87553","14122 NM-75, Peñasco, NM 87553, USA","14122 NM-75, Peñasco, NM 87553, USA",,Correct,TAOS,,Original,943.0,1.0,yes,Active,POINT (-105.6967725 36.1776718),Yes,0.0,Picuris,Picuris Pueblo,,,From Original List,,,,,,,,,,,,
944,944,PICURIS SMOKE SHOP,Can't Validate,PICURIS SMOKE SHOP,1378 S.R. 75,Can't Validate,1378 S.R. 75,PENASCO,Can't Validate,PENASCO,NM,Can't Validate,NM,87553,Can't Validate,87553.0,36.18343370000001,Can't Validate,36.18343370000001,-105.7053382,Can't Validate,-105.7053382,"1378 S.R. 75  PENASCO, NM 87553",Can't Validate,"1378 S.R. 75 PENASCO, NM 87553",,Can't Validate,TAOS,,Google,944.0,1.0,maybe,Can't Validate,POINT (-105.7053382 36.18343370000001),Yes,0.0,Picuris,Picuris Pueblo,,,From Original List,,,,,,,,,,,,
945,945,BUFFALO THUNDER CASINO,BUFFALO THUNDER RESORT CASINO,BUFFALO THUNDER RESORT CASINO,30 BUFFALO THUNDER TRL.,Correct,30 BUFFALO THUNDER TRL.,SANTA FE,Correct,SANTA FE,NM,Correct,NM,87506,Correct,87506.0,35.859666,Correct,35.859666,-105.994082,Correct,-105.994082,"30 BUFFALO THUNDER TRL.  SANTA FE, NM 87506",Correct,"30 BUFFALO THUNDER TRL. SANTA FE, NM 87506",,Correct,SANTA FE,,Original,945.0,1.0,yes,Active,POINT (-105.994082 35.859666),Yes,0.0,Pojoaque,Pueblo of Pojoaque,,,From Original List,,,,,,,,,,,,
946,946,CITIES OF GOLD CASINO,Correct,CITIES OF GOLD CASINO,10-B CITIES OF GOLD RD.,10 CITIES OF GOLD RD,10 CITIES OF GOLD RD,SANTA FE,Correct,SANTA FE,NM,Correct,NM,87506,Correct,87506.0,35.88832,35.891161100000005,35.89116110000001,-106.02055,-106.02057830000001,-106.02057830000001,"10-B CITIES OF GOLD RD.  SANTA FE, NM 87506","10 Cities of Gold Rd, Santa Fe, NM 87506, USA","10 Cities of Gold Rd, Santa Fe, NM 87506, USA",,Correct,SANTA FE,,Original,946.0,,,Active,POINT (-106.0205783 35.89116110000001),Yes,0.0,Pojoaque,Pueblo of Pojoaque,,,From Original List,,,,,,,,,,,,
947,947,KICKS 66,Correct,KICKS 66,HWY. 84/285 & W. GUTIERREZ,Correct,HWY. 84/285 & W. GUTIERREZ,SANTA FE,Correct,SANTA FE,NM,Correct,NM,87506,Correct,87506.0,35.88262,Correct,35.88262,-106.0141,Correct,-106.0141,"HWY. 84/285 & W. GUTIERREZ  SANTA FE, NM 87506",Correct,"HWY. 84/285 & W. GUTIERREZ SANTA FE, NM 87506",,Correct,SANTA FE,,Original,947.0,1.0,yes,Active,POINT (-106.0141 35.88262),Yes,0.0,Pojoaque,Pueblo of Pojoaque,,,From Original List,,,,,,,,,,,,
948,948,POJOAQUE CHEVRON CONVENIENCE STORE,Correct,POJOAQUE CHEVRON CONVENIENCE STORE,119 CITIES OF GOLD RD.,112 CITIES OF GOLD RD,112 CITIES OF GOLD RD,POJOAQUE,SANTA FE,SANTA FE,NM,Correct,NM,87506,Correct,87506.0,35.878058,35.878594899999996,35.878594899999996,-106.008913,-106.0085263,-106.0085263,"119 CITIES OF GOLD RD.  POJOAQUE, NM 87506","112 Cities of Gold Rd, Santa Fe, NM 87506, USA","112 Cities of Gold Rd, Santa Fe, NM 87506, USA",,Correct,SANTA FE,,Original,948.0,1.0,yes,Active,POINT (-106.0085263 35.8785949),Yes,0.0,Pojoaque,Pueblo of Pojoaque,,,From Original List,,,,,,,,,,,,
949,949,SAN FELIPE CASINO,Correct,SAN FELIPE CASINO,25 HAGEN RD.,26 HAGON RD,26 HAGON RD,SAN FELIPE,ALGODONES,ALGODONES,NM,Correct,NM,87001,Correct,87001.0,35.417218,35.4162076,35.4162076,-106.40437,-106.40173130000001,-106.40173130000001,"25 HAGEN RD.  SAN FELIPE, NM 87001","26 Hagon Rd, Algodones, NM 87001, USA","26 Hagon Rd, Algodones, NM 87001, USA",,Correct,SANDOVAL,,Original,949.0,1.0,yes,Active,POINT (-106.4017313 35.4162076),Yes,0.0,San Felipe,San Felipe Pueblo,,,From Original List,,,,,,,,,,,,
950,950,MOBIL,Can't Validate,MOBIL,128 NM-4,Can't Validate,128 NM-4,WHITE ROCK,Can't Validate,WHITE ROCK,NM,Can't Validate,NM,87544,Can't Validate,87544.0,35.828281,Can't Validate,35.828281,-106.208289,Can't Validate,-106.208289,"128 NM-4  WHITE ROCK, NM 87544",Can't Validate,"128 NM-4 WHITE ROCK, NM 87544",,Can't Validate,LOS ALAMOS,,Original,950.0,,,Can't Validate,POINT (-106.208289 35.828281),No,0.05485125264671105,,,San Ildefonso,San Ildefonso Pueblo,From Original List,,,,,,,,,,,,
951,951,QUIK STOP,Correct,QUIK STOP,11 ROVER BLVD.,Correct,11 ROVER BLVD.,LOS ALAMOS,Correct,LOS ALAMOS,NM,Correct,NM,87544,Correct,87544.0,35.82863,Correct,35.82863,-106.206508,Correct,-106.206508,"11 ROVER BLVD.  LOS ALAMOS, NM 87544",Correct,"11 ROVER BLVD. LOS ALAMOS, NM 87544",,Correct,LOS ALAMOS,,Original,951.0,1.0,yes,Active,POINT (-106.206508 35.82863),No,0.034952543737625824,,,San Ildefonso,San Ildefonso Pueblo,From Original List,,,,,,,,,,,,
952,952,TOTAVI PHILIPS 66,Correct,TOTAVI PHILIPS 66,2007 HWY. 502 (LOS ALAMOS HWY.),2007 -502,2007 -502,SANTA FE,Correct,SANTA FE,NM,Correct,NM,87506,Correct,87506.0,35.88447700000001,35.874758899999996,35.874758899999996,-106.046958,-106.17810619999999,-106.17810619999999,"2007 HWY. 502 (LOS ALAMOS HWY.)  SANTA FE, NM 87506","2007 NM-502, Santa Fe, NM 87506, USA","2007 NM-502, Santa Fe, NM 87506, USA",,Correct,SANTA FE,,Original,952.0,,,Active,POINT (-106.1781062 35.8747589),Yes,0.0,San Ildefonso,San Ildefonso Pueblo,,,From Original List,,,,,,,,,,,,
953,953,WHITE ROCK STORE,Can't Validate,WHITE ROCK STORE,66 NM HWY. 4,Can't Validate,66 NM HWY. 4,WHITE ROCK,Can't Validate,WHITE ROCK,NM,Can't Validate,NM,87506,Can't Validate,87506.0,35.824381,Can't Validate,35.824381,-106.21835,Can't Validate,-106.21835,"66 NM HWY. 4  WHITE ROCK, NM 87506",Can't Validate,"66 NM HWY. 4 WHITE ROCK, NM 87506",,Can't Validate,LOS ALAMOS,,Original,953.0,,,Can't Validate,POINT (-106.21835 35.824381),No,0.2661048099776486,,,San Ildefonso,San Ildefonso Pueblo,From Original List,,,,,,,,,,,,
954,954,BIEN MUR GIFT SHOP,BIEN MUR INDIAN MARKET CENTER,BIEN MUR INDIAN MARKET CENTER,100 BIEN MUR DR. N.E.,Correct,100 BIEN MUR DR. N.E.,ALBUQUERQUE,Correct,ALBUQUERQUE,NM,Correct,NM,87113,Correct,87113.0,35.20150800000001,Correct,35.20150800000001,-106.569045,Correct,-106.569045,"100 BIEN MUR DR. N.E.  ALBUQUERQUE, NM 87113",Correct,"100 BIEN MUR DR. N.E. ALBUQUERQUE, NM 87113",,Correct,BERNALILLO,,Original,954.0,,,Active,POINT (-106.569045 35.20150800000001),Yes,0.0,Sandia,Sandia Pueblo,,,From Original List,,,,,,828871,"BIEN MUR INDIAN MARKET CENTER, INC.",MARSHA ADAMS,10524 ROYAL TROON ALBUQUERQUE NM 87111,ALBUQUERQUE,NM,87111
955,955,BIEN MUR TRAVEL CENTER/ VALERO,Correct,BIEN MUR TRAVEL CENTER/ VALERO,100 BIEN MUR DRIVE NORTHEAST,Correct,100 BIEN MUR DRIVE NORTHEAST,ALBUQUERQUE,Correct,ALBUQUERQUE,NM,Correct,NM,87113,Correct,87113.0,35.20150800000001,Correct,35.20150800000001,-106.569045,Correct,-106.569045,"100 BIEN MUR DRIVE NORTHEAST  ALBUQUERQUE, NM 87113",Correct,"100 BIEN MUR DRIVE NORTHEAST ALBUQUERQUE, NM 87113",,Correct,BERNALILLO,,Original,955.0,,,Active,POINT (-106.569045 35.20150800000001),Yes,0.0,Sandia,Sandia Pueblo,,,From Original List,,,,,,,,,,,,
956,956,SANDIA RESORT & CASINO,Correct,SANDIA RESORT & CASINO,30 RAINBOW ROAD NORTHEAST,Correct,30 RAINBOW ROAD NORTHEAST,ALBUQUERQUE,Correct,ALBUQUERQUE,NM,Correct,NM,87113,Correct,87113.0,35.203387,Correct,35.203387,-106.567853,Correct,-106.567853,"30 RAINBOW ROAD NORTHEAST  ALBUQUERQUE, NM 87113",Correct,"30 RAINBOW ROAD NORTHEAST ALBUQUERQUE, NM 87113",,Correct,BERNALILLO,,Original,956.0,,,Active,POINT (-106.567853 35.203387),Yes,0.0,Sandia,Sandia Pueblo,,,From Original List,,,,,,,,,,,,
957,957,TIWA MART/PHILLIPS 66,Correct,TIWA MART/PHILLIPS 66,1660 ROY AVENUE NORTH EAST,Correct,1660 ROY AVENUE NORTH EAST,ALBUQUERQUE,Correct,ALBUQUERQUE,NM,Correct,NM,87113,Correct,87113.0,35.20662,Correct,35.20662,-106.5871,Correct,-106.5871,"1660 ROY AVENUE NORTH EAST  ALBUQUERQUE, NM 87113",Correct,"1660 ROY AVENUE NORTH EAST ALBUQUERQUE, NM 87113",,Correct,BERNALILLO,,Original,957.0,,,Active,POINT (-106.5871 35.20662),Yes,0.0,Sandia,Sandia Pueblo,,,From Original List,,,,,,,,,,,,
958,958,SANTA ANA STAR CASINO,SANTA ANA STAR CASINO HOTEL,SANTA ANA STAR CASINO HOTEL,54 JEMEZ DAM ROAD,54 JEMEZ CANYON DAM ROAD,54 JEMEZ CANYON DAM ROAD,BERNALILLO,Correct,BERNALILLO,NM,Correct,NM,87004,Correct,87004.0,35.328329,35.3283304,35.3283304,-106.566569,-106.564826,-106.564826,"54 JEMEZ DAM ROAD  BERNALILLO, NM 87004","54 Jemez Canyon Dam Road, Bernalillo, NM 87004, USA","54 Jemez Canyon Dam Road, Bernalillo, NM 87004, USA",,Correct,SANDOVAL,,Original,958.0,,,Active,POINT (-106.564826 35.3283304),Yes,0.0,Santa Ana,Santa Ana Pueblo,,,From Original List,,,,,,,,,,,,
959,959,SANTA CLARAN HOTEL AND CASINO,Correct,SANTA CLARAN HOTEL AND CASINO,460 N. RIVERSIDE DR.,Correct,460 N. RIVERSIDE DR.,ESPANOLA,Correct,ESPANOLA,NM,Correct,NM,87532,Correct,87532.0,35.995616,Correct,35.995616,-106.066424,Correct,-106.066424,"460 N. RIVERSIDE DR.  ESPANOLA, NM 87532",Correct,"460 N. RIVERSIDE DR. ESPANOLA, NM 87532",,Correct,RIO ARRIBA,,Original,959.0,,,Active,POINT (-106.066424 35.995616),Yes,0.0,Santa Clara,Santa Clara Pueblo,,,From Original List,,,,,,,,,,,,
960,960,TAOS MOUNTAIN CASINO - SMOKE SHOP,Correct,TAOS MOUNTAIN CASINO - SMOKE SHOP,992 HAIL CREEK RD.,700 VETERANS HWY,700 VETERANS HWY,TAOS,Correct,TAOS,NM,Correct,NM,87571,Correct,87571.0,36.42479,36.427971899999996,36.427971899999996,-105.5702,-105.56186059999999,-105.56186059999999,"992 HAIL CREEK RD.  TAOS, NM 87571","700 Veterans Hwy, Taos, NM 87571, USA","700 Veterans Hwy, Taos, NM 87571, USA",,Correct,TAOS,,Original,960.0,,,Active,POINT (-105.5618606 36.4279719),Yes,0.0,Taos,Taos Pueblo,,,From Original List,,,,,,,,,,,,
961,961,RANCHO ENCANTADO,FOUR SEASONS RESORT RANCHO ENCANTADO SANTA FE,FOUR SEASONS RESORT RANCHO ENCANTADO SANTA FE,198 NM 592,198 -592,198 -592,UNINCORPORATED SANTA FE COUNTY,SANTA FE,SANTA FE,NM,Correct,NM,87506,Correct,87506.0,35.796126,35.7999805,35.7999805,-105.928842,-105.92214879999999,-105.92214879999999,"198 NM 592  UNINCORPORATED SANTA FE COUNTY, NM 87506","198 NM-592, Santa Fe, NM 87506, USA","198 NM-592, Santa Fe, NM 87506, USA",,Correct,SANTA FE,,Original,961.0,,,Active,POINT (-105.9221488 35.7999805),No,0.4795034293948433,,,Tesuque,Tesuque Pueblo,From Original List,,,,,,,,,,,,
962,962,APACHE NUGGET CASINO,Correct,APACHE NUGGET CASINO,HWY. 550 & HWY. 537,Correct,HWY. 550 & HWY. 537,CUBA,Correct,CUBA,NM,Correct,NM,87013,Correct,87013.0,36.14632,Correct,36.14632,-107.2642,Correct,-107.2642,"HWY. 550 & HWY. 537  CUBA, NM 87013",Correct,"HWY. 550 & HWY. 537 CUBA, NM 87013",,Correct,SANDOVAL,,Original,962.0,,,Active,POINT (-107.2642 36.14632),Yes,0.0,Jicarilla Apache Nation,Jicarilla Apache Nation Reservation,,,From Original List,,,,,,,,,,,,
963,963,APACHE NUGGET TRAVEL CENTER,JICARILLA TRAVEL CENTER,JICARILLA TRAVEL CENTER,U.S. HWY. 64,Correct,U.S. HWY. 64,DULCE,Correct,DULCE,NM,Correct,NM,87528,Correct,87528.0,,Correct,,,Correct,,"U.S. HWY. 64  DULCE, NM 87528",Correct,"U.S. HWY. 64 DULCE, NM 87528",,,,,Original,963.0,1.0,yes,Active,POINT (nan nan),Unknown,,Unknown,Unknown,,,From Original List,,,,,,,,,,,,
964,964,WILDHORSE CASINO,Correct,WILDHORSE CASINO,13603 U.S. HWY. 64,13603 US-64,13603 US-64,DULCE,Correct,DULCE,NM,Correct,NM,87528,Correct,87528.0,36.933963,36.935363,36.935363,-106.987426,-106.98686869999999,-106.98686869999999,"13603 U.S. HWY. 64  DULCE, NM 87528","13603 US-64, Dulce, NM 87528, USA","13603 US-64, Dulce, NM 87528, USA",,Correct,RIO ARRIBA,,Original,964.0,1.0,yes,Active,POINT (-106.9868687 36.935363),Yes,0.0,Jicarilla Apache Nation,Jicarilla Apache Nation Reservation,,,From Original List,,,,,,,,,,,,
965,965,PUEBLO GAS & SMOKE SHOP,Correct,PUEBLO GAS & SMOKE SHOP,1 NM-22,Correct,1 NM-22,SANTO DOMINGO PUEBLO,Correct,SANTO DOMINGO PUEBLO,NM,Correct,NM,87052,Correct,87052.0,35.47832000000001,Correct,35.47832000000001,-106.3124,Correct,-106.3124,"1 NM-22  SANTO DOMINGO PUEBLO, NM 87052",Correct,"1 NM-22 SANTO DOMINGO PUEBLO, NM 87052",,Correct,SANDOVAL,,Original,965.0,,,Active,POINT (-106.3124 35.47832000000001),Yes,0.0,Santo Domingo,Santo Domingo Pueblo,,,From Original List,,,,,,,,,,,,
966,966,ROSETTA'S TRADING POST,Correct,ROSETTA'S TRADING POST,24 TESUQUE ST,224 POJOAQUE ST,224 POJOAQUE ST,SANTO DOMINGO,KEWA PUEBLO,KEWA PUEBLO,NM,Correct,NM,87052,Correct,87052.0,35.515949,35.5148977,35.5148977,-106.356553,-106.35978290000001,-106.35978290000001,"24 TESUQUE ST  SANTO DOMINGO, NM 87052","224 Pojoaque St, Kewa Pueblo, NM 87052, USA","224 Pojoaque St, Kewa Pueblo, NM 87052, USA",,Correct,SANDOVAL,,Original,966.0,,,Active,POINT (-106.3597829 35.5148977),Yes,0.0,Santo Domingo,Santo Domingo Pueblo,,,From Original List,,,,,,,,,,,,
967,967,7 2 11 FOOD STORE / MOBIL,Correct,7 2 11 FOOD STORE / MOBIL,1 MILE EAST OF SAN JUAN RIVER BRIDGE,Correct,1 MILE EAST OF SAN JUAN RIVER BRIDGE,SHIPROCK,Correct,SHIPROCK,NM,Correct,NM,87420,Correct,87420.0,,Correct,,,Correct,,"1 MILE EAST OF SAN JUAN RIVER BRIDGE  SHIPROCK, NM 87420",Correct,"1 MILE EAST OF SAN JUAN RIVER BRIDGE SHIPROCK, NM 87420",,,,,Original,967.0,,,Active,POINT (nan nan),Unknown,,Unknown,Unknown,,,From Original List,,,,,,,,,,,,
968,968,GULF EXPRESS,SHIPROCK EXPRESS,SHIPROCK EXPRESS,SOUTH HIGHWAY 491,Correct,SOUTH HIGHWAY 491,SHIPROCK,Correct,SHIPROCK,NM,Correct,NM,87420,Correct,87420.0,36.78445,Correct,36.78445,-108.6861,Correct,-108.6861,"SOUTH HIGHWAY 491  SHIPROCK, NM 87420",Correct,"SOUTH HIGHWAY 491 SHIPROCK, NM 87420",,Correct,SAN JUAN,,Original,968.0,1.0,yes,Active,POINT (-108.6861 36.78445),Yes,0.0,Navajo Nation,Navajo Nation Reservation,,,From Original List,,,,,,2203792,"SHIPROCK EXPRESS, L.L.C.","KURT A. SOMMER, ESQ.",200 WEST MARCY ST STE 129 SANTA FE NM 87501,SANTA FE,NM,87501
969,969,Dino Mart/Sinclair,Correct,Dino Mart/Sinclair,HWY. 64 W.,Correct,HWY. 64 W.,SHIPROCK,Correct,SHIPROCK,NM,Correct,NM,87420,Correct,87420.0,36.79419,Correct,36.79419,-108.8393,Correct,-108.8393,"HWY. 64 W.  SHIPROCK, NM 87420",Correct,"HWY. 64 W. SHIPROCK, NM 87420",,Correct,SAN JUAN,,Original,969.0,,,Active,POINT (-108.8393 36.79419),Yes,0.0,Navajo Nation,Navajo Nation Reservation,,,From Original List,,,,,,,,,,,,
970,970,BIG ROCK TRADING POST  INC.,Correct,BIG ROCK TRADING POST  INC.,3761 U.S. HWY. 64,3761 US-64,3761 US-64,WATERFLOW,FRUITLAND,FRUITLAND,NM,Correct,NM,87421,87416,87416.0,36.75436,36.754365,36.754365,-108.4351,-108.43509399999999,-108.43509399999999,"3761 U.S. HWY. 64  WATERFLOW, NM 87421","3761 US-64, Fruitland, NM 87416, USA","3761 US-64, Fruitland, NM 87416, USA",,Correct,SAN JUAN,,Original,970.0,,,Active,POINT (-108.435094 36.754365),No,0.5950339221078607,,,Navajo Nation,Navajo Nation Reservation,From Original List,,,,,,,,,,,,
971,971,CROWNPOINT TRADING #503,Can't Validate,CROWNPOINT TRADING #503,CORNER OF CHACO BLVD. & CHAPTER HOUSE RD.,Can't Validate,CORNER OF CHACO BLVD. & CHAPTER HOUSE RD.,CROWNPOINT,Can't Validate,CROWNPOINT,NM,Can't Validate,NM,87313,Can't Validate,87313.0,35.6844718,Can't Validate,35.6844718,-108.1460169,Can't Validate,-108.1460169,"CORNER OF CHACO BLVD. & CHAPTER HOUSE RD.  CROWNPOINT, NM 87313",Can't Validate,"CORNER OF CHACO BLVD. & CHAPTER HOUSE RD. CROWNPOINT, NM 87313",,Can't Validate,MCKINLEY,,Google,971.0,,,Can't Validate,POINT (-108.1460169 35.6844718),Yes,0.0,Navajo Nation,Navajo Nation Off-Reservation Trust Land,,,From Original List,,,,,,,,,,,,
972,972,FLOWING WATER NAVAJO CASINO,Correct,FLOWING WATER NAVAJO CASINO,2710 E. HWY. 64,2710 US-64,2710 US-64,SHIPROCK,Correct,SHIPROCK,NM,Correct,NM,87420,Correct,87420.0,36.77837,36.7751345,36.7751345,-108.6962,-108.60782490000001,-108.60782490000001,"2710 E. HWY. 64  SHIPROCK, NM 87420","2710 US-64, Shiprock, NM 87420, USA","2710 US-64, Shiprock, NM 87420, USA",,Correct,SAN JUAN,,Original,972.0,,,Active,POINT (-108.6078249 36.7751345),Yes,0.0,Navajo Nation,Navajo Nation Reservation,,,From Original List,,,,,,,,,,,,
973,973,GIANT #2202,Can't Validate,GIANT #2202,JCT. HWY. 491 & 64,Can't Validate,JCT. HWY. 491 & 64,SHIPROCK,Can't Validate,SHIPROCK,NM,Can't Validate,NM,87420,Can't Validate,87420.0,36.77718,Can't Validate,36.77718,-108.6966,Can't Validate,-108.6966,"JCT. HWY. 491 & 64  SHIPROCK, NM 87420",Can't Validate,"JCT. HWY. 491 & 64 SHIPROCK, NM 87420",,Can't Validate,SAN JUAN,,Original,973.0,,,Can't Validate,POINT (-108.6966 36.77718),Yes,0.0,Navajo Nation,Navajo Nation Reservation,,,From Original List,,,,,,,,,,,,
974,974,GIANT #5246,Can't Validate,GIANT #5246,CHACO BLVD.,Can't Validate,CHACO BLVD.,CROWNPOINT,Can't Validate,CROWNPOINT,NM,Can't Validate,NM,87313,Can't Validate,87313.0,35.68705999999999,Can't Validate,35.68705999999999,-108.1535,Can't Validate,-108.1535,"CHACO BLVD.  CROWNPOINT, NM 87313",Can't Validate,"CHACO BLVD. CROWNPOINT, NM 87313",,Can't Validate,MCKINLEY,,Original,974.0,,,Can't Validate,POINT (-108.1535 35.68705999999999),Yes,0.0,Navajo Nation,Navajo Nation Off-Reservation Trust Land,,,From Original List,,,,,,,,,,,,
975,975,GIANT #7204,Can't Validate,GIANT #7204,HWY. 491 AT TOLAKAI TRADING POST,Can't Validate,HWY. 491 AT TOLAKAI TRADING POST,YAHTAHEY,Can't Validate,YAHTAHEY,NM,Can't Validate,NM,87375,Can't Validate,87375.0,35.6212187,Can't Validate,35.6212187,-108.7798548,Can't Validate,-108.7798548,"HWY. 491 AT TOLAKAI TRADING POST  YAHTAHEY, NM 87375",Can't Validate,"HWY. 491 AT TOLAKAI TRADING POST YAHTAHEY, NM 87375",,Can't Validate,MCKINLEY,,Google,975.0,,,Can't Validate,POINT (-108.7798548 35.6212187),Yes,0.0,Navajo Nation,Navajo Nation Off-Reservation Trust Land,,,From Original List,,,,,,,,,,,,
976,976,GIANT #7266,Can't Validate,GIANT #7266,U.S. HWY. 491,Can't Validate,U.S. HWY. 491,NEWCOMB,Can't Validate,NEWCOMB,NM,Can't Validate,NM,87455,Can't Validate,87455.0,36.28474,Can't Validate,36.28474,-108.7053,Can't Validate,-108.7053,"U.S. HWY. 491  NEWCOMB, NM 87455",Can't Validate,"U.S. HWY. 491 NEWCOMB, NM 87455",,Can't Validate,SAN JUAN,,Original,976.0,,,Can't Validate,POINT (-108.7053 36.28474),Yes,0.0,Navajo Nation,Navajo Nation Reservation,,,From Original List,,,,,,,,,,,,
977,977,GIANT #7270 STORE,Can't Validate,GIANT #7270 STORE,3214 HWY. 64,Can't Validate,3214 HWY. 64,WATERFLOW,Can't Validate,WATERFLOW,NM,Can't Validate,NM,87421,Can't Validate,87421.0,36.750424,Can't Validate,36.750424,-108.529903,Can't Validate,-108.529903,"3214 HWY. 64  WATERFLOW, NM 87421",Can't Validate,"3214 HWY. 64 WATERFLOW, NM 87421",,Can't Validate,SAN JUAN,,Original,977.0,,,Can't Validate,POINT (-108.529903 36.750424),No,0.3655871082003943,,,Navajo Nation,Navajo Nation Reservation,From Original List,,,,,,,,,,,,
978,978,GIANT #7270 WATERFLOW LIQUORS,Can't Validate,GIANT #7270 WATERFLOW LIQUORS,3215 HWY. 64,Can't Validate,3215 HWY. 64,WATERFLOW,Can't Validate,WATERFLOW,NM,Can't Validate,NM,87421,Can't Validate,87421.0,36.750464,Can't Validate,36.750464,-108.529449,Can't Validate,-108.529449,"3215 HWY. 64  WATERFLOW, NM 87421",Can't Validate,"3215 HWY. 64 WATERFLOW, NM 87421",,Can't Validate,SAN JUAN,,Original,978.0,,,Can't Validate,POINT (-108.529449 36.750464),No,0.3590130504407487,,,Navajo Nation,Navajo Nation Reservation,From Original List,,,,,,,,,,,,
979,979,GIANT #7310,Can't Validate,GIANT #7310,3890 U.S. HWY. 64 (ZIA TRADING POST),Can't Validate,3890 U.S. HWY. 64 (ZIA TRADING POST),WATERFLOW,Can't Validate,WATERFLOW,NM,Can't Validate,NM,87421,Can't Validate,87421.0,36.75985410000001,Can't Validate,36.75985410000001,-108.4912857,Can't Validate,-108.4912857,"3890 U.S. HWY. 64 (ZIA TRADING POST)  WATERFLOW, NM 87421",Can't Validate,"3890 U.S. HWY. 64 (ZIA TRADING POST) WATERFLOW, NM 87421",,Can't Validate,SAN JUAN,,Google,979.0,,,Can't Validate,POINT (-108.4912857 36.75985410000001),No,0.2973712424639104,,,Navajo Nation,Navajo Nation Reservation,From Original List,,,,,,,,,,,,
980,980,GIANT/CONOCO #5109 TSE BONITO,Can't Validate,GIANT/CONOCO #5109 TSE BONITO,HWY. 264,Can't Validate,HWY. 264,TSE BONITO,Can't Validate,TSE BONITO,NM,Can't Validate,NM,86515,Can't Validate,86515.0,35.65711,Can't Validate,35.65711,-109.04,Can't Validate,-109.04,"HWY. 264  TSE BONITO, NM 86515",Can't Validate,"HWY. 264 TSE BONITO, NM 86515",,Can't Validate,MCKINLEY,,Original,980.0,,,Can't Validate,POINT (-109.04 35.65711),No,0.2241977071437953,,,Navajo Nation,Navajo Nation Reservation,From Original List,,,,,,,,,,,,
981,981,GIANT/MUSTANG #7251,Can't Validate,GIANT/MUSTANG #7251,U.S. HWY. 491,Can't Validate,U.S. HWY. 491,TOHATCHI,Can't Validate,TOHATCHI,NM,Can't Validate,NM,87325,Can't Validate,87325.0,35.85528,Can't Validate,35.85528,-108.7541,Can't Validate,-108.7541,"U.S. HWY. 491  TOHATCHI, NM 87325",Can't Validate,"U.S. HWY. 491 TOHATCHI, NM 87325",,Can't Validate,MCKINLEY,,Original,981.0,,,Can't Validate,POINT (-108.7541 35.85528),Yes,0.0,Navajo Nation,Navajo Nation Reservation,,,From Original List,,,,,,,,,,,,
982,982,LITTLEWATER EXPRESS #522,Can't Validate,LITTLEWATER EXPRESS #522,U.S. HWY. 491,Can't Validate,U.S. HWY. 491,LITTLEWATER,Can't Validate,LITTLEWATER,NM,Can't Validate,NM,87420,Can't Validate,87420.0,36.44354000000001,Can't Validate,36.44354000000001,-108.7215,Can't Validate,-108.7215,"U.S. HWY. 491  LITTLEWATER, NM 87420",Can't Validate,"U.S. HWY. 491 LITTLEWATER, NM 87420",,Can't Validate,SAN JUAN,,Original,982.0,,,Can't Validate,POINT (-108.7215 36.44354000000001),Yes,0.0,Navajo Nation,Navajo Nation Reservation,,,From Original List,,,,,,,,,,,,
983,983,NNOG #140 TOHATCHI CHEVRON,Can't Validate,NNOG #140 TOHATCHI CHEVRON,309 U.S. HWY. 491,Can't Validate,309 U.S. HWY. 491,TOHATCHI,Can't Validate,TOHATCHI,NM,Can't Validate,NM,87325,Can't Validate,87325.0,35.85528,Can't Validate,35.85528,-108.7541,Can't Validate,-108.7541,"309 U.S. HWY. 491  TOHATCHI, NM 87325",Can't Validate,"309 U.S. HWY. 491 TOHATCHI, NM 87325",,Can't Validate,MCKINLEY,,Original,983.0,,,Can't Validate,POINT (-108.7541 35.85528),Yes,0.0,Navajo Nation,Navajo Nation Reservation,,,From Original List,,,,,,,,,,,,
984,984,NNOG 520 TEXACO,Can't Validate,NNOG 520 TEXACO,HWY. 264,Can't Validate,HWY. 264,TSE BONITO,Can't Validate,TSE BONITO,NM,Can't Validate,NM,86515,Can't Validate,86515.0,35.65711,Can't Validate,35.65711,-109.04,Can't Validate,-109.04,"HWY. 264  TSE BONITO, NM 86515",Can't Validate,"HWY. 264 TSE BONITO, NM 86515",,Can't Validate,MCKINLEY,,Original,984.0,,,Can't Validate,POINT (-109.04 35.65711),No,0.2241977071437953,,,Navajo Nation,Navajo Nation Reservation,From Original List,,,,,,,,,,,,
985,985,NORTHERN EDGE NAVAJO CASINO,Correct,NORTHERN EDGE NAVAJO CASINO,NM HWY. 371 S. & BISTI HWY. ON UPPER FRUITLAND RD. (NAVAJO RTE. 36),2752 INDIAN SERVICE RD 36,2752 INDIAN SERVICE RD 36,SAN JUAN,FRUITLAND,FRUITLAND,NM,Correct,NM,87401,87416,87416.0,36.7109098,36.7162915,36.7162915,-108.2377822,-108.25566699999999,-108.25566699999999,"NM HWY. 371 S. & BISTI HWY. ON UPPER FRUITLAND RD. (NAVAJO RTE. 36)  SAN JUAN, NM 87401","2752 Indian Service Rd 36, Fruitland, NM 87416, USA","2752 Indian Service Rd 36, Fruitland, NM 87416, USA",,Correct,SAN JUAN,,Google,985.0,,,Active,POINT (-108.255667 36.7162915),Yes,0.0,Navajo Nation,Navajo Nation Reservation,,,From Original List,,,,,,,,,,,,
986,986,SHELL / QUIK MART,Can't Validate,SHELL / QUIK MART,HIGHWAY 64 AND 491 SOUTH,Can't Validate,HIGHWAY 64 AND 491 SOUTH,SHIPROCK,Can't Validate,SHIPROCK,NM,Can't Validate,NM,87420,Can't Validate,87420.0,36.77718,Can't Validate,36.77718,-108.6966,Can't Validate,-108.6966,"HIGHWAY 64 AND 491 SOUTH  SHIPROCK, NM 87420",Can't Validate,"HIGHWAY 64 AND 491 SOUTH SHIPROCK, NM 87420",SAN JUAN,Can't Validate,SAN JUAN,,Original,986.0,,,Can't Validate,POINT (-108.6966 36.77718),Yes,0.0,Navajo Nation,Navajo Nation Reservation,,,From Original List,,,,,,,,,,,,
987,987,RED MESA #507,Can't Validate,RED MESA #507,U.S. HWY. 491,Can't Validate,U.S. HWY. 491,NASCHITTI,Can't Validate,NASCHITTI,NM,Can't Validate,NM,87364,Can't Validate,87364.0,36.06502,Can't Validate,36.06502,-108.682,Can't Validate,-108.682,"U.S. HWY. 491  NASCHITTI, NM 87364",Can't Validate,"U.S. HWY. 491 NASCHITTI, NM 87364",,Can't Validate,SAN JUAN,,Original,987.0,,,Can't Validate,POINT (-108.682 36.06502),Yes,0.0,Navajo Nation,Navajo Nation Reservation,,,From Original List,,,,,,,,,,,,
988,988,RED MESA #511,Can't Validate,RED MESA #511,JCT. HWY. 491 & 134,Can't Validate,JCT. HWY. 491 & 134,SHEEP SPRINGS,Can't Validate,SHEEP SPRINGS,NM,Can't Validate,NM,87364,Can't Validate,87364.0,36.1455,Can't Validate,36.1455,-108.7074,Can't Validate,-108.7074,"JCT. HWY. 491 & 134  SHEEP SPRINGS, NM 87364",Can't Validate,"JCT. HWY. 491 & 134 SHEEP SPRINGS, NM 87364",,Can't Validate,SAN JUAN,,Original,988.0,,,Can't Validate,POINT (-108.7074 36.1455),Yes,0.0,Navajo Nation,Navajo Nation Reservation,,,From Original List,,,,,,,,,,,,
989,989,RED MESA EXPRESS,Correct,RED MESA EXPRESS,30 YATAHEY LOOP RD. (JCT. HWY. 491 & 264),US-491,US-491,YAHTAHEY,YAH-TA-HEY,YAH-TA-HEY,NM,Correct,NM,87375,Correct,87375.0,37.8722591,35.626616,35.626616,-109.33804750000002,-108.7812186,-108.7812186,"30 YATAHEY LOOP RD. (JCT. HWY. 491 & 264)  YAHTAHEY, NM 87375","US-491, Yah-Ta-Hey, NM 87375, USA","US-491, Yah-Ta-Hey, NM 87375, USA",,Correct,MCKINLEY,,Google,989.0,,,Closed,POINT (-108.7812186 35.626616),No,0.20443258784755647,,,Navajo Nation,Navajo Nation Off-Reservation Trust Land,From Original List,,,,,,,,,,,,
990,990,RED MESA EXPRESS #520,Can't Validate,RED MESA EXPRESS #520,NM HWY. 197/NAVAJO RTE. 9 (27 MILES WEST OF CUBA N.W.),Can't Validate,NM HWY. 197/NAVAJO RTE. 9 (27 MILES WEST OF CUBA N.W.),TORREON,Can't Validate,TORREON,NM,Can't Validate,NM,87313,Can't Validate,87313.0,35.8923941,Can't Validate,35.8923941,-107.1569618,Can't Validate,-107.1569618,"NM HWY. 197/NAVAJO RTE. 9 (27 MILES WEST OF CUBA N.W.)  TORREON, NM 87313",Can't Validate,"NM HWY. 197/NAVAJO RTE. 9 (27 MILES WEST OF CUBA N.W.) TORREON, NM 87313",,Can't Validate,SANDOVAL,,Google,990.0,,,Can't Validate,POINT (-107.1569618 35.8923941),No,1.803222806755504,,,Navajo Nation,Navajo Nation Off-Reservation Trust Land,From Original List,,,,,,,,,,,,
991,991,SAGEBRUSH LIQUORS,Can't Validate,SAGEBRUSH LIQUORS,452A HWY. 264,Can't Validate,452A HWY. 264,YAHTAHEY,Can't Validate,YAHTAHEY,NM,Can't Validate,NM,87375,Can't Validate,87375.0,35.63595,Can't Validate,35.63595,-108.8551,Can't Validate,-108.8551,"452A HWY. 264  YAHTAHEY, NM 87375",Can't Validate,"452A HWY. 264 YAHTAHEY, NM 87375",,Can't Validate,MCKINLEY,,Original,991.0,,,Can't Validate,POINT (-108.8551 35.63595),No,0.17066452684368386,,,Navajo Nation,Navajo Nation Off-Reservation Trust Land,From Original List,,,,,,,,,,,,
992,992,SOC/NAVAJO CONOCO #30,Can't Validate,SOC/NAVAJO CONOCO #30,NAVAJO RT. 12 & SHEPPARD SPRINGS RD.,Can't Validate,NAVAJO RT. 12 & SHEPPARD SPRINGS RD.,NAVAJO,Can't Validate,NAVAJO,NM,Can't Validate,NM,87328,Can't Validate,87328.0,35.90823,Can't Validate,35.90823,-109.0345,Can't Validate,-109.0345,"NAVAJO RT. 12 & SHEPPARD SPRINGS RD.  NAVAJO, NM 87328",Can't Validate,"NAVAJO RT. 12 & SHEPPARD SPRINGS RD. NAVAJO, NM 87328",,Can't Validate,MCKINLEY,,Original,992.0,,,Can't Validate,POINT (-109.0345 35.90823),Yes,0.0,Navajo Nation,Navajo Nation Reservation,,,From Original List,,,,,,,,,,,,
993,993,VALLEY TRADING POST,Correct,VALLEY TRADING POST,3435 U.S. HWY. 64,3435 US-64,3435 US-64,WATERFLOW,Correct,WATERFLOW,NM,Correct,NM,87421,Correct,87421.0,36.76005900000001,36.75985410000001,36.75985410000001,-108.491388,-108.4912857,-108.4912857,"3435 U.S. HWY. 64  WATERFLOW, NM 87421","3435 US-64, Waterflow, NM 87421, USA","3435 US-64, Waterflow, NM 87421, USA",,Correct,SAN JUAN,,Original,993.0,,,Active,POINT (-108.4912857 36.75985410000001),No,0.2973712424639104,,,Navajo Nation,Navajo Nation Reservation,From Original List,,,,,,,,,,,,
994,994,OHKAY CASINO,OHKAY HOTEL CASINO,OHKAY HOTEL CASINO,68 NM-291,Correct,68 NM-291,OHKAY OWINGEH,Correct,OHKAY OWINGEH,NM,Correct,NM,87566,Correct,87566.0,36.08454,Correct,36.08454,-106.0785,Correct,-106.0785,"68 NM-291  OHKAY OWINGEH, NM 87566",Correct,"68 NM-291 OHKAY OWINGEH, NM 87566",,Correct,RIO ARRIBA,,Original,994.0,,,Active,POINT (-106.0785 36.08454),Yes,0.0,Ohkay Owingeh,Ohkay Owingeh,,,From Original List,,,,,,,,,,,,
995,995,SKY CITY CASINO,SKY CITY CASINO HOTEL,SKY CITY CASINO HOTEL,"INTERSTATE 40, EXIT 102",I-40 EXIT 102,I-40 EXIT 102,ACOMA,ACOMA PUEBLO,ACOMA PUEBLO,NM,Correct,NM,87034,Correct,87034.0,35.07617,35.07616779999999,35.07616779999999,-107.5554,-107.55544420000001,-107.55544420000001,"INTERSTATE 40, EXIT 102  ACOMA, NM 87034","I-40 Exit 102, Acoma Pueblo, NM 87034, USA","I-40 Exit 102, Acoma Pueblo, NM 87034, USA",,Correct,CIBOLA,,Original,995.0,0.0,,Active,POINT (-107.5554442 35.07616779999999),Yes,0.0,Acoma,Acoma Pueblo,,,From Original List,,,,,,,,,,,,
996,996,SKY CITY TRAVEL CENTER,Correct,SKY CITY TRAVEL CENTER,I-40 & EXIT 102,Correct,I-40 & EXIT 102,PUEBLO OF ACOMA,Correct,PUEBLO OF ACOMA,NM,Correct,NM,87034,Correct,87034.0,34.71002,Correct,34.71002,-107.5742,Correct,-107.5742,"I-40 & EXIT 102  PUEBLO OF ACOMA, NM 87034",Correct,"I-40 & EXIT 102 PUEBLO OF ACOMA, NM 87034",,Correct,CIBOLA,,Original,996.0,,,Active,POINT (-107.5742 34.71002),Yes,0.0,Laguna,Laguna Pueblo,,,From Original List,,,,,,,,,,,,
997,997,SKY WAY TRAVEL CENTER,SKYWAY TRAVEL CENTER,SKYWAY TRAVEL CENTER,600 MCBRIDE RD.,Correct,600 MCBRIDE RD.,GRANTS,Correct,GRANTS,NM,Correct,NM,87020,Correct,87020.0,35.085479,Correct,35.085479,-107.769508,Correct,-107.769508,"600 MCBRIDE RD.  GRANTS, NM 87020",Correct,"600 MCBRIDE RD. GRANTS, NM 87020",,Correct,CIBOLA,,Original,997.0,1.0,maybe,Active,POINT (-107.769508 35.085479),No,1.1770471844560586,,,Acoma,Acoma Pueblo,From Original List,,,,,,,,,,,,
998,998,PUEBLO DE COCHITI CONVENIENCE STORE,Correct,PUEBLO DE COCHITI CONVENIENCE STORE,1405 COCHITI HIGHWAY,Correct,1405 COCHITI HIGHWAY,COCHITI LAKE,Correct,COCHITI LAKE,NM,Correct,NM,87083,Correct,87083.0,35.647701,Correct,35.647701,-106.331848,Correct,-106.331848,"1405 COCHITI HIGHWAY  COCHITI LAKE, NM 87083",Correct,"1405 COCHITI HIGHWAY COCHITI LAKE, NM 87083",,Correct,SANDOVAL,,Original,998.0,,,Active,POINT (-106.331848 35.647701),Yes,0.0,Cochiti,Pueblo de Cochiti,,,From Original List,,,,,,,,,,,,
999,999,ROMEROS MARKET  INC.,Correct,ROMEROS MARKET  INC.,PO BOX 1245,Correct,PO BOX 1245,PENA BLANCA,Correct,PENA BLANCA,NM,Correct,NM,87041,Correct,87041.0,35.5608705,Correct,35.5608705,-106.340877,Correct,-106.340877,"PO BOX 1245  PENA BLANCA, NM 87041",Correct,"PO BOX 1245 PENA BLANCA, NM 87041",,Correct,SANDOVAL,,Google,999.0,,,Active,POINT (-106.340877 35.5608705),No,0.07825371199768122,,,Santo Domingo,Santo Domingo Pueblo,From Original List,,,,,,,,,,,,
1000,1000,LIL' ISLAND TOBACCO & COFFEE,Correct,LIL' ISLAND TOBACCO & COFFEE,215 TRIBAL ROAD 2,3513 -47,3513 -47,BOSQUE FARMS,Correct,BOSQUE FARMS,NM,Correct,NM,87068,Correct,87068.0,34.880877000000005,34.875682,34.875682,-106.687068,-106.69068670000001,-106.69068670000001,"215 TRIBAL ROAD 2  BOSQUE FARMS, NM 87068","3513 NM-47, Bosque Farms, NM 87068, USA","3513 NM-47, Bosque Farms, NM 87068, USA",,Correct,VALENCIA,,Original,1000.0,,,Active,POINT (-106.6906867 34.875682),Yes,0.0,Isleta,Isleta Pueblo,,,From Original List,,,,,,,,,,,,
1001,1001,CITY MARKET,Correct,CITY MARKET,U.S. HWY. 66 & NM HWY. 504,"US 491 & NM, US-64","US 491 & NM, US-64",SHIPROCK,Correct,SHIPROCK,NM,Correct,NM,87420,Correct,87420.0,35.0426401,36.776073100000005,36.77607310000001,-106.1451185,-108.6996273,-108.6996273,"U.S. HWY. 66 & NM HWY. 504  SHIPROCK, NM 87420","Us 491 & Nm, US-64, Shiprock, NM 87420, USA","Us 491 & Nm, US-64, Shiprock, NM 87420, USA",,Correct,SAN JUAN,,Google,1001.0,,,Active,POINT (-108.6996273 36.77607310000001),Yes,0.0,Navajo Nation,Navajo Nation Reservation,,,From Original List,,,,,,655852,"CITY MARKET, INC.",MERGED OUT OF EXISTENCE,SEE FT11 FOR SERVICE OF PROCESS,,,
1002,1002,MUSTANG,Can't Validate,MUSTANG,491 S. HWY. 64 W.,Can't Validate,491 S. HWY. 64 W.,SHIPROCK,Can't Validate,SHIPROCK,NM,Can't Validate,NM,87420,Can't Validate,87420.0,36.78435,Can't Validate,36.78435,-108.667,Can't Validate,-108.667,"491 S. HWY. 64 W.  SHIPROCK, NM 87420",Can't Validate,"491 S. HWY. 64 W. SHIPROCK, NM 87420",,Can't Validate,SAN JUAN,,Original,1002.0,0.0,,Can't Validate,POINT (-108.667 36.78435),Yes,0.0,Navajo Nation,Navajo Nation Reservation,,,From Original List,,,,,,,,,,,,
1003,1003,RED MESA TRADING CO.,Correct,RED MESA TRADING CO.,HWY. 666 & 64,Correct,HWY. 666 & 64,SHIPROCK,Correct,SHIPROCK,NM,Correct,NM,87420,Correct,87420.0,36.7855543,Correct,36.7855543,-108.6870322,Correct,-108.6870322,"HWY. 666 & 64  SHIPROCK, NM 87420",Correct,"HWY. 666 & 64 SHIPROCK, NM 87420",,Correct,SAN JUAN,,Google,1003.0,,,Active,POINT (-108.6870322 36.78555429999999),Yes,0.0,Navajo Nation,Navajo Nation Reservation,,,From Original List,,,,,,1223940,"RED MESA TRADING CO., INC.",ROBERT G MOSS,501 AIRPORT DR STE 100 FARMINGTON NM 87401,FARMINGTON,NM,87401
1004,1004,FOUR WINDS TRAVEL CENTER,Correct,FOUR WINDS TRAVEL CENTER,2401 12TH ST NW,Correct,2401 12TH ST NW,ALBUQUERQUE,Correct,ALBUQUERQUE,NM,Correct,NM,87104,87102,87102.0,35.109977,35.1092933,35.1092933,-106.658393,-106.65911229999999,-106.65911229999999,"2401 12TH ST NW  ALBUQUERQUE, NM 87104","2401 12th St NW, Albuquerque, NM 87102, USA","2401 12th St NW, Albuquerque, NM 87102, USA",,Correct,BERNALILLO,,Original,1004.0,,,Active,POINT (-106.6591123 35.1092933),No,6.915906742425287,,,Sandia,Sandia Pueblo,From Original List,,,,,,,,,,,,
1941,1941,,,RED ROCK PACKAGE,1204 HWY 371,Correct,1204 HWY 371,GALLUP,Correct,GALLUP,NM,Correct,NM,87301,Correct,87301.0,,,35.5232681,,,-108.1331075,,,"1204 Hwy 371, Gallup, NM, 87301",,Correct,MCKINLEY,,,,,,Active,POINT (-108.1331075 35.5232681),Yes,,Navajo Nation,Navajo Nation Off-Reservation Trust Land,,,New Retailer,Independent,,,N,2222404.0,,,,,,,
1942,1942,,,JAKES LIQUOR STORE,68 CITIES OF GOLD RD,Correct,68 CITIES OF GOLD RD,SANTA FE,Correct,SANTA FE,NM,Correct,NM,87506,Correct,87506.0,,,35.88394500000001,,,-106.01413000000001,,,"68 Cities Of Gold Rd, Santa Fe, NM, 87506",,Correct,SANTA FE,,,,,,Active,POINT (-106.01413 35.88394500000001),Yes,,Pojoaque,Pueblo of Pojoaque,,,New Retailer,Independent,,,N,7180668.0,,,,,,,
1949,1949,,,SAGEBRUSH LIQUORS,425 HWY 264 STE A,Correct,425 HWY 264 STE A,GALLUP,Correct,GALLUP,NM,Correct,NM,87301,Correct,87301.0,,,35.66344470000001,,,-109.0558111,,,"425 Hwy 264 Ste A, Gallup, NM, 87301",,Correct,APACHE,,,,,,Active,POINT (-109.0558111 35.66344470000001),Yes,,Navajo Nation,Navajo Nation Reservation,,,New Retailer,Independent,,,N,1631419.0,,,,,,,
1950,1950,,,LA CHIRIPADA,103 BENT ST,Correct,103 BENT ST,TAOS,Correct,TAOS,NM,Correct,NM,87571,Correct,87571.0,,,36.40828,,,-105.57263,,,"103 Bent St, Taos, NM, 87571",,Correct,TAOS,,,,,,Active,POINT (-105.57263 36.40828),Yes,,Taos,Taos Pueblo,,,New Retailer,Independent,,,N,1408983.0,1840370,LA CHIRIPADA LTD. CO.,MICHAEL R. JOHNSON,HIGHWAY 75 RD 1119 DIXON NM 87527,DIXON,NM,87527
1952,1952,,,EL PRADO LIQUORS,1102 PASEO DEL PUEBLO NORTE,Correct,1102 PASEO DEL PUEBLO NORTE,EL PRADO,Correct,EL PRADO,NM,Correct,NM,87529,Correct,87529.0,,,36.4287226,,,-105.57531270000001,,,"1102 Paseo Del Pueblo Norte, El Prado, NM, 87529",,Correct,TAOS,,,,,,Active,POINT (-105.5753127 36.4287226),Yes,,Taos,Taos Pueblo,,,New Retailer,Independent,,,N,801676.0,,,,,,,
1959,1959,,,WINE BUFF,30 BUFFALO THUNDER TRL,Correct,30 BUFFALO THUNDER TRL,SANTA FE,Correct,SANTA FE,NM,Correct,NM,87506,Correct,87506.0,,,35.85934,,,-105.99493000000001,,,"30 Buffalo Thunder Trl, Santa Fe, NM, 87506",,Correct,SANTA FE,,,,,,Active,POINT (-105.99493 35.85934),Yes,,Pojoaque,Pueblo of Pojoaque,,,New Retailer,Independent,,,N,7405499.0,,,,,,,
1979,1979,,,KOKOMAN FINE WINES,34 CITIES OF GOLD RD,Correct,34 CITIES OF GOLD RD,SANTA FE,Correct,SANTA FE,NM,Correct,NM,87506,Correct,87506.0,,,35.886722999999996,,,-106.018654,,,"34 Cities Of Gold Rd, Santa Fe, NM, 87506",,Correct,SANTA FE,,,,,,Active,POINT (-106.018654 35.886723),Yes,,Pojoaque,Pueblo of Pojoaque,,,New Retailer,Independent,,,N,801686.0,,,,,,,
1998,1998,,,VAPE TAOS,102 PASEO DEL PUEBLO NORTE STE C,Correct,102 PASEO DEL PUEBLO NORTE STE C,TAOS,Correct,TAOS,NM,Correct,NM,87571,Correct,87571.0,,,36.40736,,,-105.57327,,,"102 Paseo Del Pueblo Norte Ste C, Taos, NM, 87571",,Correct,TAOS,,,,,,Active,POINT (-105.57327 36.40736),Yes,,Taos,Taos Pueblo,,,New Retailer,Independent,,,N,4037656.0,5100011,"VAPE TAOS, LLC",NICHOLAS DONALD BRAINARD JR.,102 C PASEO DEL PUEBLO NORTE TAOS NM 87571,TAOS,NM,87571
2021,2021,,,HALONA MARKETPLACE,1276 HWY 53,Correct,1276 HWY 53,ZUNI,Correct,ZUNI,NM,Correct,NM,87327,Correct,87327.0,,,35.07286,,,-108.83511000000001,,,"1276 Hwy 53, Zuni, NM, 87327",,Correct,MCKINLEY,,,,,,Active,POINT (-108.83511 35.07286),Yes,,Zuni,Zuni Reservation,,,New Retailer,Independent,,,N,7611481.0,,,,,,,
2023,2023,,,CIDS FOOD MARKET,623 PASEO DEL PUEBLO NORTE,Correct,623 PASEO DEL PUEBLO NORTE,TAOS,Correct,TAOS,NM,Correct,NM,87571,Correct,87571.0,,,36.41767,,,-105.57059,,,"623 Paseo Del Pueblo Norte, Taos, NM, 87571",,Correct,TAOS,,,,,,Active,POINT (-105.57059 36.41767),Yes,,Taos,Taos Pueblo,,,New Retailer,Independent,,,N,1514500.0,1507490,"CID'S FOOD MARKET, INC.","ROBERT E BACKER, PO BOX 406, EL PRADO",316 SPRUCE LN TAOS NM 87571,TAOS,NM,87571
2038,2038,,,TAOS PUEBLO SMOKE SHOP,964 PASEO DEL PUEBLO NORTE,Correct,964 PASEO DEL PUEBLO NORTE,TAOS,Correct,TAOS,NM,Correct,NM,87571,Correct,87571.0,,,36.425262,,,-105.57356999999999,,,"964 Paseo Del Pueblo Norte, Taos, NM, 87571",,Correct,TAOS,,,,,,Active,POINT (-105.57357 36.425262),Yes,,Taos,Taos Pueblo,,,New Retailer,Independent,,,N,7589479.0,,,,,,,
2069,2069,,,CITY MARKET,US HWY 491 & NM HWY 64,US HWY 491 &  HWY 64,US HWY 491 &  HWY 64,SHIPROCK,Correct,SHIPROCK,NM,Correct,NM,87420,Correct,87420.0,,,36.7868425,,,-108.6846479,,,"US Hwy 491 & NM Hwy 64, Shiprock, NM, 87420",,Correct,SAN JUAN,,,,,,Active,POINT (-108.6846479 36.7868425),Yes,,Navajo Nation,Navajo Nation Reservation,,,New Retailer,King Soopers,Denver,CO,N,307347.0,655852,"CITY MARKET, INC.",MERGED OUT OF EXISTENCE,SEE FT11 FOR SERVICE OF PROCESS,,,
2087,2087,,,POJOAQUE SUPERMARKET,9 W GUTIERREZ,Correct,9 W GUTIERREZ,SANTA FE,Correct,SANTA FE,NM,Correct,NM,87506,Correct,87506.0,,,35.8831954,,,-106.01084479999999,,,"9 W Gutierrez, Santa Fe, NM, 87506",,Correct,SANTA FE,,,,,,Active,POINT (-106.0108448 35.8831954),Yes,,Pojoaque,Pueblo of Pojoaque,,,New Retailer,Independent,,,N,247507.0,,,,,,,
2111,2111,,,BASHAS DINE MARKET,HWY 57 & INDIAN SERVICE RD 9,Correct,HWY 57 & INDIAN SERVICE RD 9,CROWNPOINT,Correct,CROWNPOINT,NM,Correct,NM,87313,Correct,87313.0,,,35.698763899999996,,,-108.13965619999999,,,"Hwy 57 & Indian Service Rd 9, Crownpoint, NM, 87313",,Correct,MCKINLEY,,,,,,Active,POINT (-108.1396562 35.6987639),Yes,,Navajo Nation,Navajo Nation Reservation,,,New Retailer,Bashas Markets Inc,Chandler,AZ,N,405315.0,,,,,,,
2121,2121,,,SMITHS FUEL CENTER,224 PASEO DEL PUEBLO SUR,Correct,224 PASEO DEL PUEBLO SUR,TAOS,Correct,TAOS,NM,Correct,NM,87571,Correct,87571.0,,,36.404022,,,-105.57427,,,"224 Paseo Del Pueblo Sur, Taos, NM, 87571",,Correct,TAOS,,,,,,Active,POINT (-105.57427 36.404022),Yes,,Taos,Taos Pueblo,,,New Retailer,Smiths Food & Drug Inc,Salt Lake City,UT,N,3353543.0,,,,,,,
2123,2123,,,SMITHS,224 PASEO DEL PUEBLO SUR,Correct,224 PASEO DEL PUEBLO SUR,TAOS,Correct,TAOS,NM,Correct,NM,87571,Correct,87571.0,,,36.404022,,,-105.57427,,,"224 Paseo Del Pueblo Sur, Taos, NM, 87571",,Correct,TAOS,,,,,,Active,POINT (-105.57427 36.404022),Yes,,Taos,Taos Pueblo,,,New Retailer,Smiths Food & Drug,Salt Lake City,UT,N,286237.0,,,,,,,
2184,2184,,,SHELL,US HWY 64 & US HWY 491 S,Correct,US HWY 64 & US HWY 491 S,SHIPROCK,Correct,SHIPROCK,NM,Correct,NM,87420,Correct,87420.0,,,36.7741297,,,-108.6983011,,,"US Hwy 64 & US Hwy 491 S, Shiprock, NM, 87420",,Correct,SAN JUAN,,,,,,Active,POINT (-108.6983011 36.7741297),Yes,,Navajo Nation,Navajo Nation Reservation,,,New Retailer,Independent,,,Y,2620453.0,,,,,,,
2185,2185,,,ALLSUPS,507 PASEO DEL PUEBLO NORTE,Correct,507 PASEO DEL PUEBLO NORTE,TAOS,Correct,TAOS,NM,Correct,NM,87571,Correct,87571.0,,,36.414584999999995,,,-105.56782,,,"507 Paseo Del Pueblo Norte, Taos, NM, 87571",,Correct,TAOS,,,,,,Active,POINT (-105.56782 36.414585),Yes,,Taos,Taos Pueblo,,,New Retailer,Allsups Conv Stores Inc,Clovis,NM,N,346625.0,5442150,"Allsup's, Inc.",C T CORPORATION SYSTEM,206 S CORONADO AVE ESPANOLA NM 87532,Espanola,NM,87532
2187,2187,,,KICKS 66 TRAVEL CENTER,57 OGO WII,Correct,57 OGO WII,SANTA FE,Correct,SANTA FE,NM,Correct,NM,87506,Correct,87506.0,,,35.883854,,,-106.01586999999999,,,"57 Ogo Wii, Santa Fe, NM, 87506",,Correct,SANTA FE,,,,,,Active,POINT (-106.01587 35.883854),Yes,,Pojoaque,Pueblo of Pojoaque,,,New Retailer,Independent,,,N,2651143.0,,,,,,,
2191,2191,,,CAMEL ROCK VALERO,10 CAMEL ROCK RD,Correct,10 CAMEL ROCK RD,SANTA FE,Correct,SANTA FE,NM,Correct,NM,87506,Correct,87506.0,,,35.8237626,,,-105.9752503,,,"10 Camel Rock Rd, Santa Fe, NM, 87506",,Correct,SANTA FE,,,,,,Active,POINT (-105.9752503 35.8237626),Yes,,Tesuque,Tesuque Pueblo,,,New Retailer,Independent,,,Y,3095581.0,,,,,,,
2193,2193,,,CONOCO,INDIAN HWY 12,Correct,INDIAN HWY 12,NAVAJO,Correct,NAVAJO,NM,Correct,NM,87328,Correct,87328.0,,,36.139905299999995,,,-109.04582040000001,,,"Indian Hwy 12, Navajo, NM, 87328",,Correct,SAN JUAN,,,,,,Active,POINT (-109.0458204 36.1399053),Yes,,Navajo Nation,Navajo Nation Reservation,,,New Retailer,Sandia Oil Co Inc,Albuquerque,NM,Y,854397.0,1113638,CONOCO INC.,MERGED OUT OF EXISTENCE,SEE FT11 FOR SERVICE OF PROCESS,,,
2195,2195,,,POJOAQUE PUEBLO CONVENIENCE,112 CITIES OF GOLD RD,Correct,112 CITIES OF GOLD RD,SANTA FE,Correct,SANTA FE,NM,Correct,NM,87506,Correct,87506.0,,,35.879257,,,-106.00961000000001,,,"112 Cities Of Gold Rd, Santa Fe, NM, 87506",,Correct,SANTA FE,,,,,,Active,POINT (-106.00961 35.879257),Yes,,Pojoaque,Pueblo of Pojoaque,,,New Retailer,Independent,,,N,1535141.0,,,,,,,
2198,2198,,,GIANT,HWY 491,Correct,HWY 491,SHIPROCK,Correct,SHIPROCK,NM,Correct,NM,87420,Correct,87420.0,,,36.80523529999999,,,-108.69140759999999,,,"Hwy 491, Shiprock, NM, 87420",,Correct,SAN JUAN,,,,,,Active,POINT (-108.6914076 36.80523529999999),Yes,,Navajo Nation,Navajo Nation Reservation,,,New Retailer,Giant Industries Inc,Tempe,AZ,N,300853.0,,,,,,,
2201,2201,,,ZUNI EXPRESS,1229 HWY 53,Correct,1229 HWY 53,ZUNI,Correct,ZUNI,NM,Correct,NM,87327,Correct,87327.0,,,35.071274,,,-108.84137,,,"1229 Hwy 53, Zuni, NM, 87327",,Correct,MCKINLEY,,,,,,Active,POINT (-108.84137 35.071274),Yes,,Zuni,Zuni Reservation,,,New Retailer,Thriftway Marketing Corp,Farmington,NM,N,635509.0,2292399,"ZUNI EXPRESS, LLC","ROBERT G. MOSS, ESQ.",501 AIRPORT DR STE 100 FARMINGTON NM 87401,FARMINGTON,NM,87401
2205,2205,,,SHEEPSPRINGS EXPRESS,491 RED MESA RD,Correct,491 RED MESA RD,SHEEP SPRINGS,Correct,SHEEP SPRINGS,NM,Correct,NM,87364,Correct,87364.0,,,36.1439251,,,-108.70803899999999,,,"491 Red Mesa Rd, Sheep Springs, NM, 87364",,Correct,SAN JUAN,,,,,,Active,POINT (-108.708039 36.1439251),Yes,,Navajo Nation,Navajo Nation Reservation,,,New Retailer,Thriftway Marketing Corp,Farmington,NM,N,1910366.0,,,,,,,
2219,2219,,,REDROCK CONVENIENCE STORE,1204 HIGHWAY 371,Correct,1204 HIGHWAY 371,GALLUP,Correct,GALLUP,NM,Correct,NM,87301,Correct,87301.0,,,35.52325949999999,,,-108.1332808,,,"1204 Highway 371, Gallup, NM, 87301",,Correct,MCKINLEY,,,,,,Active,POINT (-108.1332808 35.52325949999999),Yes,,Navajo Nation,Navajo Nation Off-Reservation Trust Land,,,New Retailer,Independent,,,N,1832224.0,,,,,,,
2222,2222,,,GIANT,1189 HWY 53,Correct,1189 HWY 53,ZUNI,Correct,ZUNI,NM,Correct,NM,87327,Correct,87327.0,,,35.06948,,,-108.84773999999999,,,"1189 Hwy 53, Zuni, NM, 87327",,Correct,MCKINLEY,,,,,,Active,POINT (-108.84774 35.06948),Yes,,Zuni,Zuni Reservation,,,New Retailer,Giant Industries Inc,Tempe,AZ,N,684652.0,,,,,,,
2226,2226,,,POJOAQUE TRAVEL CENTER,67 OGO WII,Correct,67 OGO WII,SANTA FE,Correct,SANTA FE,NM,Correct,NM,87506,Correct,87506.0,,,35.887904999999996,,,-106.0217,,,"67 Ogo Wii, Santa Fe, NM, 87506",,Correct,SANTA FE,,,,,,Active,POINT (-106.0217 35.887905),Yes,,Pojoaque,Pueblo of Pojoaque,,,New Retailer,Independent,,,N,1793499.0,,,,,,,
2227,2227,,,SHIPROCK QUIK MART,HWY 491 & 64 W,Correct,HWY 491 & 64 W,SHIPROCK,Correct,SHIPROCK,NM,Correct,NM,87420,Correct,87420.0,,,36.774028799999996,,,-108.69744159999999,,,"Hwy 491 & 64 W, Shiprock, NM, 87420",,Correct,SAN JUAN,,,,,,Active,POINT (-108.6974416 36.7740288),Yes,,Navajo Nation,Navajo Nation Reservation,,,New Retailer,Independent,,,N,1439894.0,,,,,,,
2235,2235,,,SKY CITY TRAVEL CENTER,I 40,Correct,I 40,PUEBLO OF ACOMA,Correct,PUEBLO OF ACOMA,NM,Correct,NM,87034,Correct,87034.0,,,35.0395185,,,-107.49198259999999,,,"I 40, Pueblo of Acoma, NM, 87034",,Correct,CIBOLA,,,,,,Active,POINT (-107.4919826 35.0395185),Yes,,Laguna,Laguna Pueblo,,,New Retailer,Independent,,,N,695226.0,,,,,,,
2236,2236,,,BLACKHAT SPEEDYS,HWY 264,Correct,HWY 264,GALLUP,Correct,GALLUP,NM,Correct,NM,87301,Correct,87301.0,,,35.6225468,,,-108.7803756,,,"Hwy 264, Gallup, NM, 87301",,Correct,MCKINLEY,,,,,,Active,POINT (-108.7803756 35.6225468),Yes,,Navajo Nation,Navajo Nation Off-Reservation Trust Land,,,New Retailer,Independent,,,N,442267.0,,,,,,,
2238,2238,,,SHIPROCK EXPRESS,HWY 491 & 666,Correct,HWY 491 & 666,SHIPROCK,Correct,SHIPROCK,NM,Correct,NM,87420,Correct,87420.0,,,36.909771,,,-108.7200542,,,"Hwy 491 & 666, Shiprock, NM, 87420",,Correct,SAN JUAN,,,,,,Active,POINT (-108.7200542 36.909771),Yes,,Navajo Nation,Navajo Nation Reservation,,,New Retailer,Thriftway Marketing Corp,Farmington,NM,N,3660231.0,2203792,"SHIPROCK EXPRESS, L.L.C.","KURT A. SOMMER, ESQ.",200 WEST MARCY ST STE 129 SANTA FE NM 87501,SANTA FE,NM,87501
2248,2248,,,RED MESA EXPRESS,HWY 666 20 MI N OF TOHATCHI,Correct,HWY 666 20 MI N OF TOHATCHI,TOHATCHI,Correct,TOHATCHI,NM,Correct,NM,87325,Correct,87325.0,,,35.85867620000001,,,-108.75813400000001,,,"Hwy 666 20 Mi N Of tohatchi, Tohatchi, NM, 87325",,Correct,MCKINLEY,,,,,,Active,POINT (-108.758134 35.85867620000001),Yes,,Navajo Nation,Navajo Nation Reservation,,,New Retailer,Thriftway Marketing Corp,Farmington,NM,N,2106580.0,,,,,,,
2251,2251,,,GIANT,1318 PASEO DEL PUEBLO NORTE,Correct,1318 PASEO DEL PUEBLO NORTE,EL PRADO,Correct,EL PRADO,NM,Correct,NM,87529,Correct,87529.0,,,36.4366616,,,-105.57649740000002,,,"1318 Paseo Del Pueblo Norte, El Prado, NM, 87529",,Correct,TAOS,,,,,,Active,POINT (-105.5764974 36.4366616),Yes,,Taos,Taos Pueblo,,,New Retailer,Giant Industries Inc,Tempe,AZ,N,1791264.0,,,,,,,
2252,2252,,,GIANT,HWY 491 & HWY 666,Correct,HWY 491 & HWY 666,NEWCOMB,Correct,NEWCOMB,NM,Correct,NM,87455,Correct,87455.0,,,36.2828091,,,-108.70866059999999,,,"Hwy 491 & Hwy 666, Newcomb, NM, 87455",,Correct,SAN JUAN,,,,,,Active,POINT (-108.7086606 36.2828091),Yes,,Navajo Nation,Navajo Nation Reservation,,,New Retailer,Giant Industries Inc,Tempe,AZ,N,639178.0,,,,,,,
2253,2253,,,RED MESA EXPRESS,HWY 64,Correct,HWY 64,SHIPROCK,Correct,SHIPROCK,NM,Correct,NM,87420,Correct,87420.0,,,36.782906200000006,,,-108.6814999,,,"Hwy 64, Shiprock, NM, 87420",,Correct,SAN JUAN,,,,,,Active,POINT (-108.6814999 36.78290620000001),Yes,,Navajo Nation,Navajo Nation Reservation,,,New Retailer,Thriftway Marketing Corp,Farmington,NM,N,7419358.0,,,,,,,
2254,2254,,,NAVAJO PETROLEUM,HWY 264,Correct,HWY 264,GALLUP,Correct,GALLUP,NM,Correct,NM,87301,Correct,87301.0,,,35.6225468,,,-108.7803756,,,"Hwy 264, Gallup, NM, 87301",,Correct,MCKINLEY,,,,,,Active,POINT (-108.7803756 35.6225468),Yes,,Navajo Nation,Navajo Nation Off-Reservation Trust Land,,,New Retailer,Independent,,,N,3100587.0,70961,THE NAVAJO PETROLEUM COMPANY,,,,,
2260,2260,,,RED MESA EXPRESS,11260 HWY 550,Correct,11260 HWY 550,NAGEEZI,Correct,NAGEEZI,NM,Correct,NM,87037,Correct,87037.0,,,36.24834310000001,,,-107.73371979999999,,,"11260 Hwy 550, Nageezi, NM, 87037",,Correct,SAN JUAN,,,,,,Active,POINT (-107.7337198 36.24834310000001),Yes,,Navajo Nation,Navajo Nation Off-Reservation Trust Land,,,New Retailer,Thriftway Marketing Corp,Farmington,NM,N,973112.0,,,,,,,
2352,2352,,,FAMILY DOLLAR,18094 US 84 285,Correct,18094 US 84 285,SANTA FE,Correct,SANTA FE,NM,Correct,NM,87501,Correct,87501.0,,,35.77927639999999,,,-105.94778640000001,,,"18094 US 84 285, Santa Fe, NM, 87501",,Correct,SANTA FE,,,,,,Active,POINT (-105.9477864 35.77927639999999),Yes,,Tesuque,Tesuque Pueblo,,,New Retailer,Family Dollar Stores Inc,Matthews,NC,N,7326689.0,,,,,,,
2388,2388,,,THE BURGER STAND AT TAOS ALE,401 PASEO DEL PUEBLO NORTE,Correct,401 PASEO DEL PUEBLO NORTE,TAOS,Correct,TAOS,NM,Correct,NM,87571,Correct,87571.0,,,36.412216,,,-105.56884,,,"401 Paseo Del Pueblo Norte, Taos, NM, 87571",,Correct,TAOS,,,,,,Active,POINT (-105.56884 36.412216),Yes,,Taos,Taos Pueblo,,,New Retailer,Independent,,,N,7319407.0,,,,,,,
2400,2400,,,ESKES BREW PUB,106 DES GEORGES LN,Correct,106 DES GEORGES LN,TAOS,Correct,TAOS,NM,Correct,NM,87571,Correct,87571.0,,,36.405999,,,-105.573178,,,"106 Des Georges Ln, Taos, NM, 87571",,Correct,TAOS,,,,,,Active,POINT (-105.573178 36.405999),Yes,,Taos,Taos Pueblo,,,New Retailer,Independent,,,N,1630971.0,,,,,,,
2402,2402,,,TAOS MESA BREWING,201 PASEO DEL PUEBLO SUR,Correct,201 PASEO DEL PUEBLO SUR,TAOS,Correct,TAOS,NM,Correct,NM,87571,Correct,87571.0,,,36.405674,,,-105.57403000000001,,,"201 Paseo Del Pueblo Sur, Taos, NM, 87571",,Correct,TAOS,,,,,,Active,POINT (-105.57403 36.405674),Yes,,Taos,Taos Pueblo,,,New Retailer,Independent,,,N,7493583.0,4282455,"TAOS MESA BREWING, LLC",GARY M. FEUERMAN,827 PASEO DEL PUEBLO NORTE TAOS NM 87571,TAOS,NM,87571
2406,2406,,,BUFFALO THUNDER BLUE TOWER,30 BUFFALO THUNDER TRL,Correct,30 BUFFALO THUNDER TRL,SANTA FE,Correct,SANTA FE,NM,Correct,NM,87506,Correct,87506.0,,,35.85934,,,-105.99493000000001,,,"30 Buffalo Thunder Trl, Santa Fe, NM, 87506",,Correct,SANTA FE,,,,,,Active,POINT (-105.99493 35.85934),Yes,,Pojoaque,Pueblo of Pojoaque,,,New Retailer,Independent,,,N,2652134.0,,,,,,,
2409,2409,,,TURQUOISE TRAIL BAR & GRILL,30 BUFFALO THUNDER TRL,Correct,30 BUFFALO THUNDER TRL,SANTA FE,Correct,SANTA FE,NM,Correct,NM,87506,Correct,87506.0,,,35.85934,,,-105.99493000000001,,,"30 Buffalo Thunder Trl, Santa Fe, NM, 87506",,Correct,SANTA FE,,,,,,Active,POINT (-105.99493 35.85934),Yes,,Pojoaque,Pueblo of Pojoaque,,,New Retailer,Independent,,,N,2652165.0,,,,,,,
2416,2416,,,ALLEY CANTINA L,121 TERESINA LN,Correct,121 TERESINA LN,TAOS,Correct,TAOS,NM,Correct,NM,87571,Correct,87571.0,,,36.407973,,,-105.5747381,,,"121 Teresina Ln, Taos, NM, 87571",,Correct,TAOS,,,,,,Active,POINT (-105.5747381 36.407973),Yes,,Taos,Taos Pueblo,,,New Retailer,Independent,,,N,5205068.0,,,,,,,
2509,2509,,,SHADEH NIGHTCLUB,20 BUFFALO THUNDER TRL,Correct,20 BUFFALO THUNDER TRL,SANTA FE,Correct,SANTA FE,NM,Correct,NM,87506,Correct,87506.0,,,35.85927,,,-105.99467,,,"20 Buffalo Thunder Trl, Santa Fe, NM, 87506",,Correct,SANTA FE,,,,,,Active,POINT (-105.99467 35.85927),Yes,,Pojoaque,Pueblo of Pojoaque,,,New Retailer,Independent,,,N,7587431.0,,,,,,,
2510,2510,,,CITIES OF GOLD LOUNGE,30 BUFFALO THUNDER TRL,Correct,30 BUFFALO THUNDER TRL,SANTA FE,Correct,SANTA FE,NM,Correct,NM,87506,Correct,87506.0,,,35.85934,,,-105.99493000000001,,,"30 Buffalo Thunder Trl, Santa Fe, NM, 87506",,Correct,SANTA FE,,,,,,Active,POINT (-105.99493 35.85934),Yes,,Pojoaque,Pueblo of Pojoaque,,,New Retailer,Independent,,,N,1929565.0,,,,,,,
2560,2560,,,PUGANINI TOWA GOLF COURSE,17746 US 84/285,Correct,17746 US 84/285,SANTA FE,Correct,SANTA FE,NM,Correct,NM,87506,Correct,87506.0,,,35.779276,,,-105.94778600000001,,,"17746 Us 84/285, Santa Fe, NM, 87506",,Correct,SANTA FE,,,,,,Active,POINT (-105.947786 35.779276),Yes,,Tesuque,Tesuque Pueblo,,,New Retailer,Independent,,,N,1765854.0,,,,,,,
2565,2565,,,NORTHERN EDGE NAVAJO CASINO,HWY 36,Correct,HWY 36,FRUITLAND,Correct,FRUITLAND,NM,Correct,NM,87416,Correct,87416.0,,,36.7213937,,,-108.39712450000002,,,"Hwy 36, Fruitland, NM, 87416",,Correct,SAN JUAN,,,,,,Active,POINT (-108.3971245 36.7213937),Yes,,Navajo Nation,Navajo Nation Reservation,,,New Retailer,Independent,,,N,4032487.0,,,,,,,
2581,2581,,,CAMEL ROCK CASINO,17486 HWY 84 285,Correct,17486 HWY 84 285,SANTA FE,Correct,SANTA FE,NM,Correct,NM,87501,Correct,87501.0,,,35.77927639999999,,,-105.94778640000001,,,"17486 Hwy 84 285, Santa Fe, NM, 87501",,Correct,SANTA FE,,,,,,Active,POINT (-105.9477864 35.77927639999999),Yes,,Tesuque,Tesuque Pueblo,,,New Retailer,Independent,,,N,1820730.0,,,,,,,
2608,2608,,,BIG ROCK BOWLING CENTER,460 N RIVERSIDE DR,Correct,460 N RIVERSIDE DR,ESPANOLA,Correct,ESPANOLA,NM,Correct,NM,87532,Correct,87532.0,,,35.99599050000001,,,-106.068101,,,"460 N Riverside Dr, Espanola, NM, 87532",,Correct,RIO ARRIBA,,,,,,Active,POINT (-106.068101 35.99599050000001),Yes,,Santa Clara,Santa Clara Pueblo,,,New Retailer,Independent,,,N,7613925.0,,,,,,,
2615,2615,,,NORTHERN EDGE NAVAJO CASINO,2752 INDIAN SERVICE RD 36,Correct,2752 INDIAN SERVICE RD 36,FARMINGTON,Correct,FARMINGTON,NM,Correct,NM,87499,Correct,87499.0,,,36.7216379,,,-108.26119299999999,,,"2752 Indian Service Rd 36, Farmington, NM, 87499",,Correct,SAN JUAN,,,,,,Active,POINT (-108.261193 36.7216379),Yes,,Navajo Nation,Navajo Nation Reservation,,,New Retailer,Independent,,,N,7439946.0,,,,,,,
2624,2624,,,STRIKE GOLD BOWLING,10 CITIES OF GOLD RD STE B,Correct,10 CITIES OF GOLD RD STE B,SANTA FE,Correct,SANTA FE,NM,Correct,NM,87506,Correct,87506.0,,,35.88908400000001,,,-106.02073,,,"10 Cities Of Gold Rd Ste B, Santa Fe, NM, 87506",,Correct,SANTA FE,,,,,,Active,POINT (-106.02073 35.88908400000001),Yes,,Pojoaque,Pueblo of Pojoaque,,,New Retailer,Independent,,,N,1648955.0,,,,,,,
2650,2650,,,FAIRVIEW PHARMACY,734 N RIVERSIDE DR,Correct,734 N RIVERSIDE DR,ESPANOLA,Correct,ESPANOLA,NM,Correct,NM,87532,Correct,87532.0,,,36.001553,,,-106.06296499999999,,,"734 N Riverside Dr, Espanola, NM, 87532",,Correct,SANTA FE,,,,,,Active,POINT (-106.062965 36.001553),Yes,,Santa Clara,Santa Clara Pueblo,,,New Retailer,Independent,,,N,1620542.0,2971687,"FAIRVIEW PHARMACY SERVICES, LLC",SECRETARY OF STATE,EXECUTIVE-LEGISLATIVE BUILDING SANTA FE NM 87503,SANTA FE,NM,87503
2660,2660,,,EL REY DISCOUNT LIQUOR,811 N RIVERSIDE DR,Correct,811 N RIVERSIDE DR,ESPANOLA,Correct,ESPANOLA,NM,Correct,NM,87532,Correct,87532.0,,,36.00228660000001,,,-106.06277959999998,,,"811 N Riverside Dr, Espanola, NM, 87532",,Correct,RIO ARRIBA,,,,,,Active,POINT (-106.0627796 36.00228660000001),Yes,,Santa Clara,Santa Clara Pueblo,,,New Retailer,Independent,,,N,7304845.0,,,,,,,
2676,2676,,,SAINT & SINNERS LIQUOR,503 S RIVERSIDE DR,Correct,503 S RIVERSIDE DR,ESPANOLA,Correct,ESPANOLA,NM,Correct,NM,87532,Correct,87532.0,,,35.987972,,,-106.06265,,,"503 S Riverside Dr, Espanola, NM, 87532",,Correct,RIO ARRIBA,,,,,,Active,POINT (-106.06265 35.987972),Yes,,Santa Clara,Santa Clara Pueblo,,,New Retailer,Independent,,,N,801804.0,,,,,,,
2688,2688,,,APACHE HOUSE OF LIQUORS,13605 US HWY 64,Correct,13605 US HWY 64,DULCE,Correct,DULCE,NM,Correct,NM,87528,Correct,87528.0,,,36.93425,,,-106.98567,,,"13605 US Hwy 64, Dulce, NM, 87528",,Correct,RIO ARRIBA,,,,,,Active,POINT (-106.98567 36.93425),Yes,,Jicarilla Apache Nation,Jicarilla Apache Nation Reservation,,,New Retailer,Independent,,,N,801796.0,,,,,,,
2706,2706,,,RIVERSIDE TOBACCO LIQUOR,638 N RIVERSIDE DR,Correct,638 N RIVERSIDE DR,ESPANOLA,Correct,ESPANOLA,NM,Correct,NM,87532,Correct,87532.0,,,35.987896,,,-106.06227,,,"638 N Riverside Dr, Espanola, NM, 87532",,Correct,RIO ARRIBA,,,,,,Active,POINT (-106.06227 35.987896),Yes,,Santa Clara,Santa Clara Pueblo,,,New Retailer,Independent,,,N,3977688.0,,,,,,,
2720,2720,,,CVS PHARMACY,1202 N RIVERSIDE DR,Correct,1202 N RIVERSIDE DR,ESPANOLA,Correct,ESPANOLA,NM,Correct,NM,87532,Correct,87532.0,,,35.988262,,,-106.06083000000001,,,"1202 N Riverside Dr, Espanola, NM, 87532",,Correct,RIO ARRIBA,,,,,,Active,POINT (-106.06083 35.988262),Yes,,Santa Clara,Santa Clara Pueblo,,,New Retailer,CVS Division 8,Woonsocket,RI,N,3995472.0,2450203,"CVS PHARMACY, INC.",C T CORPORATION SYSTEM,206 S CORONADO AVE ESPANOLA NM 87532 2792,ESPANOLA,NM,87532
2723,2723,,,CASINO APACHE SMOKE SHOP,25845 US HIGHWAY 70,Correct,25845 US HIGHWAY 70,MESCALERO,Correct,MESCALERO,NM,Correct,NM,88340,Correct,88340.0,,,33.299175,,,-105.657524,,,"25845 Us Highway 70, Mescalero, NM, 88340",,Correct,OTERO,,,,,,Active,POINT (-105.657524 33.299175),Yes,,Mescalero,Mescalero Reservation,,,New Retailer,Independent,,,N,1770204.0,,,,,,,
2724,2724,,,THE 505 VAPOR ROOM,1042 S CAMINO DEL PUEBLO,Correct,1042 S CAMINO DEL PUEBLO,BERNALILLO,Correct,BERNALILLO,NM,Correct,NM,87004,Correct,87004.0,,,35.3002076,,,-106.55088570000001,,,"1042 S Camino Del Pueblo, Bernalillo, NM, 87004",,Correct,SANDOVAL,,,,,,Active,POINT (-106.5508857 35.3002076),Yes,,Sandia,Sandia Pueblo,,,New Retailer,Independent,,,N,7541223.0,,,,,,,
2749,2749,,,PICURIS SMOKES,1378 ST RD 75,Correct,1378 ST RD 75,PENASCO,Correct,PENASCO,NM,Correct,NM,87553,Correct,87553.0,,,36.1704838,,,-105.68745929999999,,,"1378 St Rd 75, Penasco, NM, 87553",,Correct,TAOS,,,,,,Active,POINT (-105.6874593 36.1704838),Yes,,Picuris,Picuris Pueblo,,,New Retailer,Independent,,,N,2122335.0,,,,,,,
2758,2758,,,SANTA CLARA SMOKE SHOP,438 N RIVERSIDE DR,Correct,438 N RIVERSIDE DR,ESPANOLA,Correct,ESPANOLA,NM,Correct,NM,87532,Correct,87532.0,,,35.997413,,,-106.0643636,,,"438 N Riverside Dr, Espanola, NM, 87532",,Correct,SANTA FE,,,,,,Active,POINT (-106.0643636 35.997413),Yes,,Santa Clara,Santa Clara Pueblo,,,New Retailer,Independent,,,N,7031683.0,,,,,,,
2759,2759,,,LIL ISLAND TRADERS,215 TRIBAL ROAD 2,Correct,215 TRIBAL ROAD 2,BOSQUE FARMS,Correct,BOSQUE FARMS,NM,Correct,NM,87068,Correct,87068.0,,,34.868980799999996,,,-106.6844493,,,"215 Tribal Road 2, Bosque Farms, NM, 87068",,Correct,VALENCIA,,,,,,Active,POINT (-106.6844493 34.8689808),Yes,,Isleta,Isleta Pueblo,,,New Retailer,Independent,,,N,1820720.0,,,,,,,
2762,2762,,,ZUNIS CIGARETTES,1 STATE ROAD 45 SW,Correct,1 STATE ROAD 45 SW,ALBUQUERQUE,Correct,ALBUQUERQUE,NM,Correct,NM,87105,Correct,87105.0,,,34.90336370000001,,,-106.70805220000001,,,"1 State Road 45 SW, Albuquerque, NM, 87105",,Correct,BERNALILLO,,,,,,Active,POINT (-106.7080522 34.90336370000001),Yes,,Isleta,Isleta Pueblo,,,New Retailer,Independent,,,N,1527011.0,,,,,,,
2765,2765,,,REGENT PHARMACY VICTORS,1643 ISLETA BLVD SW,Correct,1643 ISLETA BLVD SW,ALBUQUERQUE,Correct,ALBUQUERQUE,NM,Correct,NM,87105,Correct,87105.0,,,34.918392,,,-106.69299,,,"1643 Isleta Blvd SW, Albuquerque, NM, 87105",,Correct,BERNALILLO,,,,,,Active,POINT (-106.69299 34.918392),Yes,,Isleta,Isleta Pueblo,,,New Retailer,Independent,,,N,626502.0,,,,,,,
2781,2781,,,PUEBLO GAS,6 HWY 22,Correct,6 HWY 22,SANTO DOMINGO PUEBLO,Correct,SANTO DOMINGO PUEBLO,NM,Correct,NM,87052,Correct,87052.0,,,35.47270250000001,,,-106.30646409999999,,,"6 Hwy 22, Santo Domingo Pueblo, NM, 87052",,Correct,SANDOVAL,,,,,,Active,POINT (-106.3064641 35.47270250000001),Yes,,Santo Domingo,Santo Domingo Pueblo,,,New Retailer,Independent,,,N,7189113.0,,,,,,,
2786,2786,,,A1 AUTOMOTIVE,14122 STATE RTE 75,Correct,14122 STATE RTE 75,PENASCO,Correct,PENASCO,NM,Correct,NM,87553,Correct,87553.0,,,36.176812299999995,,,-105.69583,,,"14122 State Rte 75, Penasco, NM, 87553",,Correct,TAOS,,,,,,Active,POINT (-105.69583 36.1768123),Yes,,Picuris,Picuris Pueblo,,,New Retailer,Independent,,,N,3938478.0,,,,,,,
2791,2791,,,ROY HONSTEIN OIL,210 LOS ALAMOS HWY,Correct,210 LOS ALAMOS HWY,ESPANOLA,Correct,ESPANOLA,NM,Correct,NM,87532,Correct,87532.0,,,35.98842600000001,,,-106.080444,,,"210 Los Alamos Hwy, Espanola, NM, 87532",,Correct,RIO ARRIBA,,,,,,Active,POINT (-106.080444 35.98842600000001),Yes,,Santa Clara,Santa Clara Pueblo,,,New Retailer,Independent,,,N,1882257.0,,,,,,,
2797,2797,,,MESCALERO GAS,222 CHIRICAHUA PLZ,Correct,222 CHIRICAHUA PLZ,MESCALERO,Correct,MESCALERO,NM,Correct,NM,88340,Correct,88340.0,,,33.1565804,,,-105.7781746,,,"222 Chiricahua Plz, Mescalero, NM, 88340",,Correct,OTERO,,,,,,Active,POINT (-105.7781746 33.1565804),Yes,,Mescalero,Mescalero Reservation,,,New Retailer,Independent,,,N,3940041.0,,,,,,,
2800,2800,,,JICARILLA SUPERMARKET,314 HAWKS DR,Correct,314 HAWKS DR,DULCE,Correct,DULCE,NM,Correct,NM,87528,Correct,87528.0,,,36.934686299999996,,,-106.9876995,,,"314 Hawks Dr, Dulce, NM, 87528",,Correct,RIO ARRIBA,,,,,,Active,POINT (-106.9876995 36.9346863),Yes,,Jicarilla Apache Nation,Jicarilla Apache Nation Reservation,,,New Retailer,Independent,,,N,610067.0,,,,,,,
2811,2811,,,LOWES,930 N RIVERSIDE DR,Correct,930 N RIVERSIDE DR,ESPANOLA,Correct,ESPANOLA,NM,Correct,NM,87532,Correct,87532.0,,,35.987946,,,-106.06093600000001,,,"930 N Riverside Dr, Espanola, NM, 87532",,Correct,RIO ARRIBA,,,,,,Active,POINT (-106.060936 35.987946),Yes,,Santa Clara,Santa Clara Pueblo,,,New Retailer,Lowes Pay N Save,Littlefield,TX,N,396158.0,5717353,"15 Lowes, LLC",Clayton Henry,3930 DESERT BROOM CT. LAS CRUCES NM 88011,Las Cruces,NM,88011
2814,2814,,,TRAVELERS SERVICE STATION,14111 STATE ROAD 75,Correct,14111 STATE ROAD 75,PENASCO,Correct,PENASCO,NM,Correct,NM,87553,Correct,87553.0,,,36.17681210000001,,,-105.6958297,,,"14111 State Road 75, Penasco, NM, 87553",,Correct,TAOS,,,,,,Active,POINT (-105.6958297 36.17681210000001),Yes,,Picuris,Picuris Pueblo,,,New Retailer,Independent,,,N,1749984.0,,,,,,,
2817,2817,,,R & V CENTER MARKET,745 N RIVERSIDE DR,Correct,745 N RIVERSIDE DR,ESPANOLA,Correct,ESPANOLA,NM,Correct,NM,87532,Correct,87532.0,,,35.988064,,,-106.06087,,,"745 N Riverside Dr, Espanola, NM, 87532",,Correct,RIO ARRIBA,,,,,,Active,POINT (-106.06087 35.988064),Yes,,Santa Clara,Santa Clara Pueblo,,,New Retailer,Independent,,,N,395716.0,,,,,,,
2818,2818,,,ROMEROS MARKET,723 ST RD 22,Correct,723 ST RD 22,PENA BLANCA,Correct,PENA BLANCA,NM,Correct,NM,87041,Correct,87041.0,,,35.5708456,,,-106.3382804,,,"723 St Rd 22, Pena Blanca, NM, 87041",,Correct,SANDOVAL,,,,,,Active,POINT (-106.3382804 35.5708456),Yes,,Cochiti,Pueblo de Cochiti,,,New Retailer,Independent,,,N,2072926.0,952044,"ROMERO'S MARKET, INC.",ANTHONY M. ROMERO,,,,
2825,2825,,,WALMART SUPERCENTER,1610 N RIVERSIDE DR,Correct,1610 N RIVERSIDE DR,ESPANOLA,Correct,ESPANOLA,NM,Correct,NM,87532,Correct,87532.0,,,35.987972,,,-106.06092,,,"1610 N Riverside Dr, Espanola, NM, 87532",,Correct,RIO ARRIBA,,,,,,Active,POINT (-106.06092 35.987972),Yes,,Santa Clara,Santa Clara Pueblo,,,New Retailer,Walmart Supercenter,Bentonville,AR,N,949804.0,,,,,,,
2829,2829,,,T & T SUPERMART,960 S CAMINO DEL PUEBLO,Correct,960 S CAMINO DEL PUEBLO,BERNALILLO,Correct,BERNALILLO,NM,Correct,NM,87004,Correct,87004.0,,,35.30147260000001,,,-106.55013149999999,,,"960 S Camino Del Pueblo, Bernalillo, NM, 87004",,Correct,SANDOVAL,,,,,,Active,POINT (-106.5501315 35.30147260000001),Yes,,Sandia,Sandia Pueblo,,,New Retailer,Independent,,,N,472765.0,,,,,,,
2835,2835,,,VALLEY SUPERETTE,520 S RIVERSIDE DR,Correct,520 S RIVERSIDE DR,ESPANOLA,Correct,ESPANOLA,NM,Correct,NM,87532,Correct,87532.0,,,35.988033,,,-106.06303,,,"520 S Riverside Dr, Espanola, NM, 87532",,Correct,RIO ARRIBA,,,,,,Active,POINT (-106.06303 35.988033),Yes,,Santa Clara,Santa Clara Pueblo,,,New Retailer,Independent,,,N,472737.0,1866425,"VALLEY SUPERETTE, INC.",CARMEN T. GONZALES-NARANJO,216 PASEO DON JUAN ESPANOLA NM 87532,ESPANOLA,NM,87532
2836,2836,,,MESCALERO TRIBAL STORE,190 CHIRICAHUA PLAZA,Correct,190 CHIRICAHUA PLAZA,MESCALERO,Correct,MESCALERO,NM,Correct,NM,88340,Correct,88340.0,,,33.15652,,,-105.77726000000001,,,"190 Chiricahua Plaza, Mescalero, NM, 88340",,Correct,OTERO,,,,,,Active,POINT (-105.77726 33.15652),Yes,,Mescalero,Mescalero Reservation,,,New Retailer,Independent,,,N,1668108.0,,,,,,,
2919,2919,,,GIANT,1616 N RIVERSIDE DR,Correct,1616 N RIVERSIDE DR,ESPANOLA,Correct,ESPANOLA,NM,Correct,NM,87532,Correct,87532.0,,,35.988007,,,-106.060905,,,"1616 N Riverside Dr, Espanola, NM, 87532",,Correct,RIO ARRIBA,,,,,,Active,POINT (-106.060905 35.988007),Yes,,Santa Clara,Santa Clara Pueblo,,,New Retailer,Giant Industries Inc,Tempe,AZ,N,1594398.0,,,,,,,
2932,2932,,,SANTA CLARA CONVENIENCE,462 N RIVERSIDE DR,Correct,462 N RIVERSIDE DR,ESPANOLA,Correct,ESPANOLA,NM,Correct,NM,87532,Correct,87532.0,,,35.9976877,,,-106.0643082,,,"462 N Riverside Dr, Espanola, NM, 87532",,Correct,SANTA FE,,,,,,Active,POINT (-106.0643082 35.9976877),Yes,,Santa Clara,Santa Clara Pueblo,,,New Retailer,Independent,,,N,7394532.0,,,,,,,
2934,2934,,,66 PIT STOP,HWY 40 EXIT 114 W,Correct,HWY 40 EXIT 114 W,LAGUNA,Correct,LAGUNA,NM,Correct,NM,87026,Correct,87026.0,,,35.0374559,,,-107.37418020000001,,,"Hwy 40 Exit 114 W, Laguna, NM, 87026",,Correct,CIBOLA,,,,,,Active,POINT (-107.3741802 35.0374559),Yes,,Laguna,Laguna Pueblo,,,New Retailer,Laguna Development Corp,Albuquerque,NM,N,114317.0,,,,,,,
2940,2940,,,APACHE TRAVEL CENTER,25845 US HIGHWAY 70,Correct,25845 US HIGHWAY 70,MESCALERO,Correct,MESCALERO,NM,Correct,NM,88340,Correct,88340.0,,,33.299175,,,-105.657524,,,"25845 Us Highway 70, Mescalero, NM, 88340",,Correct,OTERO,,,,,,Active,POINT (-105.657524 33.299175),Yes,,Mescalero,Mescalero Reservation,,,New Retailer,Independent,,,N,7335564.0,,,,,,,
2941,2941,,,OHKAY TRAVEL CENTER,356 EAGLE DR,Correct,356 EAGLE DR,OHKAY OWINGEH,Correct,OHKAY OWINGEH,NM,Correct,NM,87566,Correct,87566.0,,,36.0390934,,,-106.0582952,,,"356 Eagle Dr, Ohkay Owingeh, NM, 87566",,Correct,RIO ARRIBA,,,,,,Active,POINT (-106.0582952 36.0390934),Yes,,Ohkay Owingeh,Ohkay Owingeh,,,New Retailer,Independent,,,N,2324002.0,,,,,,,
2943,2943,,,TRIPLE S GROCERY,514 N ONATE PASEO,Correct,514 N ONATE PASEO,ESPANOLA,Correct,ESPANOLA,NM,Correct,NM,87532,Correct,87532.0,,,36.0061446,,,-106.08723549999999,,,"514 N Onate Paseo, Espanola, NM, 87532",,Correct,RIO ARRIBA,,,,,,Active,POINT (-106.0872355 36.0061446),Yes,,Santa Clara,Santa Clara Pueblo,,,New Retailer,Independent,,,N,721694.0,,,,,,,
2944,2944,,,CHECKERS AUTO & PACHECOS,15066 ST HWY 75,Correct,15066 ST HWY 75,PENASCO,Correct,PENASCO,NM,Correct,NM,87553,Correct,87553.0,,,36.171238,,,-105.68791999999999,,,"15066 St Hwy 75, Penasco, NM, 87553",,Correct,TAOS,,,,,,Active,POINT (-105.68792 36.171238),Yes,,Picuris,Picuris Pueblo,,,New Retailer,Independent,,,N,814283.0,,,,,,,
2960,2960,,,PUYA CLIFFS TRAVEL CENTER,HWY 30,Correct,HWY 30,ESPANOLA,Correct,ESPANOLA,NM,Correct,NM,87532,Correct,87532.0,,,35.9878531,,,-106.08051599999999,,,"Hwy 30, Espanola, NM, 87532",,Correct,RIO ARRIBA,,,,,,Active,POINT (-106.080516 35.9878531),Yes,,Santa Clara,Santa Clara Pueblo,,,New Retailer,Independent,,,N,3936638.0,,,,,,,
2961,2961,,,SANTA CLARA TRAVEL CENTER,ST HWY 30 MM 5,Correct,ST HWY 30 MM 5,ESPANOLA,Correct,ESPANOLA,NM,Correct,NM,87532,Correct,87532.0,,,35.97755,,,-106.07076,,,"St Hwy 30 MM 5, Espanola, NM, 87532",,Correct,RIO ARRIBA,,,,,,Active,POINT (-106.07076 35.97755),Yes,,Santa Clara,Santa Clara Pueblo,,,New Retailer,Independent,,,N,2257361.0,,,,,,,
2979,2979,,,MURPHY EXPRESS,1628 N RIVERSIDE DR,Correct,1628 N RIVERSIDE DR,ESPANOLA,Correct,ESPANOLA,NM,Correct,NM,87532,Correct,87532.0,,,35.98808,,,-106.060875,,,"1628 N Riverside Dr, Espanola, NM, 87532",,Correct,RIO ARRIBA,,,,,,Active,POINT (-106.060875 35.98808),Yes,,Santa Clara,Santa Clara Pueblo,,,New Retailer,Murphy USA/Div 10730,El Dorado,AR,N,7256778.0,,,,,,,
2985,2985,,,BREWER,509 S RIVERSIDE DR,Correct,509 S RIVERSIDE DR,ESPANOLA,Correct,ESPANOLA,NM,Correct,NM,87532,Correct,87532.0,,,35.98797000000001,,,-106.06263,,,"509 S Riverside Dr, Espanola, NM, 87532",,Correct,RIO ARRIBA,,,,,,Active,POINT (-106.06263 35.98797000000001),Yes,,Santa Clara,Santa Clara Pueblo,,,New Retailer,Brewer Oil Co,Albuquerque,NM,N,695166.0,,,,,,,
2998,2998,,,SANDIA FUEL,1100 S CAMINO DEL PUEBLO,Correct,1100 S CAMINO DEL PUEBLO,BERNALILLO,Correct,BERNALILLO,NM,Correct,NM,87004,Correct,87004.0,,,35.29978079999999,,,-106.55101289999999,,,"1100 S Camino Del Pueblo, Bernalillo, NM, 87004",,Correct,SANDOVAL,,,,,,Active,POINT (-106.5510129 35.29978079999999),Yes,,Sandia,Sandia Pueblo,,,New Retailer,Independent,,,N,1820717.0,,,,,,,
3004,3004,,,ALLSUPS,444 N RIVERSIDE DR,Correct,444 N RIVERSIDE DR,ESPANOLA,Correct,ESPANOLA,NM,Correct,NM,87532,Correct,87532.0,,,35.99614620000001,,,-106.064912,,,"444 N Riverside Dr, Espanola, NM, 87532",,Correct,SANTA FE,,,,,,Active,POINT (-106.064912 35.99614620000001),Yes,,Santa Clara,Santa Clara Pueblo,,,New Retailer,Allsups Conv Stores Inc,Clovis,NM,N,324329.0,5442150,"Allsup's, Inc.",C T CORPORATION SYSTEM,206 S CORONADO AVE ESPANOLA NM 87532,Espanola,NM,87532
3020,3020,,,JICARILLA TRAVEL CENTER,HWY 64 & FOOTHILL ST,Correct,HWY 64 & FOOTHILL ST,DULCE,Correct,DULCE,NM,Correct,NM,87528,Correct,87528.0,,,36.9342033,,,-106.99115829999998,,,"Hwy 64 & Foothill St, Dulce, NM, 87528",,Correct,RIO ARRIBA,,,,,,Active,POINT (-106.9911583 36.9342033),Yes,,Jicarilla Apache Nation,Jicarilla Apache Nation Reservation,,,New Retailer,Independent,,,N,7049503.0,,,,,,,
3023,3023,,,CHEVRON RIO CHAMA,19698 HWY 84 285,Correct,19698 HWY 84 285,ESPANOLA,Correct,ESPANOLA,NM,Correct,NM,87532,Correct,87532.0,,,35.99057600000001,,,-106.07981299999999,,,"19698 Hwy 84 285, Espanola, NM, 87532",,Correct,RIO ARRIBA,,,,,,Active,POINT (-106.079813 35.99057600000001),Yes,,Santa Clara,Santa Clara Pueblo,,,New Retailer,Independent,,,Y,1613857.0,,,,,,,
3027,3027,,,PUEBLO GAS,I 25 EXIT 259 ST RTE 22,Correct,I 25 EXIT 259 ST RTE 22,SANTO DOMINGO PUEBLO,Correct,SANTO DOMINGO PUEBLO,NM,Correct,NM,87052,Correct,87052.0,,,35.4731996,,,-106.3073452,,,"I 25 Exit 259 St Rte 22, Santo Domingo Pueblo, NM, 87052",,Correct,SANDOVAL,,,,,,Active,POINT (-106.3073452 35.4731996),Yes,,Santo Domingo,Santo Domingo Pueblo,,,New Retailer,Independent,,,N,1832212.0,,,,,,,
3029,3029,,,DOLLAR GENERAL,4 DEL SOL LN,Correct,4 DEL SOL LN,HERNANDEZ,Correct,HERNANDEZ,NM,Correct,NM,87537,Correct,87537.0,,,36.0490695,,,-106.11248379999999,,,"4 Del Sol Ln, Hernandez, NM, 87537",,Correct,RIO ARRIBA,,,,,,Active,POINT (-106.1124838 36.0490695),Yes,,Ohkay Owingeh,Ohkay Owingeh,,,New Retailer,Dollar General/HQ,Goodlettsville,TN,N,7272704.0,,,,,,,
3049,3049,,,FAMILY DOLLAR,745 N RIVERSIDE DR STE G,Correct,745 N RIVERSIDE DR STE G,ESPANOLA,Correct,ESPANOLA,NM,Correct,NM,87532,Correct,87532.0,,,35.988064,,,-106.06087,,,"745 N Riverside Dr Ste G, Espanola, NM, 87532",,Correct,RIO ARRIBA,,,,,,Active,POINT (-106.06087 35.988064),Yes,,Santa Clara,Santa Clara Pueblo,,,New Retailer,Family Dollar Stores Inc,Matthews,NC,N,1490826.0,,,,,,,
3065,3065,,,FAMILY DOLLAR,15052 STATE RD 75,Correct,15052 STATE RD 75,PENASCO,Correct,PENASCO,NM,Correct,NM,87553,Correct,87553.0,,,36.1704838,,,-105.68745929999999,,,"15052 State Rd 75, Penasco, NM, 87553",,Correct,TAOS,,,,,,Active,POINT (-105.6874593 36.1704838),Yes,,Picuris,Picuris Pueblo,,,New Retailer,Family Dollar Stores Inc,Matthews,NC,N,801802.0,,,,,,,
3068,3068,,,DOLLAR GENERAL,410 W SANTA CLARA BRIDGE RD,Correct,410 W SANTA CLARA BRIDGE RD,ESPANOLA,Correct,ESPANOLA,NM,Correct,NM,87532,Correct,87532.0,,,35.9875966,,,-106.0795869,,,"410 W Santa Clara Bridge Rd, Espanola, NM, 87532",,Correct,RIO ARRIBA,,,,,,Active,POINT (-106.0795869 35.9875966),Yes,,Santa Clara,Santa Clara Pueblo,,,New Retailer,Dollar General/HQ,Goodlettsville,TN,N,7446997.0,,,,,,,
3074,3074,,,DOLLAR TREE,402 CARR LN STE B,Correct,402 CARR LN STE B,ESPANOLA,Correct,ESPANOLA,NM,Correct,NM,87532,Correct,87532.0,,,36.01676,,,-106.06571000000001,,,"402 Carr Ln Ste B, Espanola, NM, 87532",,Correct,RIO ARRIBA,,,,,,Active,POINT (-106.06571 36.01676),Yes,,Ohkay Owingeh,Ohkay Owingeh,,,New Retailer,Dollar Tree/HQ,Chesapeake,VA,N,7462067.0,,,,,,,
3080,3080,,,FAMILY DOLLAR,HWY 313 & CAMINO KARSTEN,Correct,HWY 313 & CAMINO KARSTEN,ALGODONES,Correct,ALGODONES,NM,Correct,NM,87001,Correct,87001.0,,,35.384402,,,-106.4698011,,,"Hwy 313 & Camino Karsten, Algodones, NM, 87001",,Correct,SANDOVAL,,,,,,Active,POINT (-106.4698011 35.384402),Yes,,San Felipe,San Felipe Pueblo,,,New Retailer,Family Dollar Stores Inc,Matthews,NC,N,7607709.0,,,,,,,
3114,3114,,,SAINTS & SINNERS ESPANOLA,230 S RIVERSIDE DR,Correct,230 S RIVERSIDE DR,ESPANOLA,Correct,ESPANOLA,NM,Correct,NM,87532,Correct,87532.0,,,35.99277120000001,,,-106.06808090000001,,,"230 S Riverside Dr, Espanola, NM, 87532",,Correct,RIO ARRIBA,,,,,,Active,POINT (-106.0680809 35.99277120000001),Yes,,Santa Clara,Santa Clara Pueblo,,,New Retailer,Independent,,,N,5217391.0,,,,,,,
3122,3122,,,SILVER EAGLE LOUNGE,68 NM 291,68  291,68  291,ESPANOLA,Correct,ESPANOLA,NM,Correct,NM,87532,Correct,87532.0,,,36.036123499999995,,,-106.0618135,,,"68 NM 291, Espanola, NM, 87532",,Correct,RIO ARRIBA,,,,,,Active,POINT (-106.0618135 36.0361235),Yes,,Ohkay Owingeh,Ohkay Owingeh,,,New Retailer,Independent,,,N,1799731.0,,,,,,,
3126,3126,,,TROPHIES BAR,13603 HWY 64,Correct,13603 HWY 64,DULCE,Correct,DULCE,NM,Correct,NM,87528,Correct,87528.0,,,36.93425,,,-106.98568999999999,,,"13603 Hwy 64, Dulce, NM, 87528",,Correct,RIO ARRIBA,,,,,,Active,POINT (-106.98569 36.93425),Yes,,Jicarilla Apache Nation,Jicarilla Apache Nation Reservation,,,New Retailer,Independent,,,N,7534481.0,,,,,,,
3141,3141,,,TRIBAL LOUNGE,104 TULAPAI RD,Correct,104 TULAPAI RD,MESCALERO,Correct,MESCALERO,NM,Correct,NM,88340,Correct,88340.0,,,33.16453,,,-105.803894,,,"104 Tulapai Rd, Mescalero, NM, 88340",,Correct,OTERO,,,,,,Active,POINT (-105.803894 33.16453),Yes,,Mescalero,Mescalero Reservation,,,New Retailer,Independent,,,N,1862947.0,,,,,,,
3153,3153,,,SILVAS SALOON,955 S CAMINO DEL PUEBLO,Correct,955 S CAMINO DEL PUEBLO,BERNALILLO,Correct,BERNALILLO,NM,Correct,NM,87004,Correct,87004.0,,,35.30181560000001,,,-106.5505581,,,"955 S Camino Del Pueblo, Bernalillo, NM, 87004",,Correct,SANDOVAL,,,,,,Active,POINT (-106.5505581 35.30181560000001),Yes,,Sandia,Sandia Pueblo,,,New Retailer,Independent,,,N,5210628.0,,,,,,,
3181,3181,,,PLAYERS SPORTS BAR,13603 US HWY 64,Correct,13603 US HWY 64,DULCE,Correct,DULCE,NM,Correct,NM,87528,Correct,87528.0,,,36.93425,,,-106.98568999999999,,,"13603 Us Hwy 64, Dulce, NM, 87528",,Correct,RIO ARRIBA,,,,,,Active,POINT (-106.98569 36.93425),Yes,,Jicarilla Apache Nation,Jicarilla Apache Nation Reservation,,,New Retailer,Independent,,,N,7521415.0,,,,,,,
3185,3185,,,EAGLES LODGE,1217 S RIVERSIDE DR,Correct,1217 S RIVERSIDE DR,ESPANOLA,Correct,ESPANOLA,NM,Correct,NM,87532,Correct,87532.0,,,35.988372999999996,,,-106.060814,,,"1217 S Riverside Dr, Espanola, NM, 87532",,Correct,RIO ARRIBA,,,,,,Active,POINT (-106.060814 35.988373),Yes,,Santa Clara,Santa Clara Pueblo,,,New Retailer,Independent,,,Y,5212551.0,,,,,,,
3198,3198,,,CLUB TROPICANA,523A N PASEO DE ONATE,Correct,523A N PASEO DE ONATE,ESPANOLA,Correct,ESPANOLA,NM,Correct,NM,87532,Correct,87532.0,,,35.990685,,,-106.07983999999999,,,"523A N Paseo De Onate, Espanola, NM, 87532",,Correct,RIO ARRIBA,,,,,,Active,POINT (-106.07984 35.990685),Yes,,Santa Clara,Santa Clara Pueblo,,,New Retailer,Independent,,,N,5217330.0,,,,,,,
3215,3215,,,KNIGHTS OF COLUMBUS,18494 US 84 285,Correct,18494 US 84 285,ESPANOLA,Correct,ESPANOLA,NM,Correct,NM,87532,Correct,87532.0,,,35.99057600000001,,,-106.07981299999999,,,"18494 Us 84 285, Espanola, NM, 87532",,Correct,RIO ARRIBA,,,,,,Active,POINT (-106.079813 35.99057600000001),Yes,,Santa Clara,Santa Clara Pueblo,,,New Retailer,Independent,,,Y,5217466.0,5193354,KNIGHTS OF COLUMBUS #4205,RICKY SISNEROS,2830 E. 21ST ST. CLOVIS NM 88101,CLOVIS,NM,88101
3227,3227,,,BLACK MESA GOLF CLUB,115 STATE ROAD 399,Correct,115 STATE ROAD 399,ESPANOLA,Correct,ESPANOLA,NM,Correct,NM,87532,Correct,87532.0,,,35.960361999999996,,,-106.05291399999999,,,"115 State Road 399, Espanola, NM, 87532",,Correct,SANTA FE,,,,,,Active,POINT (-106.052914 35.960362),Yes,,Santa Clara,Santa Clara Pueblo,,,New Retailer,Independent,,,N,1915488.0,,,,,,,
3232,3232,,,ISLETA EAGLE GOLF COURSE,4001 STATE ROAD 47 SE,Correct,4001 STATE ROAD 47 SE,ALBUQUERQUE,Correct,ALBUQUERQUE,NM,Correct,NM,87105,Correct,87105.0,,,34.941770500000004,,,-106.66628659999999,,,"4001 State Road 47 SE, Albuquerque, NM, 87105",,Correct,BERNALILLO,,,,,,Active,POINT (-106.6662866 34.9417705),Yes,,Isleta,Isleta Pueblo,,,New Retailer,Independent,,,N,1633850.0,,,,,,,
3263,3263,,,INN OF THE MOUNTAIN CASINO,287 CARRIZO CANYON RD,Correct,287 CARRIZO CANYON RD,MESCALERO,Correct,MESCALERO,NM,Correct,NM,88340,Correct,88340.0,,,33.2950103,,,-105.68960870000001,,,"287 Carrizo Canyon Rd, Mescalero, NM, 88340",,Correct,OTERO,,,,,,Active,POINT (-105.6896087 33.2950103),Yes,,Mescalero,Mescalero Reservation,,,New Retailer,Independent,,,N,7598503.0,,,,,,,
3268,3268,,,INN OF MOUNTAIN GOD CASINO,25845 US HIGHWAY 70,Correct,25845 US HIGHWAY 70,MESCALERO,Correct,MESCALERO,NM,Correct,NM,88340,Correct,88340.0,,,33.299175,,,-105.657524,,,"25845 Us Highway 70, Mescalero, NM, 88340",,Correct,OTERO,,,,,,Active,POINT (-105.657524 33.299175),Yes,,Mescalero,Mescalero Reservation,,,New Retailer,Independent,,,N,3591927.0,,,,,,,
3285,3285,,,BIG ROCK CASINO BOWL,419 N RIVERSIDE DR,Correct,419 N RIVERSIDE DR,ESPANOLA,Correct,ESPANOLA,NM,Correct,NM,87532,Correct,87532.0,,,35.995076,,,-106.06643100000001,,,"419 N Riverside Dr, Espanola, NM, 87532",,Correct,SANTA FE,,,,,,Active,POINT (-106.066431 35.995076),Yes,,Santa Clara,Santa Clara Pueblo,,,New Retailer,Independent,,,N,1796887.0,,,,,,,
3316,3316,,,SANTA ANA GOLF CLUB,288 PRAIRIE STAR RD,Correct,288 PRAIRIE STAR RD,BERNALILLO,Correct,BERNALILLO,NM,Correct,NM,87004,Correct,87004.0,,,35.33544910000001,,,-106.56265400000001,,,"288 Prairie Star Rd, Bernalillo, NM, 87004",,Correct,SANDOVAL,,,,,,Active,POINT (-106.562654 35.33544910000001),Yes,,Santa Ana,Santa Ana Pueblo,,,New Retailer,Independent,,,N,5211717.0,,,,,,,
3330,3330,,,TWIN WARRIORS,1301 TUYUNA TRL,Correct,1301 TUYUNA TRL,BERNALILLO,Correct,BERNALILLO,NM,Correct,NM,87004,Correct,87004.0,,,35.343605,,,-106.56607,,,"1301 Tuyuna Trl, Bernalillo, NM, 87004",,Correct,SANDOVAL,,,,,,Active,POINT (-106.56607 35.343605),Yes,,Santa Ana,Santa Ana Pueblo,,,New Retailer,Independent,,,N,3743818.0,,,,,,,
3337,3337,,,ISLETA PUEBLO LAKES & RV PARK,4051 HWY 327,Correct,4051 HWY 327,ALBUQUERQUE,Correct,ALBUQUERQUE,NM,Correct,NM,87105,Correct,87105.0,,,34.945353000000004,,,-106.67431100000002,,,"4051 Hwy 327, Albuquerque, NM, 87105",,Correct,BERNALILLO,,,,,,Active,POINT (-106.674311 34.945353),Yes,,Isleta,Isleta Pueblo,,,New Retailer,Independent,,,N,1929924.0,,,,,,,
3339,3339,,,PUYE CLIFFS DWELLING,300 HWY 30,Correct,300 HWY 30,ESPANOLA,Correct,ESPANOLA,NM,Correct,NM,87532,Correct,87532.0,,,35.98685820000001,,,-106.0806092,,,"300 Hwy 30, Espanola, NM, 87532",,Correct,RIO ARRIBA,,,,,,Active,POINT (-106.0806092 35.98685820000001),Yes,,Santa Clara,Santa Clara Pueblo,,,New Retailer,Independent,,,N,7410039.0,,,,,,,
