IMPAQ_ID,DBA Name,Address Line 1,Address Line 2,City,State,Zip,Latitude,Longitude,Full Address,matchsource,est_id,found_pic,Manual Result,name_update,addr_update,lat_update,lon_update,biz_status,DBA Name_update,Full Address_update,Latitude_update,Longitude_update,Coordinates,On Tribe Land,Miles to Nearest Tribe,Assoc Tribe,Assoc Res,Nearest Tribe,Nearest Res,ori_flg,Owner Name,Owner City,Owner State,Non-Corporate Owned,Niel_id,Address Line 1_update,City_update,State_update,Zip_update,County,County_update,SoS_record,entity,agent_name,store_address,agent_address,agent_city,agent_state,agent_zip
15,HANK'S TRADING POST,NORTH HIGHWAY 89 MP 446,,FLAGSTAFF,AZ,86004,35.35924931,-111.57035069999999,"NORTH HIGHWAY 89 MP 446  FLAGSTAFF, AZ 86004",Original,15.0,,,Correct,"31926 North, US-89, Flagstaff, AZ 86004, USA",35.5934922,-111.5274097,Active,HANK'S TRADING POST,"31926 North, US-89, Flagstaff, AZ 86004, USA",35.5934922,-111.5274097,POINT (-111.5274097 35.59349220000001),No,3.572698767,,,Navajo Nation,Navajo Nation Reservation,From Original List,,,,,,31926 NORTH US-89,FLAGSTAFF,AZ,86004,COCONINO,COCONINO,L21920437,HANK'S TRADING POST LLC,MORGAN FATALI,"Address: 31926 N US HIGHWAY 89, FLAGSTAFF, AZ, 86004, USA",31926 N US HIGHWAY 89 FLAGSTAFF AZ 86004 USA,FLAGSTAFF,AZ,86004
17,WOODY'S,23505  MOHAVE RD,,PARKER,AZ,85344,33.99004826,-114.4003922,"23505  MOHAVE RD  PARKER, AZ 85344",Original,17.0,,,Correct,Correct,Correct,Correct,Active,WOODY'S,"23505  MOHAVE RD PARKER, AZ 85344",33.99004826,-114.4003922,POINT (-114.4003922 33.99004826),Yes,0.0,Colorado River,Colorado River Indian Reservation,,,From Original List,,,,,,No changes,No changes,No changes,No changes,LA PAZ,LA PAZ,L11645201,WOODY'S LLC,GLENN STEWAR WOODEN,"Address: 2200 E CAMELBACK RD #206, PHOENIX, AZ, 85016, USA",2824 N POWER RD SUITE 113 MESA AZ 85215 USA,MESA,AZ,85215
20,LITTLE BROWN JUG,900 S CALIFORNIA AVE,,PARKER,AZ,85344,34.15131721,-114.28981019999999,"900 S CALIFORNIA AVE  PARKER, AZ 85344",Original,20.0,,,Correct,Correct,Correct,Correct,Active,LITTLE BROWN JUG,"900 S CALIFORNIA AVE PARKER, AZ 85344",34.15131721,-114.28981019999999,POINT (-114.2898102 34.15131721),Yes,0.0,Colorado River,Colorado River Indian Reservation,,,From Original List,,,,,,No changes,No changes,No changes,No changes,LA PAZ,LA PAZ,02347199,"LITTLE BROWN JUG, INC.",JOHN C CHURCHILL,"Address: % JOHN C CHURCHILL 1300 JOSHUA AVE STE B, PARKER, AZ, 85344, USA",1300 JOSHUA AVE STE B PARKER AZ 85344 USA,PARKER,AZ,85344
21,LAKE MANOR GROCERY,10142 RIVERSIDE DR,,PARKER,AZ,85344,34.18554032,-114.22585359999998,"10142 RIVERSIDE DR  PARKER, AZ 85344",Original,21.0,,,LAKE MANOR MARKET,Correct,Correct,Correct,Closed,LAKE MANOR MARKET,"10142 RIVERSIDE DR PARKER, AZ 85344",34.18554032,-114.22585359999998,POINT (-114.2258536 34.18554032),No,0.16718460699999999,,,Colorado River,Colorado River Indian Reservation,From Original List,,,,,,No changes,No changes,No changes,No changes,LA PAZ,LA PAZ,10940080,"LAKE MANOR MARKET, INC.",JAMES R COURSON SR,"Address: 10142 RIVERSIDE DR, PARKER, AZ, 85344, USA",9382 BLUFF DR PARKER AZ 85344 USA,PARKER,AZ,85344
22,CIRCLE K,1516 S CALIFORNIA AVE,,PARKER,AZ,85344,34.14518762,-114.286023,"1516 S CALIFORNIA AVE  PARKER, AZ 85344",Original,22.0,,,Correct,Correct,Correct,Correct,Active,CIRCLE K,"1516 S CALIFORNIA AVE PARKER, AZ 85344",34.14518762,-114.286023,POINT (-114.286023 34.14518762),Yes,0.0,Colorado River,Colorado River Indian Reservation,,,From Original List,,,,,,No changes,No changes,No changes,No changes,LA PAZ,LA PAZ,,,,,,,,
23,CIRCLE K,8861  RIVERSIDE DR,,PARKER,AZ,85344,34.19988831,-114.2193001,"8861  RIVERSIDE DR  PARKER, AZ 85344",Original,23.0,,,Correct,Correct,Correct,Correct,Active,CIRCLE K,"8861  RIVERSIDE DR PARKER, AZ 85344",34.19988831,-114.2193001,POINT (-114.2193001 34.19988831),No,0.822683492,,,Colorado River,Colorado River Indian Reservation,From Original List,,,,,,No changes,No changes,No changes,No changes,LA PAZ,LA PAZ,,,,,,,,
26,BEST BUY MARKET,8892  HIGHWAY 95,,MOHAVE VALLEY,AZ,86440,34.89831978,-114.59729420000001,"8892  HIGHWAY 95  MOHAVE VALLEY, AZ 86440",Original,26.0,1.0,yes,Correct,"8828 AZ-95, Mohave Valley, AZ 86440, USA",34.8985463,-114.5972987,Active,BEST BUY MARKET,"8828 AZ-95, Mohave Valley, AZ 86440, USA",34.8985463,-114.5972987,POINT (-114.5972987 34.89854629999999),No,0.041134057,,,Fort Mojave,Fort Mojave Reservation,From Original List,,,,,,8828 -95,MOHAVE VALLEY,AZ,86440,MOHAVE,MOHAVE,01134352,"BEST BUY MARKET, INC.",THOMAS E PRICE,"Address: 725 BROADWAY, NEEDLES, CA, 92363, USA",501 E OAK ST KINGMAN AZ 86401 USA,KINGMAN,AZ,86401
27,ARCO AM/PM,10001 HARBOR AVE,,MOHAVE VALLEY,AZ,86440,34.86571936,-114.5999112,"10001 HARBOR AVE  MOHAVE VALLEY, AZ 86440",Original,27.0,,,Correct,Correct,Correct,Correct,Active,ARCO AM/PM,"10001 HARBOR AVE MOHAVE VALLEY, AZ 86440",34.86571936,-114.5999112,POINT (-114.5999112 34.86571936),No,0.027728932,,,Fort Mojave,Fort Mojave Reservation,From Original List,,,,,,No changes,No changes,No changes,No changes,MOHAVE,MOHAVE,11005855,ARCO AM PM STORE 5376 INC,RASHID JABER,"Address: 8501 N 7TH ST, PHOENIX, AZ, 85020, USA",8501 N 7TH ST PHOENIX AZ 85020 USA,PHOENIX,AZ,85020
33,YAVAPAI INDIAN SMOKE SHOP,1841 E HIGHWAY 69,FRONTIER VILLAGE CENTER,PRESCOTT,AZ,86301,34.54984283,-112.43704220000001,"1841 E HIGHWAY 69 FRONTIER VILLAGE CENTER PRESCOTT, AZ 86301",Original,33.0,,,Correct,Correct,Correct,Correct,Active,YAVAPAI INDIAN SMOKE SHOP,"1841 E HIGHWAY 69 PRESCOTT, AZ 86301",34.54984283,-112.43704220000001,POINT (-112.4370422 34.54984283),Yes,0.0,Yavapai-Prescott,Yavapai-Prescott Reservation,,,From Original List,,,,,,No changes,No changes,No changes,No changes,YAVAPAI,YAVAPAI,L14765684,"YAVAPAI INDIAN SMOKE SHOP, L.L.C.",MICHAEL L HOLDSWORTH,"Address: 1841 E HIGHWAY 69 STE 101, PRESCOTT, AZ, 86301, USA",3031 DOLLAR MARK WAY STE B PRESCOTT AZ 86305 USA,PRESCOTT,AZ,86305
37,7-ELEVEN,230 R.R.,,KAYENTA,AZ,86033,36.90800476,-111.45520020000001,"230 R.R.  KAYENTA, AZ 86033",Original,37.0,,,Correct,Correct,Correct,Correct,Closed,7-ELEVEN,"230 R.R. KAYENTA, AZ 86033",36.90800476,-111.45520020000001,POINT (-111.4552002 36.90800476),No,1.9931439469999999,,,Navajo Nation,Navajo Nation Reservation,From Original List,,,,,,No changes,No changes,No changes,No changes,,COCONINO,F00092778,"7-ELEVEN, INC.",CORPORATE CREATIONS NETWORK IN,"Address: % CORPORATE CREATIONS NETWORK 3260 N HAYDEN ROAD #210, SCOTTSDALE, AZ, 85251, USA",3260 N HAYDEN RD # 210 SCOTTSDALE AZ 85251 USA,SCOTTSDALE,AZ,85251
38,7-ELEVEN,HWY. 160 & HWY. 163,,KAYENTA,AZ,86033,34.64115906,-111.7825394,"HWY. 160 & HWY. 163  KAYENTA, AZ 86033",Original,38.0,,,Correct,Correct,Correct,Correct,Active,7-ELEVEN,"HWY. 160 & HWY. 163  KAYENTA, AZ 86033",34.64115906,-111.7825394,POINT (-115.1728215 36.0572398),No,8.526421997,,,Navajo Nation,Navajo Nation Reservation,From Original List,,,,,,No changes,No changes,No changes,No changes,,CLARK,F00092778,"7-ELEVEN, INC.",CORPORATE CREATIONS NETWORK IN,"Address: % CORPORATE CREATIONS NETWORK 3260 N HAYDEN ROAD #210, SCOTTSDALE, AZ, 85251, USA",3260 N HAYDEN RD # 210 SCOTTSDALE AZ 85251 USA,SCOTTSDALE,AZ,85251
39,7-ELEVEN,417 MAIN ST.,,TUBA CITY,AZ,86045,36.125296999999996,-111.236398,"417 MAIN ST.  TUBA CITY, AZ 86045",Original,39.0,,,Correct,Correct,Correct,Correct,Active,7-ELEVEN,"417 MAIN ST. TUBA CITY, AZ 86045",36.125296999999996,-111.236398,POINT (-111.236398 36.125297),Yes,0.0,Navajo Nation,Navajo Nation Reservation,,,From Original List,,,,,,No changes,No changes,No changes,No changes,,COCONINO,F00092778,"7-ELEVEN, INC.",CORPORATE CREATIONS NETWORK IN,"Address: % CORPORATE CREATIONS NETWORK 3260 N HAYDEN ROAD #210, SCOTTSDALE, AZ, 85251, USA",3260 N HAYDEN RD # 210 SCOTTSDALE AZ 85251 USA,SCOTTSDALE,AZ,85251
40,7-ELEVEN,HWY. 191,,MANY FARMS,AZ,86538,36.352802000000004,-109.61797,"HWY. 191  MANY FARMS, AZ 86538",Original,40.0,1.0,yes,Correct,Correct,Correct,Correct,Active,7-ELEVEN,"HWY. 191 MANY FARMS, AZ 86538",36.352802000000004,-109.61797,POINT (-109.61797 36.352802),Yes,0.0,Navajo Nation,Navajo Nation Reservation,,,From Original List,,,,,,No changes,No changes,No changes,No changes,,APACHE,F00092778,"7-ELEVEN, INC.",CORPORATE CREATIONS NETWORK IN,"Address: % CORPORATE CREATIONS NETWORK 3260 N HAYDEN ROAD #210, SCOTTSDALE, AZ, 85251, USA",3260 N HAYDEN RD # 210 SCOTTSDALE AZ 85251 USA,SCOTTSDALE,AZ,85251
45,BASHAS,1020 W. AZ DR.,,PARKER,AZ,85344,34.14674,-114.28884599999999,"1020 W. AZ DR.  PARKER, AZ 85344",Original,45.0,,,Correct,"1020 W Arizona Ave, Parker, AZ 85344, USA",34.147022,-114.2896637,Closed,BASHAS,"1020 W Arizona Ave, Parker, AZ 85344, USA",34.147022,-114.2896637,POINT (-114.2896637 34.147022),Yes,0.0,Colorado River,Colorado River Indian Reservation,,,From Original List,,,,,,1020 W ARIZONA AVE,PARKER,AZ,85344,,LA PAZ,00446054,BASHAS' INC.,ANDREW ABRAHAM,"Address: 22402 S BASHA RD, CHANDLER, AZ, 85248, USA",BURCH & CRACCHIOLO PA 702 E OSBORN RD # 200 PHOENIX AZ 85014 USA,PHOENIX,AZ,85014
55,BLACK MESA SHOPPING CENTER,HWY. 160 & HWY. 564,,BLACK MESA,AZ,86503,,,"HWY. 160 & HWY. 564  BLACK MESA, AZ 86503",Original,55.0,,,Correct,Correct,Correct,Correct,Active,BLACK MESA SHOPPING CENTER,"HWY. 160 & HWY. 564 BLACK MESA, AZ 86503",,,POINT (nan nan),Unknown,,Unknown,Unknown,,,From Original List,,,,,,No changes,No changes,No changes,No changes,,,02443352,"BLACK MESA SHOPPING CENTER, INC.",TAMMY VAN KEUREN,"Address: PO BOX 249, KAYENTA, AZ, 86033, USA",HWY 160 & 564 TONALEA AZ 86044 USA,TONALEA,AZ,86044
61,CASINO ARIZONA,524 N. 92ND ST.,,SCOTTSDALE,AZ,85256,33.453694,-111.883321,"524 N. 92ND ST.  SCOTTSDALE, AZ 85256",Original,61.0,,,Correct,Correct,Correct,Correct,Active,CASINO ARIZONA,"524 N. 92ND ST. SCOTTSDALE, AZ 85256",33.453694,-111.883321,POINT (-111.883321 33.453694),Yes,0.0,Salt River,Salt River Reservation,,,From Original List,,,,,,No changes,No changes,No changes,No changes,,MARICOPA,,,,,,,,
63,CHEVRON,RTE. 7,,CHINLE,AZ,86503,36.123495,-109.4847788,"RTE. 7  CHINLE, AZ 86503",Google,63.0,,,Correct,Correct,Correct,Correct,Active,CHEVRON,"RTE. 7 CHINLE, AZ 86503",36.123495,-109.4847788,POINT (-109.4847788 36.123495),Yes,0.0,Navajo Nation,Navajo Nation Reservation,,,From Original List,,,,,,No changes,No changes,No changes,No changes,,APACHE,,,,,,,,
64,CHEVRON,320 CASTLE LANE,,CAMP VERDE,AZ,86322,34.609814,-111.85986399999999,"320 CASTLE LANE  CAMP VERDE, AZ 86322",Original,64.0,,,Correct,Correct,Correct,Correct,Active,CHEVRON,"320 CASTLE LANE CAMP VERDE, AZ 86322",34.609814,-111.85986399999999,POINT (-111.859864 34.609814),No,0.07136622599999999,,,Yavapai-Apache Nation,Yavapai-Apache Nation Reservation,From Original List,,,,,,No changes,No changes,No changes,No changes,,YAVAPAI,,,,,,,,
66,CIRCLE K,1516 S. CA AVE.,,PARKER,AZ,85344,34.145227,-114.285976,"1516 S. CA AVE.  PARKER, AZ 85344",Original,66.0,,,Correct,"1516 S California Ave, Parker, AZ 85344, USA",34.1445607,-114.2859445,Active,CIRCLE K,"1516 S California Ave, Parker, AZ 85344, USA",34.1445607,-114.28594450000001,POINT (-114.2859445 34.1445607),Yes,0.0,Colorado River,Colorado River Indian Reservation,,,From Original List,,,,,,1516 S CALIFORNIA AVE,PARKER,AZ,85344,,LA PAZ,,,,,,,,
67,CIRCLE K,8861 RIVERSIDE DR.,,PARKER,AZ,85344,34.200094,-114.220454,"8861 RIVERSIDE DR.  PARKER, AZ 85344",Original,67.0,,,Correct,Correct,Correct,Correct,Active,CIRCLE K,"8861 RIVERSIDE DR. PARKER, AZ 85344",34.200094,-114.220454,POINT (-114.220454 34.200094),No,0.753166819,,,Colorado River,Colorado River Indian Reservation,From Original List,,,,,,No changes,No changes,No changes,No changes,,LA PAZ,,,,,,,,
70,CONOCO,U.S. 160,,KAYENTA,AZ,86033,34.51117706,-114.3254395,"U.S. 160  KAYENTA, AZ 86033",Original,70.0,1.0,yes,Correct,Correct,Correct,Correct,Active,CONOCO,"U.S. 160 KAYENTA, AZ 86033",34.51117706,-114.3254395,POINT (-114.3254395 34.51117706),No,4.093818172,,,Chemehuevi,Chemehuevi Reservation,From Original List,,,,,,No changes,No changes,No changes,No changes,,MOHAVE,F00270049,CONOCO INC.,C T CORPORATION SYSTEM,"Address: 600 N DAIRY ASHFORD ***, HOUSTON, TX, 77079, USA",3225 N CENTRAL AVE PHOENIX AZ 85012 USA,PHOENIX,AZ,85012
71,CONOCO,BIA RTE. 4 & BIA RTE. 41,,PINON,AZ,86510,36.097988,-110.2168,"BIA RTE. 4 & BIA RTE. 41  PINON, AZ 86510",Original,71.0,,,Correct,Correct,Correct,Correct,Active,CONOCO,"BIA RTE. 4 & BIA RTE. 41 PINON, AZ 86510",36.097988,-110.2168,POINT (-110.2168 36.097988),Yes,0.0,Navajo Nation,Navajo Nation Reservation,,,From Original List,,,,,,No changes,No changes,No changes,No changes,,NAVAJO,F00270049,CONOCO INC.,C T CORPORATION SYSTEM,"Address: 600 N DAIRY ASHFORD ***, HOUSTON, TX, 77079, USA",3225 N CENTRAL AVE PHOENIX AZ 85012 USA,PHOENIX,AZ,85012
78,GIANT,HWY. 160 & HWY. 163,,KAYENTA,AZ,86033,36.707734,-110.24727299999999,"HWY. 160 & HWY. 163  KAYENTA, AZ 86033",Original,78.0,,,Can't Validate,Can't Validate,Can't Validate,Can't Validate,Can't Validate,GIANT,"HWY. 160 & HWY. 163 KAYENTA, AZ 86033",36.707734,-110.24727299999999,POINT (-110.247273 36.707734),Yes,0.0,Navajo Nation,Navajo Nation Reservation,,,From Original List,,,,,,No changes,No changes,No changes,No changes,,NAVAJO,L09475492,"GIANT, LLC",MICHAEL M CURTISS,"Address: % MICHAEL M CURTISS 1900 W CHANDLER #14, CHANDLER, AZ, 85224, USA",3920 E WALDON AVE PHOENIX AZ 85018 USA,PHOENIX,AZ,85018
90,H MARKET,506 N. CHIEF AVE.,,WHITERIVER,AZ,85941,33.838466,-109.964432,"506 N. CHIEF AVE.  WHITERIVER, AZ 85941",Original,90.0,,,Correct,Correct,Correct,Correct,Active,H MARKET,"506 N. CHIEF AVE. WHITERIVER, AZ 85941",33.838466,-109.964432,POINT (-109.964432 33.838466),Yes,0.0,Fort Apache,Fort Apache Reservation,,,From Original List,,,,,,No changes,No changes,No changes,No changes,,NAVAJO,,,,,,,,
95,HOPI TRAVEL PLAZA,I-40 EXIT 292,,HOLBROOK,AZ,86025,34.974003,-110.09013,"I-40 EXIT 292  HOLBROOK, AZ 86025",Original,95.0,,,Correct,Correct,Correct,Correct,Active,HOPI TRAVEL PLAZA,"I-40 EXIT 292 HOLBROOK, AZ 86025",34.974003,-110.09013,POINT (-110.09013 34.974003),No,12.83425309,,,Navajo Nation,Navajo Nation Reservation,From Original List,,,,,,No changes,No changes,No changes,No changes,,NAVAJO,L10337770,HOPI TRAVEL PLAZA LLC,OSBORN MALEDON PA,"Address: PO BOX 123, KYKOTSMOVI, AZ, 86039, USA",2929 N CENTRAL AVE # 2100 PHOENIX AZ 85012 USA,PHOENIX,AZ,85012
96,HUALAPAI KWIK STOP,2500 HUALAPI MTN. RD.,,KINGMAN,AZ,86401,35.191274,-114.019826,"2500 HUALAPI MTN. RD.  KINGMAN, AZ 86401",Original,96.0,,,Correct,Correct,Correct,Correct,Active,HUALAPAI KWIK STOP,"2500 HUALAPI MTN. RD. KINGMAN, AZ 86401",35.191274,-114.019826,POINT (-114.019826 35.191274),No,25.6526264,,,Hualapai,Hualapai Off-Reservation Trust Land,From Original List,,,,,,No changes,No changes,No changes,No changes,,MOHAVE,,,,,,,,
97,HUBBELL TRADING POST,HWY. 264,,GANADO,AZ,86505,35.708965,-109.54173,"HWY. 264  GANADO, AZ 86505",Original,97.0,,,Correct,Correct,Correct,Correct,Active,HUBBELL TRADING POST,"HWY. 264 GANADO, AZ 86505",35.708965,-109.54173,POINT (-109.54173 35.708965),Yes,0.0,Navajo Nation,Navajo Nation Reservation,,,From Original List,,,,,,No changes,No changes,No changes,No changes,,APACHE,02261435,"FRIENDS OF HUBBELL TRADING POST NATIONAL HISTORIC SITE, INC.",FRANK L KOHLER,"Address: 8191 E. Mountain Spring Rd, SCOTTSDALE, AZ, 85255, USA",8191 E. MOUNTAIN SPRING RD SCOTTSDALE AZ 85255 USA,SCOTTSDALE,AZ,85255
98,INDIAN SMOKE SHOP,117 W. RIVERSIDE DR.,,PARKER,AZ,85344,34.154339,-114.2799,"117 W. RIVERSIDE DR.  PARKER, AZ 85344",Original,98.0,,,Correct,Correct,Correct,Correct,Active,INDIAN SMOKE SHOP,"117 W. RIVERSIDE DR. PARKER, AZ 85344",34.154339,-114.2799,POINT (-114.2799 34.154339),Yes,0.0,Colorado River,Colorado River Indian Reservation,,,From Original List,,,,,,No changes,No changes,No changes,No changes,,LA PAZ,,,,,,,,
102,KAIBETO MARKET,1 MILE SOUTH ON HWY. 98,,KAIBETO,AZ,86053,36.585976,-111.09198,"1 MILE SOUTH ON HWY. 98  KAIBETO, AZ 86053",Original,102.0,,,Correct,"1 mile South Highway 98, Kaibito, AZ 86053, USA",36.5859754,-111.0919828,Active,KAIBETO MARKET,"1 mile South Highway 98, Kaibito, AZ 86053, USA",36.585975399999995,-111.0919828,POINT (-111.0919828 36.5859754),Yes,0.0,Navajo Nation,Navajo Nation Reservation,,,From Original List,,,,,,1 MILE SOUTH HIGHWAY 98,KAIBITO,AZ,86053,,COCONINO,L14637210,"KAIBETO MARKET, LLC",LISA HARRIS,"Address: PO BOX 1410, KAIBETO, AZ, 86053, USA",50 YARDS N OF KAIBETO MARKET KAIBETO AZ 86053 USA,OF KAIBETO MARKET KAIBETO,AZ,86053
108,MOBIL MART,10420 S. HARBOR AVE.,,MOHAVE VALLEY,AZ,86440,34.855053999999996,-114.606775,"10420 S. HARBOR AVE.  MOHAVE VALLEY, AZ 86440",Original,108.0,,,Correct,Correct,Correct,Correct,Active,MOBIL MART,"10420 S. HARBOR AVE. MOHAVE VALLEY, AZ 86440",34.855053999999996,-114.606775,POINT (-114.606775 34.855054),No,0.46921370799999995,,,Fort Mojave,Fort Mojave Off-Reservation Trust Land,From Original List,,,,,,No changes,No changes,No changes,No changes,,MOHAVE,,,,,,,,
114,PAINTED DESERT TRADING COMPANY,465 HWY. 89,,CAMERON,AZ,86020,35.874863,-111.4136,"465 HWY. 89  CAMERON, AZ 86020",Original,114.0,,,Correct,"8465 US-89, Cameron, AZ 86020, USA",35.8540888,-111.4247976,Active,PAINTED DESERT TRADING COMPANY,"8465 US-89, Cameron, AZ 86020, USA",35.8540888,-111.4247976,POINT (-111.4247976 35.8540888),Yes,0.0,Navajo Nation,Navajo Nation Reservation,,,From Original List,,,,,,8465 US-89,CAMERON,AZ,86020,,COCONINO,10781474,"PAINTED DESERT TRADING COMPANY, INC.",JANET E SHIPLEY,"Address: 18 N SAN FRANCISCO, FLAGSTAFF, AZ, 86001, USA",18 N SAN FRANCISCO FLAGSTAFF AZ 86001 USA,SAN FRANCISCO FLAGSTAFF,AZ,86001
116,PIC N RUN,7970 LEUPP RD,,LEUPP,AZ,86035,35.295355,-111.00586799999999,"7970 LEUPP RD  LEUPP, AZ 86035",Original,116.0,,,Correct,Correct,Correct,Correct,Active,PIC N RUN,"7970 LEUPP RD LEUPP, AZ 86035",35.295355,-111.00586799999999,POINT (-111.005868 35.295355),Yes,0.0,Navajo Nation,Navajo Nation Reservation,,,From Original List,,,,,,No changes,No changes,No changes,No changes,,COCONINO,,,,,,,,
123,ROUGH ROCK TRADING POST,HWY. 59,,ROUGH ROCK,AZ,86503,36.413646,-109.8716963,"HWY. 59  ROUGH ROCK, AZ 86503",Google,123.0,,,Correct,Correct,Correct,Correct,Active,ROUGH ROCK TRADING POST,"HWY. 59 ROUGH ROCK, AZ 86503",36.413646,-109.8716963,POINT (-109.8716963 36.413646),Yes,0.0,Navajo Nation,Navajo Nation Reservation,,,From Original List,,,,,,No changes,No changes,No changes,No changes,,APACHE,L11015713,ROUGH ROCK TRADING POST LLC,BONNIE JACKSON,"Address: ROUGH ROCK TRADING POST HWY 59G, CHINLE, AZ, 86503, USA",ROUGH ROCK TRADING POST HWY 59G CHINLE AZ 86503 USA,CHINLE,AZ,86503
127,SHONTO TRADING POST,101 SHONTO CANYON DR.,,SHONTO,AZ,86054,36.593253999999995,-110.64262,"101 SHONTO CANYON DR.  SHONTO, AZ 86054",Original,127.0,,,Correct,Correct,Correct,Correct,Active,SHONTO TRADING POST,"101 SHONTO CANYON DR. SHONTO, AZ 86054",36.593253999999995,-110.64262,POINT (-110.64262 36.59325399999999),Yes,0.0,Navajo Nation,Navajo Nation Reservation,,,From Original List,,,,,,No changes,No changes,No changes,No changes,,NAVAJO,L17445872,"SHONTO TRADING POST, LLC",CAROLENE G EKIS,"Address: PO BOX 7711, SHONTO, AZ, 86054, USA",22 SO LAKE POWELL BLVD PAGE AZ 86040 USA,PAGE,AZ,86040
130,SPEEDY'S,JCT. HWY. 160 & 163,,KAYENTA,AZ,86033,36.706362799999994,-110.24807890000001,"JCT. HWY. 160 & 163  KAYENTA, AZ 86033",Google,130.0,,,Can't Validate,Can't Validate,Can't Validate,Can't Validate,Can't Validate,SPEEDY'S,"JCT. HWY. 160 & 163 KAYENTA, AZ 86033",36.706362799999994,-110.24807890000001,POINT (-110.2480789 36.70636279999999),Yes,0.0,Navajo Nation,Navajo Nation Reservation,,,From Original List,,,,,,No changes,No changes,No changes,No changes,,NAVAJO,,,,,,,,
131,SPEEDY'S,35900 HWY. I-40 EXIT 359,,LUPTON,AZ,86508,35.3629829,-109.04824709999998,"35900 HWY. I-40 EXIT 359  LUPTON, AZ 86508",Google,131.0,,,Correct,"I-40 & EXIT 359 Grant Rd, Lupton, AZ 86508, USA",35.3629829,-109.0482471,Active,SPEEDY'S,"I-40 & EXIT 359 Grant Rd, Lupton, AZ 86508, USA",35.3629829,-109.04824709999998,POINT (-109.0482471 35.3629829),Yes,0.0,Navajo Nation,Navajo Nation Reservation,,,From Original List,,,,,,I-40 & EXIT 359 GRANT RD,LUPTON,AZ,86508,,APACHE,,,,,,,,
134,STATELINE GENERAL STORE,I-40 GRANTS RD.,,LUPTON,AZ,86508,35.363434000000005,-109.04786999999999,"I-40 GRANTS RD.  LUPTON, AZ 86508",Original,134.0,,,Correct,Correct,Correct,Correct,Active,STATELINE GENERAL STORE,"I-40 GRANTS RD. LUPTON, AZ 86508",35.363434000000005,-109.04786999999999,POINT (-109.04787 35.36343400000001),Yes,0.0,Navajo Nation,Navajo Nation Reservation,,,From Original List,,,,,,No changes,No changes,No changes,No changes,,APACHE,07177369,"STATELINE GENERAL STORE, INC.",JULIO VIGIL,"Address: I 40 GRANTS ROAD EXIT EXIT 359, LUPTON, AZ, 86508, USA",I 40 GRANTS RD EXIT EXIT 359 LUPTON AZ 86508 USA,LUPTON,AZ,86508
138,SUPER STOP,10485 SOUTH BARRACKMAN ROAD,,MOHAVE VALLEY,AZ,86440,34.85243,-114.59778600000001,"10485 SOUTH BARRACKMAN ROAD  MOHAVE VALLEY, AZ 86440",Census,138.0,,,Correct,Correct,Correct,Correct,Active,SUPER STOP,"10485 SOUTH BARRACKMAN ROAD MOHAVE VALLEY, AZ 86440",34.85243,-114.59778600000001,POINT (-114.597786 34.85243),No,0.000568872,,,Fort Mojave,Fort Mojave Reservation,From Original List,,,,,,No changes,No changes,No changes,No changes,,MOHAVE,06007590,"SUPER STOP, INC.",MARIE E FINN,"Address: PO BOX 6505, MOHAVE VALLEY, AZ, 86446, USA",PO BOX 6505 MOHAVE VALLEY AZ 86446 USA,MOHAVE VALLEY,AZ,86446
150,USA GAS,216 W. RIVERSIDE DR.,,PARKER,AZ,85344,34.15379,-114.281126,"216 W. RIVERSIDE DR.  PARKER, AZ 85344",Original,150.0,,,Correct,Correct,Correct,Correct,Active,USA GAS,"216 W. RIVERSIDE DR. PARKER, AZ 85344",34.15379,-114.281126,POINT (-114.281126 34.15379),Yes,0.0,Colorado River,Colorado River Indian Reservation,,,From Original List,,,,,,No changes,No changes,No changes,No changes,,LA PAZ,,,,,,,,
153,WILLOW VALLEY LIQUOR STORE,8045 S. HWY. 95,,MOHAVE VALLEY,AZ,86440,34.919203,-114.597794,"8045 S. HWY. 95  MOHAVE VALLEY, AZ 86440",Original,153.0,,,Correct,"8045 AZ-95, Mohave Valley, AZ 86440, USA",34.918842,-114.598415,Active,WILLOW VALLEY LIQUOR STORE,"8045 AZ-95, Mohave Valley, AZ 86440, USA",34.918842,-114.59841499999999,POINT (-114.598415 34.918842),No,0.037484771,,,Fort Mojave,Fort Mojave Reservation,From Original List,,,,,,8045 -95,MOHAVE VALLEY,AZ,86440,,MOHAVE,01859800,"WILLOW VALLEY LIQUOR STORE, INC.",DANIEL J OEHLER,"Address: 8045 HWY 95, MOHAVE VALLEY, AZ, 86440, USA",,,,
157,ON AUK MOR TRADE CENTERS,10115 E MCDOWELL RD,,SCOTTSDALE,AZ,85256,33.465721,-111.864528,"10115 E MCDOWELL RD  SCOTTSDALE, AZ 85256",Original,157.0,1.0,yes,ON-AUK-MOR TRADE CENTER,Correct,Correct,Correct,Active,ON-AUK-MOR TRADE CENTER,"10115 E MCDOWELL RD SCOTTSDALE, AZ 85256",33.465721,-111.864528,POINT (-111.864528 33.465721),Yes,0.0,Salt River,Salt River Reservation,,,From Original List,,,,,,No changes,No changes,No changes,No changes,MARICOPA,MARICOPA,,,,,,,,
159,PRESCOTT WINNELSON,410 6TH ST,,PRESCOTT,AZ,86301,34.547553,-112.465404,"410 6TH ST  PRESCOTT, AZ 86301",Original,159.0,1.0,yes,PRESCOTT WINSUPPLY,Correct,Correct,Correct,Active,PRESCOTT WINSUPPLY,"410 6TH ST PRESCOTT, AZ 86301",34.547553,-112.465404,POINT (-112.465404 34.547553),No,0.337769376,,,Yavapai-Prescott,Yavapai-Prescott Reservation,From Original List,,,,,,No changes,No changes,No changes,No changes,,YAVAPAI,F12589037,PRESCOTT WINSUPPLY CO.,CORPORATION SERVICE COMPANY,"Address: 8825 N 23rd Avenue, Suite 100, PHOENIX, AZ, 85021, USA",8825 N 23RD AVE SUITE 100 PHOENIX AZ 85021 USA,PHOENIX,AZ,85021
161,SOUTHWEST CIGARS,1651 S ARIZONA AVE,,YUMA,AZ,85364,32.698056,-114.61588700000001,"1651 S ARIZONA AVE  YUMA, AZ 85364",Original,161.0,1.0,yes,Correct,Correct,Correct,Correct,Active,SOUTHWEST CIGARS,"1651 S ARIZONA AVE YUMA, AZ 85364",32.698056,-114.61588700000001,POINT (-114.615887 32.698056),No,1.568774816,,,Fort Yuma,Fort Yuma Indian Reservation,From Original List,,,,,,No changes,No changes,No changes,No changes,,YUMA,L15941589,SOUTHWEST CIGARS LLC,DEREK BECKER,"Address: 4802 N. 42ND PL, PHOENIX, AZ, 85018, USA",4802 N. 42ND PL PHOENIX AZ 85018 USA,PHOENIX,AZ,85018
165,YAVAPAI LABORISTS LLC,1005 DIVISION ST,,PRESCOTT,AZ,86301,34.560699,-112.47943899999999,"1005 DIVISION ST  PRESCOTT, AZ 86301",Original,165.0,1.0,yes,Correct,Correct,Correct,Correct,Active,YAVAPAI LABORISTS LLC,"1005 DIVISION ST PRESCOTT, AZ 86301",34.560699,-112.47943899999999,POINT (-112.479439 34.560699),No,0.34556839,,,Yavapai-Prescott,Yavapai-Prescott Reservation,From Original List,,,,,,No changes,No changes,No changes,No changes,,YAVAPAI,L16081464,"YAVAPAI LABORISTS, LLC",ADAM FEINGOLD,"Address: 1005 DIVISION ST, PRESCOTT, AZ, 86301, USA",1005 DIVISION ST PRESCOTT AZ 86301 USA,PRESCOTT,AZ,86301
167,YAVAPAI TERRITORIAL GOSPEL RESCUE MISSION,602 LINCOLN AVE,,PRESCOTT,AZ,86301,34.551513,-112.47463700000002,"602 LINCOLN AVE  PRESCOTT, AZ 86301",Original,167.0,,,Can't Validate,Can't Validate,Can't Validate,Can't Validate,Can't Validate,YAVAPAI TERRITORIAL GOSPEL RESCUE MISSION,"602 LINCOLN AVE PRESCOTT, AZ 86301",34.551513,-112.47463700000002,POINT (-112.474637 34.551513),No,0.55998821,,,Yavapai-Prescott,Yavapai-Prescott Reservation,From Original List,,,,,,No changes,No changes,No changes,No changes,,YAVAPAI,18208205,YAVAPAI TERRITORIAL GOSPEL RESCUE MISSION,DAVID F BARRERAS,"Address: 602 LINCOLN AVE, PRESCOTT, AZ, 86301, USA",602 LINCOLN AVE PRESCOTT AZ 86301 USA,PRESCOTT,AZ,86301
2004,,392 STATE ROUTE 264,,POLACCA,AZ,86042,,,,,,,,,,,,Active,CIRCLE MARKET,"392 State Route 264, Polacca, AZ, 86042",35.80775429999999,-110.41693000000001,POINT (-110.41693 35.80775429999999),Yes,,Hopi,Hopi Reservation,,,New Retailer,Independent,,,N,748198.0,392 STATE ROUTE 264,POLACCA,AZ,86042,,NAVAJO,,,,,,,,
2080,,4747 S HIGHWAY 95,,FORT MOHAVE,AZ,86426,,,,,,,,,,,,Active,SMITHS,"4747 S Highway 95, Fort Mohave, AZ, 86426",35.0191915,-114.6004588,POINT (-114.6004588 35.0191915),Yes,,Fort Mojave,Fort Mojave Reservation,,,New Retailer,Smiths Food & Drug,Salt Lake City,UT,N,1445227.0,4747 S HIGHWAY 95,FORT MOHAVE,AZ,86426,,MOHAVE,L13875836,"DATA SMITHS, LLC",GORDON SMITH,"Address: 3015 W BRENDA LOOP, FLAGSTAFF, AZ, 86001, USA",3015 W BRENDA LOOP FLAGSTAFF AZ 86001 USA,FLAGSTAFF,AZ,86001
2097,,111 MAIN ST,,SELLS,AZ,85634,,,,,,,,,,,,Active,BASHAS MARKET,"111 Main St, Sells, AZ, 85634",31.9146281,-111.88719609999998,POINT (-111.8871961 31.9146281),Yes,,Tohono O'odham Nation,Tohono O'odham Nation Reservation,,,New Retailer,Bashas Markets Inc,Chandler,AZ,N,296730.0,111 MAIN ST,SELLS,AZ,85634,,PIMA,,,,,,,,
2115,,112 MAIN ST,,KYKOTSMOVI VILLAGE,AZ,86039,,,,,,,,,,,,Active,VILLAGE STORE,"112 Main St, Kykotsmovi Village, AZ, 86039",35.8684039,-110.62262539999999,POINT (-110.6226254 35.8684039),Yes,,Hopi,Hopi Reservation,,,New Retailer,Independent,,,N,748197.0,112 MAIN ST,KYKOTSMOVI VILLAGE,AZ,86039,,NAVAJO,1940931,THE VILLAGE STORE LLC,Mercedes J Burley,"Address: 4411 s 40th st, bldg D #12, PHOENIX, AZ, 85040, USA",4411 S 40TH ST BLDG D # 12 PHOENIX AZ 85040 USA,PHOENIX,AZ,85040
2130,,US HWY 191,,ROCK POINT,AZ,86545,,,,,,,,,,,,Active,GIANT,"US Hwy 191, Rock Point, AZ, 86545",36.7169114,-109.61932220000001,POINT (-109.6193222 36.7169114),Yes,,Navajo Nation,Navajo Nation Reservation,,,New Retailer,Giant Industries Inc,Tempe,AZ,N,514475.0,US HWY 191,ROCK POINT,AZ,86545,,APACHE,L09475492,"GIANT, LLC",MICHAEL M CURTISS,"Address: % MICHAEL M CURTISS 1900 W CHANDLER #14, CHANDLER, AZ, 85224, USA",3920 E WALDON AVE PHOENIX AZ 85018 USA,PHOENIX,AZ,85018
2131,,HWY 191 & NAVAJO 64,,CHINLE,AZ,86503,,,,,,,,,,,,Active,GIANT,"Hwy 191 & Navajo 64, Chinle, AZ, 86503",36.10042,-109.58681000000001,POINT (-109.58681 36.10042),Yes,,Navajo Nation,Navajo Nation Reservation,,,New Retailer,Giant Industries Inc,Tempe,AZ,N,442268.0,HWY 191 & NAVAJO 64,CHINLE,AZ,86503,,APACHE,L09475492,"GIANT, LLC",MICHAEL M CURTISS,"Address: % MICHAEL M CURTISS 1900 W CHANDLER #14, CHANDLER, AZ, 85224, USA",3920 E WALDON AVE PHOENIX AZ 85018 USA,PHOENIX,AZ,85018
2150,,NAVAJO HWY 12,,LUKACHUKAI,AZ,86507,,,,,,,,,,,,Active,GIANT,"Navajo Hwy 12, Lukachukai, AZ, 86507",36.407433399999995,-109.26674809999999,POINT (-109.2667481 36.4074334),Yes,,Navajo Nation,Navajo Nation Reservation,,,New Retailer,Giant Industries Inc,Tempe,AZ,N,167748.0,NAVAJO HWY 12,LUKACHUKAI,AZ,86507,,APACHE,L09475492,"GIANT, LLC",MICHAEL M CURTISS,"Address: % MICHAEL M CURTISS 1900 W CHANDLER #14, CHANDLER, AZ, 85224, USA",3920 E WALDON AVE PHOENIX AZ 85018 USA,PHOENIX,AZ,85018
2151,,HWY 160 & HWY 163,,KAYENTA,AZ,86033,,,,,,,,,,,,Active,GIANT,"Hwy 160 & Hwy 163, Kayenta, AZ, 86033",36.70713,-110.25608000000001,POINT (-110.25608 36.70713),Yes,,Navajo Nation,Navajo Nation Reservation,,,New Retailer,Giant Industries Inc,Tempe,AZ,N,167715.0,HWY 160 & HWY 163,KAYENTA,AZ,86033,,NAVAJO,L09475492,"GIANT, LLC",MICHAEL M CURTISS,"Address: % MICHAEL M CURTISS 1900 W CHANDLER #14, CHANDLER, AZ, 85224, USA",3920 E WALDON AVE PHOENIX AZ 85018 USA,PHOENIX,AZ,85018
2154,,HWY 264 W,,WINDOW ROCK,AZ,86515,,,,,,,,,,,,Active,GIANT,"Hwy 264 W, Window Rock, AZ, 86515",35.6633857,-109.05414280000001,POINT (-109.0541428 35.6633857),Yes,,Navajo Nation,Navajo Nation Reservation,,,New Retailer,Giant Industries Inc,Tempe,AZ,N,639166.0,HWY 264 W,WINDOW ROCK,AZ,86515,,APACHE,L09475492,"GIANT, LLC",MICHAEL M CURTISS,"Address: % MICHAEL M CURTISS 1900 W CHANDLER #14, CHANDLER, AZ, 85224, USA",3920 E WALDON AVE PHOENIX AZ 85018 USA,PHOENIX,AZ,85018
2155,,HWY 160 & HWY 264,,TUBA CITY,AZ,86045,,,,,,,,,,,,Active,GIANT,"Hwy 160 & Hwy 264, Tuba City, AZ, 86045",36.122824200000004,-111.2241023,POINT (-111.2241023 36.1228242),Yes,,Navajo Nation,Navajo Nation Reservation,,,New Retailer,Giant Industries Inc,Tempe,AZ,N,636592.0,HWY 160 & HWY 264,TUBA CITY,AZ,86045,,COCONINO,L09475492,"GIANT, LLC",MICHAEL M CURTISS,"Address: % MICHAEL M CURTISS 1900 W CHANDLER #14, CHANDLER, AZ, 85224, USA",3920 E WALDON AVE PHOENIX AZ 85018 USA,PHOENIX,AZ,85018
2158,,HWY 160 N,,TUBA CITY,AZ,86045,,,,,,,,,,,,Active,CHEVRON,"Hwy 160 N, Tuba City, AZ, 86045",36.121103399999996,-111.22709029999999,POINT (-111.2270903 36.1211034),Yes,,Navajo Nation,Navajo Nation Reservation,,,New Retailer,Independent,,,Y,634334.0,HWY 160 N,TUBA CITY,AZ,86045,,COCONINO,,,,,,,,
2161,,264 ST HWY 191,,GANADO,AZ,86505,,,,,,,,,,,,Active,GIANT,"264 St Hwy 191, Ganado, AZ, 86505",35.709401,-109.5584646,POINT (-109.5584646 35.709401),Yes,,Navajo Nation,Navajo Nation Reservation,,,New Retailer,Giant Industries Inc,Tempe,AZ,N,167741.0,264 ST HWY 191,GANADO,AZ,86505,,APACHE,L09475492,"GIANT, LLC",MICHAEL M CURTISS,"Address: % MICHAEL M CURTISS 1900 W CHANDLER #14, CHANDLER, AZ, 85224, USA",3920 E WALDON AVE PHOENIX AZ 85018 USA,PHOENIX,AZ,85018
2163,,INDIAN RTE 4,,PINON,AZ,86510,,,,,,,,,,,,Active,CONOCO,"Indian Rte 4, Pinon, AZ, 86510",36.095694,-110.2172,POINT (-110.2172 36.095694),Yes,,Navajo Nation,Navajo Nation Reservation,,,New Retailer,Independent,,,Y,1904282.0,INDIAN RTE 4,PINON,AZ,86510,,NAVAJO,F00270049,CONOCO INC.,C T CORPORATION SYSTEM,"Address: 600 N DAIRY ASHFORD ***, HOUSTON, TX, 77079, USA",3225 N CENTRAL AVE PHOENIX AZ 85012 USA,PHOENIX,AZ,85012
2165,,HWY 160 MILE 449,,TEEC NOS POS,AZ,86514,,,,,,,,,,,,Active,TRADING POST,"Hwy 160 Mile 449, Teec Nos Pos, AZ, 86514",36.919979,-109.08365159999998,POINT (-109.0836516 36.919979),Yes,,Navajo Nation,Navajo Nation Reservation,,,New Retailer,Thriftway Marketing Corp,Farmington,NM,N,300929.0,HWY 160 MILE 449,TEEC NOS POS,AZ,86514,,APACHE,07766111,"TRADING POST, INC.",TOM SHANNON,"Address: 1568 N WAKONDA ST, FLAGSTAFF, AZ, 86004, USA",1568 N WAKONDA ST FLAGSTAFF AZ 86004 USA,FLAGSTAFF,AZ,86004
2171,,580 HWY 264,,SAINT MICHAELS,AZ,86511,,,,,,,,,,,,Active,NAPCO,"580 Hwy 264, Saint Michaels, AZ, 86511",35.655662,-109.1020493,POINT (-109.1020493 35.655662),Yes,,Navajo Nation,Navajo Nation Reservation,,,New Retailer,Thriftway Marketing Corp,Farmington,NM,N,700032.0,580 HWY 264,SAINT MICHAELS,AZ,86511,,APACHE,01086001,"NAPCO, LTD.",PAUL KOIVISTO,"Address: % KOIVISTO AND KOIVISTO, P.C., 7025 E GREENWAY PARKWAY, SUITE 500, SCOTTSDALE, AZ, 85254, USA",7025 E GREENWAY PKWY SUITE 500 SCOTTSDALE AZ 85254 USA,SCOTTSDALE,AZ,85254
2178,,16277 US HWY 66,,PEACH SPRINGS,AZ,86434,,,,,,,,,,,,Active,GAS N GRUB,"16277 US Hwy 66, Peach Springs, AZ, 86434",35.529140399999996,-113.42548629999999,POINT (-113.4254863 35.5291404),Yes,,Hualapai,Hualapai Indian Reservation,,,New Retailer,Gas N Grub HQ,Kingman,AZ,N,1694686.0,16277 US HWY 66,PEACH SPRINGS,AZ,86434,,MOHAVE,,,,,,,,
2336,,47337 C ST HWY 264,,SAINT MICHAELS,AZ,86511,,,,,,,,,,,,Active,FAMILY DOLLAR,"47337 C St Hwy 264, Saint Michaels, AZ, 86511",35.6554657,-109.0986675,POINT (-109.0986675 35.6554657),Yes,,Navajo Nation,Navajo Nation Reservation,,,New Retailer,Family Dollar Stores Inc,Matthews,NC,N,7586812.0,47337 C ST HWY 264,SAINT MICHAELS,AZ,86511,,APACHE,F08710462,"FAMILY DOLLAR, INC.",CORPORATION SERVICE COMPANY,"Address: 8825 N 23rd Avenue, Suite 100, PHOENIX, AZ, 85021, USA",8825 N 23RD AVE SUITE 100 PHOENIX AZ 85021 USA,PHOENIX,AZ,85021
2342,,1012 MAIN ST,,TUBA CITY,AZ,86045,,,,,,,,,,,,Active,FAMILY DOLLAR,"1012 Main St, Tuba City, AZ, 86045",36.1292,-111.2394,POINT (-111.2394 36.1292),Yes,,Navajo Nation,Navajo Nation Reservation,,,New Retailer,Family Dollar Stores Inc,Matthews,NC,N,7600507.0,1012 MAIN ST,TUBA CITY,AZ,86045,,COCONINO,F08710462,"FAMILY DOLLAR, INC.",CORPORATION SERVICE COMPANY,"Address: 8825 N 23rd Avenue, Suite 100, PHOENIX, AZ, 85021, USA",8825 N 23RD AVE SUITE 100 PHOENIX AZ 85021 USA,PHOENIX,AZ,85021
2377,,8920 S HIGHWAY 95,,MOHAVE VALLEY,AZ,86440,,,,,,,,,,,,Active,FAMILY DOLLAR,"8920 S Highway 95, Mohave Valley, AZ, 86440",34.89263,-114.59778999999999,POINT (-114.59779 34.89263),Yes,,Fort Mojave,Fort Mojave Reservation,,,New Retailer,Family Dollar Stores Inc,Matthews,NC,N,7260464.0,8920 S HIGHWAY 95,MOHAVE VALLEY,AZ,86440,,MOHAVE,F08710462,"FAMILY DOLLAR, INC.",CORPORATION SERVICE COMPANY,"Address: 8825 N 23rd Avenue, Suite 100, PHOENIX, AZ, 85021, USA",8825 N 23RD AVE SUITE 100 PHOENIX AZ 85021 USA,PHOENIX,AZ,85021
2577,,2750 E LAGUNA RD,,MOHAVE VALLEY,AZ,86440,,,,,,,,,,,,Active,MOHAVE VALLEY RACEWAY,"2750 E Laguna Rd, Mohave Valley, AZ, 86440",34.895195,-114.55388,POINT (-114.55388 34.895195),Yes,,Fort Mojave,Fort Mojave Reservation,,,New Retailer,Independent,,,N,1705211.0,2750 E LAGUNA RD,MOHAVE VALLEY,AZ,86440,,MOHAVE,13845449,"MOHAVE VALLEY RACEWAY, INC.",JOSEPH S MORABITO,"Address: 2303 E HULET AVE, MOHAVE VALLEY, AZ, 86440, USA",2303 E HULET AVE MOHAVE VALLEY AZ 86440 USA,MOHAVE VALLEY,AZ,86440
2685,,8415 N PIMA RD STE 125,,SCOTTSDALE,AZ,85258,,,,,,,,,,,,Active,ALL CARE PHARMACY,"8415 N Pima Rd Ste 125, Scottsdale, AZ, 85258",33.55735120000001,-111.89086029999999,POINT (-111.8908603 33.55735120000001),Yes,,Salt River,Salt River Reservation,,,New Retailer,Independent,,,N,7296843.0,8415 N PIMA RD STE 125,SCOTTSDALE,AZ,85258,,MARICOPA,,,,,,,,
2714,,9000 E INDIAN BEND RD,,SCOTTSDALE,AZ,85250,,,,,,,,,,,,Active,CVS PHARMACY,"9000 E Indian Bend Rd, Scottsdale, AZ, 85250",33.540555100000006,-111.88699540000002,POINT (-111.8869954 33.54055510000001),Yes,,Salt River,Salt River Reservation,,,New Retailer,CVS Division 8,Woonsocket,RI,N,7458615.0,9000 E INDIAN BEND RD,SCOTTSDALE,AZ,85250,,MARICOPA,F10106595,"CVS PHARMACY, INC.",C T CORPORATION SYSTEM,"Address: CT CORPORATION SYSTEM 3800 N CENTRAL AVE SUITE 460, PHOENIX, AZ, 85012, USA",3800 N CENTRAL AVE SUITE 460 PHOENIX AZ 85012 USA,PHOENIX,AZ,85012
2798,,310 OCOTILLO LN,,SACATON,AZ,85147,,,,,,,,,,,,Active,SACATON SUPER MART,"310 Ocotillo Ln, Sacaton, AZ, 85147",33.0850734,-111.7549412,POINT (-111.7549412 33.0850734),Yes,,Gila River,Gila River Indian Reservation,,,New Retailer,Independent,,,N,471112.0,310 OCOTILLO LN,SACATON,AZ,85147,,PINAL,L19196666,SACATON SUPER MART LLC,T NATHAN ROBINETTE,"Address: % T NATHAN ROBINETTE 310 OCOTILLO DR, SACATON, AZ, 85247, USA",44411 W OSTER DR MARICOPA AZ 85138 USA,MARICOPA,AZ,85138
2806,,HWY 70,,PERIDOT,AZ,85542,,,,,,,,,,,,Active,BASHAS MARKET,"Hwy 70, Peridot, AZ, 85542",33.298134999999995,-110.4741006,POINT (-110.4741006 33.29813499999999),Yes,,San Carlos,San Carlos Reservation,,,New Retailer,Bashas Markets Inc,Chandler,AZ,N,519746.0,HWY 70,PERIDOT,AZ,85542,,GILA,,,,,,,,
2812,,1020 W ARIZONA AVE,,PARKER,AZ,85344,,,,,,,,,,,,Active,FOOD CITY,"1020 W Arizona Ave, Parker, AZ, 85344",34.1468,-114.28867,POINT (-114.28867 34.1468),Yes,,Colorado River,Colorado River Indian Reservation,,,New Retailer,Bashas Markets Inc,Chandler,AZ,N,241842.0,1020 W ARIZONA AVE,PARKER,AZ,85344,,LA PAZ,,,,,,,,
2823,,HWY 73 & MAIN ST,,WHITERIVER,AZ,85941,,,,,,,,,,,,Active,BASHAS MARKET,"Hwy 73 & Main St, Whiteriver, AZ, 85941",33.82422879999999,-109.97905379999999,POINT (-109.9790538 33.82422879999999),Yes,,Fort Apache,Fort Apache Reservation,,,New Retailer,Bashas Markets Inc,Chandler,AZ,N,114161.0,HWY 73 & MAIN ST,WHITERIVER,AZ,85941,,NAVAJO,,,,,,,,
2840,,1115 S MOHAVE AVE,,PARKER,AZ,85344,,,,,,,,,,,,Active,RUNNING MAN,"1115 S Mohave Ave, Parker, AZ, 85344",34.1472519,-114.29316770000001,POINT (-114.2931677 34.1472519),Yes,,Colorado River,Colorado River Indian Reservation,,,New Retailer,Independent,,,N,7425188.0,1115 S MOHAVE AVE,PARKER,AZ,85344,,LA PAZ,,,,,,,,
2841,,28645 AIRPORT RD,,PARKER,AZ,85344,,,,,,,,,,,,Active,RUNNING MAN,"28645 Airport Rd, Parker, AZ, 85344",34.154272,-114.272461,POINT (-114.272461 34.154272),Yes,,Colorado River,Colorado River Indian Reservation,,,New Retailer,Independent,,,N,7425197.0,28645 AIRPORT RD,PARKER,AZ,85344,,LA PAZ,,,,,,,,
2846,,7001 W SUNDUST RD,,CHANDLER,AZ,85226,,,,,,,,,,,,Active,LOVES TRAVEL STOP,"7001 W Sundust Rd, Chandler, AZ, 85226",33.2793413,-111.96240039999999,POINT (-111.9624004 33.2793413),Yes,,Gila River,Gila River Indian Reservation,,,New Retailer,Loves Country Stores Inc,Oklahoma City,OK,N,1907442.0,7001 W SUNDUST RD,CHANDLER,AZ,85226,,MARICOPA,,,,,,,,
2849,,8823 E CHAPARRAL RD,,SCOTTSDALE,AZ,85250,,,,,,,,,,,,Active,CHEVRON,"8823 E Chaparral Rd, Scottsdale, AZ, 85250",33.509384000000004,-111.88798500000001,POINT (-111.887985 33.509384),Yes,,Salt River,Salt River Reservation,,,New Retailer,Independent,,,Y,1532027.0,8823 E CHAPARRAL RD,SCOTTSDALE,AZ,85250,,MARICOPA,,,,,,,,
2854,,5139 W WILDHORSE PASS BLVD,,CHANDLER,AZ,85226,,,,,,,,,,,,Active,CHEVRON,"5139 W Wildhorse Pass Blvd, Chandler, AZ, 85226",33.2775009,-111.9703209,POINT (-111.9703209 33.2775009),Yes,,Gila River,Gila River Indian Reservation,,,New Retailer,Independent,,,Y,3692310.0,5139 W WILDHORSE PASS BLVD,CHANDLER,AZ,85226,,MARICOPA,,,,,,,,
2865,,320 E BLUEWATER DR,,PARKER,AZ,85344,,,,,,,,,,,,Active,QUICK E MINI MART,"320 E Bluewater Dr, Parker, AZ, 85344",34.164159999999995,-114.28962,POINT (-114.28962 34.16416),Yes,,Colorado River,Colorado River Indian Reservation,,,New Retailer,Independent,,,N,7415229.0,320 E BLUEWATER DR,PARKER,AZ,85344,,LA PAZ,,,,,,,,
2868,,1555 HWY 69,,PRESCOTT,AZ,86301,,,,,,,,,,,,Active,GOOD 2 GO,"1555 Hwy 69, Prescott, AZ, 86301",34.548252000000005,-112.445595,POINT (-112.445595 34.54825200000001),Yes,,Yavapai-Prescott,Yavapai-Prescott Reservation,,,New Retailer,Good 2 Go Stores LLC,Idaho Falls,ID,N,687326.0,1555 HWY 69,PRESCOTT,AZ,86301,,YAVAPAI,,,,,,,,
2877,,616 W RIVERSIDE DR,,PARKER,AZ,85344,,,,,,,,,,,,Active,QUICK MART,"616 W Riverside Dr, Parker, AZ, 85344",34.1523577,-114.28603600000001,POINT (-114.286036 34.1523577),Yes,,Colorado River,Colorado River Indian Reservation,,,New Retailer,Independent,,,N,1441650.0,616 W RIVERSIDE DR,PARKER,AZ,85344,,LA PAZ,L13752600,"QUICK MART, LLC",DHIA SHARMOOKH,"Address: 1806 N SCOTTSDALE RD, TEMPE, AZ, 85281, USA",3220 N PEORIA AVE PHOENIX AZ 85029 USA,PHOENIX,AZ,85029
2883,,5 MILES E GLOBE HWY 70,,SAN CARLOS,AZ,85550,,,,,,,,,,,,Active,CHEVRON,"5 Miles E Globe Hwy 70, San Carlos, AZ, 85550",33.3568646,-110.66734550000001,POINT (-110.6673455 33.3568646),Yes,,San Carlos,San Carlos Reservation,,,New Retailer,Independent,,,Y,3928784.0,5 MILES E GLOBE HWY 70,SAN CARLOS,AZ,85550,,GILA,,,,,,,,
3051,,8950 E INDIAN BEND RD,,SCOTTSDALE,AZ,85250,,,,,,,,,,,,Active,99 CENTS ONLY STORES,"8950 E Indian Bend Rd, Scottsdale, AZ, 85250",33.53853,-111.866455,POINT (-111.866455 33.53853),Yes,,Salt River,Salt River Reservation,,,New Retailer,99 Cents Only Stores,Los Angeles,CA,N,7323580.0,8950 E INDIAN BEND RD,SCOTTSDALE,AZ,85250,,MARICOPA,R18848353,99 CENTS ONLY STORES LLC,CT CORPORATION SYSTEM,"Address: CT CORPORATION SYSTEM 3800 N CENTRAL AVE SUITE 460, PHOENIX, AZ, 85012, USA",3800 N CENTRAL AVE SUITE 460 PHOENIX AZ 85012 USA,PHOENIX,AZ,85012
3069,,1016 S KOFA AVE,,PARKER,AZ,85344,,,,,,,,,,,,Active,FAMILY DOLLAR,"1016 S Kofa Ave, Parker, AZ, 85344",34.14906,-114.29143,POINT (-114.29143 34.14906),Yes,,Colorado River,Colorado River Indian Reservation,,,New Retailer,Family Dollar Stores Inc,Matthews,NC,N,1786634.0,1016 S KOFA AVE,PARKER,AZ,85344,,LA PAZ,F08710462,"FAMILY DOLLAR, INC.",CORPORATION SERVICE COMPANY,"Address: 8825 N 23rd Avenue, Suite 100, PHOENIX, AZ, 85021, USA",8825 N 23RD AVE SUITE 100 PHOENIX AZ 85021 USA,PHOENIX,AZ,85021
3071,,9000 E INDIAN BEND RD,,SCOTTSDALE,AZ,85250,,,,,,,,,,,,Active,TARGET STORE,"9000 E Indian Bend Rd, Scottsdale, AZ, 85250",33.540555100000006,-111.88699540000002,POINT (-111.8869954 33.54055510000001),Yes,,Salt River,Salt River Reservation,,,New Retailer,Target Stores,Minneapolis,MN,N,364349.0,9000 E INDIAN BEND RD,SCOTTSDALE,AZ,85250,,MARICOPA,,,,,,,,
3090,,1851 HWY 69 E,,PRESCOTT,AZ,86301,,,,,,,,,,,,Active,TARGET STORE,"1851 Hwy 69 E, Prescott, AZ, 86301",34.5509665,-112.433903,POINT (-112.433903 34.5509665),Yes,,Yavapai-Prescott,Yavapai-Prescott Reservation,,,New Retailer,Target Stores,Minneapolis,MN,N,543332.0,1851 HWY 69 E,PRESCOTT,AZ,86301,,YAVAPAI,,,,,,,,
3110,,10411 E MCDOWELL RD,,SCOTTSDALE,AZ,85256,,,,,,,,,,,,Active,CLASSIC COOKING,"10411 E Mcdowell Rd, Scottsdale, AZ, 85256",33.46577,-111.85876499999999,POINT (-111.858765 33.46577),Yes,,Salt River,Salt River Reservation,,,New Retailer,Independent,,,N,2153740.0,10411 E MCDOWELL RD,SCOTTSDALE,AZ,85256,,MARICOPA,12573139,CLASSIC COOKING INC.,PASCAL DIONOT,"Address: 10411 E. MCDOWELL MOUNTAIN RANCH ROAD, SCOTTSDALE, AZ, 85255, USA",13571 E. ESTRELLA AVE. SCOTTSDALE AZ 85259 USA,SCOTTSDALE,AZ,85259
3124,,9700 E INDIAN BEND RD,,SCOTTSDALE,AZ,85256,,,,,,,,,,,,Active,ORANGE SKY,"9700 E Indian Bend Rd, Scottsdale, AZ, 85256",33.53861989999999,-111.870777,POINT (-111.870777 33.53861989999999),Yes,,Salt River,Salt River Reservation,,,New Retailer,Independent,,,N,3746561.0,9700 E INDIAN BEND RD,SCOTTSDALE,AZ,85256,,MARICOPA,,,,,,,,
3199,,716 S LAGUNA AVE,,PARKER,AZ,85344,,,,,,,,,,,,Active,ELKS LODGE,"716 S Laguna Ave, Parker, AZ, 85344",34.151509999999995,-114.294495,POINT (-114.294495 34.15150999999999),Yes,,Colorado River,Colorado River Indian Reservation,,,New Retailer,Independent,,,Y,5242977.0,716 S LAGUNA AVE,PARKER,AZ,85344,,LA PAZ,,,,,,,,
3203,,516 S HOPI AVE,,PARKER,AZ,85344,,,,,,,,,,,,Active,VETERANS OF FOREIGN WARS,"516 S Hopi Ave, Parker, AZ, 85344",34.156376,-114.29079399999999,POINT (-114.290794 34.156376),Yes,,Colorado River,Colorado River Indian Reservation,,,New Retailer,Independent,,,Y,5239924.0,516 S HOPI AVE,PARKER,AZ,85344,,LA PAZ,,,,,,,,
3244,,9500 E TALKING STICK WAY,,SCOTTSDALE,AZ,85256,,,,,,,,,,,,Active,TOPGOLF,"9500 E Talking Stick Way, Scottsdale, AZ, 85256",33.541421299999996,-111.87660759999999,POINT (-111.8766076 33.5414213),Yes,,Salt River,Salt River Reservation,,,New Retailer,TopGolf Corp HQ,Dallas,TX,N,7313975.0,9500 E TALKING STICK WAY,SCOTTSDALE,AZ,85256,,MARICOPA,1924596,"TOPGOLF MEDIA, LLC",CT Corporation System,"Address: 3800 North Central Avenue, PHOENIX, AZ, 85012, USA",3800 NORTH CENTRAL SUITE 460 PHOENIX AZ 85012 USA,PHOENIX,AZ,85012
3302,,1771 E STATE ROUTE 69,,PRESCOTT,AZ,86301,,,,,,,,,,,,Active,PICTURE SHOW,"1771 E State Route 69, Prescott, AZ, 86301",34.54942,-112.43923000000001,POINT (-112.43923 34.54942),Yes,,Yavapai-Prescott,Yavapai-Prescott Reservation,,,New Retailer,Independent,,,N,7294217.0,1771 E STATE ROUTE 69,PRESCOTT,AZ,86301,,YAVAPAI,,,,,,,,
3323,,9500 E VIA DE VENTURA,,SCOTTSDALE,AZ,85256,,,,,,,,,,,,Active,ODY SEA AQUARIUM,"9500 E Via De Ventura, Scottsdale, AZ, 85256",33.5556735,-111.87698020000002,POINT (-111.8769802 33.5556735),Yes,,Salt River,Salt River Reservation,,,New Retailer,Independent,,,N,7495401.0,9500 E VIA DE VENTURA,SCOTTSDALE,AZ,85256,,MARICOPA,,,,,,,,
3332,,8900 E CHAPARRAL RD,,SCOTTSDALE,AZ,85250,,,,,,,,,,,,Active,ARIZONA CASINO,"8900 E Chaparral Rd, Scottsdale, AZ, 85250",33.5103298,-111.88936979999998,POINT (-111.8893698 33.5103298),Yes,,Salt River,Salt River Reservation,,,New Retailer,Independent,,,N,1742501.0,8900 E CHAPARRAL RD,SCOTTSDALE,AZ,85250,,MARICOPA,,,,,,,,
